####018000682####
SMAA01 SAWB 050600
AAXX 05064
88963 32460 50203 11034 21045 39944 49974 56007 82606 333
56607 82712 85270 92406 92730 92820 94070 95000=
88968 11360 53209 11084 21092 39969 49984 57042 69901 72272 82676
333 56755 82707 83360 85270 90125 90322 92416 92732 92800 95092=
89034 31970 01416 11134 21150 39522 49851 57017 70230 333
90120 92830 96436=
89053 32362 83219 11007 21025 30018 40032 56005 8467/ 333 56679 82707 84710 88360 92427 92739 92851 94070 95030=
89055 32965 42020 10034 21055 39713 49956 57012 80006
333 56000
84270 92739 92840 95100=
89066 11350 83218 11020 21026 30036 40045 56001 60011 71072 8667/
333 56119 86708 88550 92406 92733 92840=
####018000044####
SMAA01 SAWB 050600 RRA
AAXX 05063
NIL
####018003663####
SMRO01 KWBC 050600
AAXX 05061
15007 01998 02200 10123 20096 39726 40190 57002 69922 701// 333
10143 20070 30/// 60007 70002 91001 91103=
15047 02998 10300 10104 20099 39744 40182 54001 60002 81040 333
10158 20080 30011 55305 0//// 20460 3//// 60007 70000 91001 91101=
15056 02997 03602 10159 20089 39837 40180 54000 60002 333 10174
20136 30014 55300 0//// 20444 3//// 60007 70000 91002 91103=
15063 02997 43300 10151 20115 39814 40165 54001 60002 84070 333
10176 20115 39009 55301 ///// 20286 3//// 60007 70000 91001 91101=
15088 02199 53002 10052 20049 37988 48513 54001 60002 84240 333
10054 20034 30/// 55302 0//// 20379 3//// 60007 70000 91003 91105
95150=
15094 02997 03501 10121 20097 39720 40193 54001 60002 333 10135
20105 31012 55300 0//// 20162 3//// 60007 70009 91002 91102=
15111 02997 03001 10126 20112 39920 40180 54001 60002 333 10166
20095 31010 60007 70000 91003 91103=
15119 02198 10000 10076 20049 38169 48508 53002 60002 81500 333
10079 20055 30/// 60007 70000 95100=
15143 06/// /0200 10125 20099 39669 40177 54001 60002 333 10183
20117 3//// 55300 0//// 20147 3//// 60007 70000 91101=
15163 05967 01801 10111 20080 38661 48518 54001 60002 333 10113
20074 30009 55300 0//// 20167 3//// 60007 70000 91002 91102=
15000 02997 03502 10131 2//// 39882 40194 54000 60002 333 10170
20102 30011 55310 60007 70000 91003 91105=
15004 02998 01000 10117 20090 39853 40185 54000 60002 333 10182
20088 30008 60007 70000 91002 91103=
15010 02698 20802 10135 20110 30016 40166 52002 60002 81540 333
10189 20079 30013 55307 ///// 20548 3//// 60007 70000 91003 91103=
15014 02798 31301 10148 20108 39944 40168 54001 60002 82502 333
10190 20103 30008 55303 ///// 20441 3//// 60007 70000 91001 91104=
15023 02998 03501 10124 20098 39750 40171 54001 60002 333 10162
20086 31006 55309 ///// 20658 3//// 60007 70000 91002 91103=
15025 01996 03403 10142 20123 30047 40180 54000 60002 710// 333
10188 20127 30010 60007 70000 91005 91106=
15033 02998 02101 10063 20043 38221 48512 54001 60002 333 10071
20036 30/// 55306 0//// 20493 3//// 60007 70000 91002 91102 95000
95100=
15069 01496 40401 10089 20088 39122 42808 54001 60002 7284/ 84600
333 10121 20063 30006 6///7 70000 91001 91102=
15073 02998 00401 10137 20106 39729 40190 54001 60002 333 10157
20091 31008 60007 70002 91001 91101=
15083 02598 70101 10116 20104 39891 40171 52002 60002 87500 333
10170 20082 30013 55300 0//// 20179 3//// 60007 70000 91002 91102=
15085 02597 60602 10148 20091 39735 40169 54001 60002 82530 333
10177 20118 30010 4/000 55301 ///// 20368 3//// 60007 70000 91004
91104=
15099 02998 20400 10142 20101 39518 42802 53001 60002 82030 333
10175 20091 30012 553// 60007 70000 91001 91101=
15109 05598 12702 10139 20106 39757 40186 54001 60002 70000 81500
333 10160 20105 31008 55310 ///// 20699 3//// 60007 70000 91003
91103=
15154 02997 03302 10121 20106 30036 40178 54000 60002 333 10164
20097 30007 55310 ///// 20757 3//// 60007 70000 91003 91104=
15264 02997 23501 10169 20104 30115 40185 52003 60002 82030 333
10194 20138 30012 55307 ///// 20572 3//// 60007 70006 91003 91104=
15319 06/// /3201 10152 20110 39507 42/// 52003 60002 333 10187
20138 3//// 55300 0//// 20146 3//// 60007 70000 91101=
15337 02597 13305 10158 20110 39970 40171 5//// 60002 81500 333
10186 20143 30015 60007 70000 91006 91107=
15445 01597 83002 10155 20155 30071 40177 53004 60012 7026/ 8457/
333 10193 20152 31016 55300 60017 70013 91003 91104=
15113 02997 12801 10129 20114 30019 40181 54000 60002 81040 333
10170 20087 31010 55307 0//// 20632 3//// 6///7 70004 91002 91102=
####018003709####
SMRO01 KWBC 050600 RRA
AAXX 05061
15194 02998 03004 10133 20101 39896 40187 54000 60002 333 10154
20110 30015 60007 70000 91006 91107=
15197 02997 00601 10135 20106 39974 40183 52002 60002 333 10174
20105 31011 55301 0//// 20524 3//// 60007 70008 91002 91102=
15219 02998 03004 10147 20109 30050 40173 53001 60002 333 10180
20113 30014 55310 60007 70002 91007 91107=
15265 02998 03503 10153 20122 30106 40180 52002 60002 333 10191
20102 30011 55300 0//// 20476 3//// 60007 70002 91004 91104=
15296 02670 61701 10162 20128 39466 42805 54001 60002 86300 333
10177 20114 30011 55300 0//// 20306 3//// 60007 70000 91002 91102
95000=
15320 02598 72201 10097 20092 38463 48513 54000 60002 87300 333
10115 20083 31/// 60007 70000 91004 91104 95080 95190=
15336 01998 03601 10172 20122 30161 40162 52004 60002 700// 333
10194 20144 30016 55310 0//// 20787 3//// 60007 70000 91003 91105=
15341 01570 80501 10177 20129 39866 40161 52005 60002 700// 885//
333 10208 20137 30020 55300 0//// 20110 3//// 60007 70000 91001
91101=
15344 02597 80901 10163 20132 39558 42811 52003 69922 8537/ 333
10198 20156 30016 55300 0//// 20177 3//// 60007 70002 91003 91103=
15369 02997 73400 10172 20129 39860 40174 52004 60002 87070 333
10243 20130 30013 55300 0//// 20201 3//// 60007 70000 91002 91103=
15387 02597 43404 10190 20141 30157 40160 52003 60002 84200 333
10194 20145 30016 55306 0//// 20713 3//// 60007 70000 91006 91106=
15395 02598 71103 10163 20127 39846 40178 52006 60002 84370 333
10235 20147 30016 60007 70000 91004 91105=
15406 01497 82901 10158 20146 30125 40172 53002 60022 7026/ 8672/
333 10188 20151 31015 60017 70024 91003 91103=
15409 01597 60104 10169 20117 30117 40165 52003 69972 7258/ 86400
333 10201 20157 31015 55310 0//// 2//// 3//// 69937 70007 91005
91105=
15412 06/// /0803 10152 20106 39804 40177 52006 60002 333 10215
20133 3//// 55300 0//// 20254 3//// 60007 70000 91106=
15428 01597 73503 10176 20143 30159 40163 52005 60012 72582 87900
222// 06230 20000 333 10202 20169 31/// 55300 10124 20143 30141
69927 70012 91004 91104 92417=
15434 02597 70903 10165 20126 39967 40173 52006 60002 84370 333
10239 20150 30017 4/000 55300 ///// 20189 3//// 60007 70000 91008
91108=
15444 01597 83402 10159 20145 30104 40173 53006 60012 725// 889//
333 10194 20152 31017 55300 69977 70014 91004 91105=
15462 01597 80202 10161 20148 30083 40168 53002 69962 78022 889//
333 10212 20159 31016 69967 70006 91003 91104=
15465 02997 20703 10180 20120 30096 40166 52007 60002 81041 333
10247 20154 30015 4/000 55303 0//// 20373 3//// 60007 70000 91005
91105=
15469 02597 60704 10176 20130 30044 40171 52008 60002 82370 333
10252 20153 30022 60007 70000 91007 91107=
15479 02597 82301 10158 20142 39983 40172 53009 60002 8397/ 333
10191 20153 30014 60007 70000 91001 91102=
15482 02997 00803 10179 20122 30095 40168 52010 60002 333 10243
20126 30016 60007 70000 91005 91105=
15494 02997 61003 10180 20121 30121 40165 52007 60002 86070 333
10243 20152 30015 60007 70000 91004 91104=
15499 01597 83102 10187 20146 30149 40158 52007 69902 7258/ 8497/
222// 06228 2//// 333 10229 20183 30019 55300 69907 79999 91006
91106 92427=
15044 06/// /2002 10128 20097 39973 40167 54001 60002 333 10182
20090 3//// 55300 0//// 20342 3//// 60007 70000 91102=
15117 02998 00502 10130 20109 39967 40164 54001 60002 333 10197
20086 30010 4/000 55306 0//// 20475 3//// 60007 70000 91003 91103=
15136 02997 01101 10134 20117 30045 40162 51001 60002 333 10183
20090 30013 55310 60007 70000=
15162 01496 82100 10100 20095 39464 42802 54001 60002 7102/ 886//
333 10158 20088 30/// 60007 70000 91002 91103=
####018003682####
SMOS01 KWBC 050600
AAXX 05061
11001 15/// /3201 10168 20101 39444 40146 53006 60002 333 10195
20152 3/012 55300=
11012 12885 12204 10139 20102 39704 40161 53006 60002 81500 333
10201 20122 3/010 55300=
11021 15/// /0601 10099 20085 39510 40164 52002 60002 333 10184
20071 3/005 55300=
11027 15/// /2801 10125 20099 39912 40156 53005 60002 333 10200
20106 55300=
11037 15/// /1301 10139 20109 39975 40157 53009 60002 333 10199
20107 3/008 55300=
11040 15/// /1701 10136 20113 39918 40154 53007 69902 333 10208
20115 3/009 55300=
11053 12980 00000 10133 20111 39658 40160 53006 60002 80000 333
10202 20112 3/010 55300=
11105 15/// /0000 10160 20134 39656 40161 53008 60002 333 10201
20152 3/013 55300=
11112 15/// /1501 10126 20097 39246 40171 53002 60002 333 10186
20118 3/011 55300=
11120 15783 73601 10128 20113 39484 40171 50002 60005 333 20109
3/008 81656 87358=
11121 15/// /0000 10128 20113 39496 40175 53003 60002 333 10195
20109 3/008 55300=
11140 12986 71701 10121 20107 39448 40170 57001 60002 8707/ 333
10159 20094 3/008 55300=
11141 31762 20000 10104 20093 39546 40190 52005 72500 333 10175
20099=
11155 12984 13205 10121 20059 38390 48512 53001 60002 81030 333
10147 20103 3/007 55300 81358 90760 91114=
11157 11180 13601 10073 20071 39427 40194 53005 60005 70240 81600
333 20053 31004 81702=
11190 12965 01101 10150 20101 39933 40148 53006 60002 80000 333
10202 20117 3/010 55300=
11201 15/// /2401 10087 20069 38947 48507 53002 60002 333 10162
20072 3/007 55300=
11213 15/// /2801 10123 20096 39597 40177 53006 60002 333 10192
20111 3/009 55300=
11232 32782 10801 10114 20105 39551 40173 51005 81600 333 10167
20083 55300=
11240 15980 03601 10115 20101 39734 40163 50003 60005 80000 333
20080 3/005=
11244 15/// /0902 10131 20104 39842 40163 53004 60002 333 10171
20094 55300=
11296 15/// /0000 10132 20109 39848 40162 53005 60002 333 10179
20095 3/007 55300=
11302 15/// /1701 10151 20124 39691 40165 53009 60002 333 10185
20143 3/011 55300=
11304 15/// /2201 10129 20098 39002 48512 53004 69902 333 10144
20125 55300=
11308 15/// /2601 10105 20064 38549 48518 53005 60002 333 10153
20105 3/009 55300=
11312 15/// /2507 10109 20060 38438 48516 53002 60002 333 10148
20109 3/009 55300=
11316 15/// /2502 10030 20016 37230 47110 57005 60002 333 10089
20026 55300=
11325 15/// /2301 10132 20114 39551 40175 53003 60002 333 10228
20116 55300=
11340 15/// /3601 10097 20044 38065 48514 52001 60002 333 10136
20079 55300=
11349 15/// /0402 10097 20043 38376 48515 53002 60002 333 10121
20076 3/003 55300=
11350 15/// /0000 10133 20113 39671 40160 53002 60002 333 10197
20114 3/009 55300=
11389 12980 02004 10132 20111 39836 40154 53005 60002 80000 333
10213 20114 3/010 55300=
11395 15/// /1301 10144 20117 30012 40156 53007 60002 333 10195
20118 55300=
11010 15880 13601 10126 20111 39792 40162 53006 60005 333 20104
3/008 81657=
11018 15/// /2702 10131 20113 39849 40162 53004 60002 333 10209
20098 3/009 55300=
11020 15/// /0000 10068 20065 39565 40167 52002 69902 333 10148
20053 3/006 55300=
11022 12964 00000 10145 20106 39770 40145 53004 60002 80000 333
10199 20123 3/009 55300=
11025 12662 60000 10138 20099 39492 40151 53003 69902 82171 333
10187 20089 3/007 55300 82836 83462=
11030 12982 01901 10135 20106 39943 40153 50003 60005 80000 333
20109 30009=
11051 45/// /2501 10142 20115 39704 40158 53008 333 10182 20112
3/011=
11055 15/// /3601 10119 20104 39795 40166 53009 60002 333 10190
20106 3/009 55300=
11060 15/// /2001 10135 20116 39848 40158 53006 60002 333 10206
20122 3/012 55300=
####018003735####
SMOS01 KWBC 050600 RRA
AAXX 05061
11078 15/// /2303 10167 20102 39359 40149 53005 60002 333 10191
20135 55300=
11080 15/// /0000 10131 20105 39887 40157 53006 60002 333 10205
20097 55300=
11082 15/// /0000 10145 20118 39903 40164 53006 60002 333 10195
20100 3/009 55300=
11083 15/// /3003 10153 20099 39616 40147 52004 60002 333 10184
20133 3/012 55300=
11085 15/// /2201 10140 20119 39982 40156 53008 60002 333 10193
20102 55300=
11101 15/// /3201 10157 20124 39659 40166 53008 60002 333 10192
20148 3/013 55300=
11110 15/// /2905 10060 20055 37931 48518 55001 60002 333 10118
20059 55300=
11126 15/// /0403 10061 20035 37775 48514 56002 60002 333 10127
20061 55300=
11136 15/// /0000 10107 20096 39030 48513 54000 60002 333 10143
20095 3/009 55300=
11146 32684 22203 10032 21004 37001 47115 56002 82040 333 10058
20016 41998 55300 82342 444 46305=
11148 31/01 90000 10062 20055 38987 48507 51002 74544 333 10152
20035 89/00=
11149 15/// /3202 10093 20057 38273 48520 53003 60002 333 10127
20081 55300=
11150 15984 51505 10145 20109 39641 40158 50002 60005 333 20120
30010 81358 84362=
11153 15/// /3301 10137 20118 39602 40163 53004 60002 333 10183
20115 55300=
11170 15/08 91201 10082 20082 39463 40185 53006 60002 333 10130
20078 3/006 55300=
11171 15/// /1303 10079 20065 39181 40184 53004 60002 333 10172
20071 3/005 55300=
11192 15/// /0000 10106 20096 39845 40164 53004 60002 333 10184
20071 3/007 55300=
11204 15/// /0000 10096 20089 39404 40185 53005 60002 333 10190
20086 3/005 55300=
11220 15/// /0301 10075 20059 39180 40192 50002 60002 333 10154
20053 55300=
11225 32187 20000 10068 20062 39353 40192 53004 82600 333 10134
20054 55300=
11231 15181 13602 10108 20090 39617 40177 53006 60005 333 20096
3/007 81702=
11272 15/// /3301 10104 20090 39544 40184 53004 60002 333 10157
20082 3/007 55300=
11290 15/// /3401 10127 20100 39714 40159 53003 60002 333 10205
20106 3/008 55300=
11330 15/// /0000 10129 20105 39432 40173 55001 69902 333 10167
20109 3/009 55300=
11331 15/// /3001 10110 20092 39646 40179 53005 60002 333 10189
20096 3/008 55300=
11362 15/// /3202 10087 20077 39315 40186 50003 60002 333 10162
20064 3/007 55300=
11365 15/// /0000 10083 20078 39393 40190 53004 60002 333 10185
20060 3/004 55300=
11390 15/// /1901 10108 20096 39767 40168 53005 69902 333 10187
20090 3/008 55300=
11393 15/// /2801 10129 20107 39916 40154 53005 60002 333 10198
20098 3/009 55300=
11008 15/// /0000 10114 20091 39464 40165 53005 60002 333 10184
20090 3/008 55300=
11019 12784 12501 10145 20093 39453 40151 50004 60005 81500 333
20092 31005 81650=
11024 32970 03103 10165 20077 39070 48510 52004 80000 333 10165
20134 55300=
11032 12970 01601 10141 20103 39911 40155 53007 60002 80000 333
10202 20099 3/008 55300=
11059 15/// /0000 10129 20120 39790 40160 53005 60002 333 10196
20107 3/009 55300=
11075 15/// /3203 10118 20093 39907 40158 53003 60002 333 10204
20099 3/009 55300=
11119 15/// /0000 10109 20097 38843 48513 55000 60002 333 10168
20078 3/005 55300=
11127 15/// /2202 10063 20037 38078 48519 55001 60002 333 10119
20056 3/004 55300=
11138 11472 70201 10062 20037 37718 47114 57001 60002 70340 875//
333 10108 20056 55300 87617=
11152 15/// /0000 10157 20113 39573 40156 53006 60002 333 10194
20146 3/013 55300=
11161 15/// /3202 10110 20073 38807 48509 53004 60002 333 10130
20087 55300=
11180 12982 03208 10114 20068 38453 48512 53004 60002 80000 333
10138 20101 55300 90760 91116=
11182 13984 02002 10132 20096 39822 40159 51007 60005 80000 333
20089 31006=
11214 32982 00301 10105 20094 38995 48505 51002 80000 333 10139
20083 55300=
####018003687####
SMRO01 KWBC 050600 RRB
AAXX 05061
15189 06/// /1201 10152 20133 39789 40165 52002 60002 333 10172
20116 3/018 60007 70000 91001 91102=
15208 02997 41701 10145 20119 39875 40170 52003 60002 84070 333
10214 20127 30018 55301 0//// 20291 3//// 60007 70000 91001 91102=
15209 06/// /2801 10142 20128 39770 40172 52002 60002 333 10191
20123 3//// 55300 0//// 20275 3//// 60007 70000 91102=
15215 02599 52400 10130 20102 39581 42805 57003 60002 83360 333
10178 20102 30/// 55301 0//// 20343 3//// 60007 70000 91001 91102=
15238 02598 60801 10136 20100 39566 42807 54001 60002 86300 333
10162 20101 30009 60007 70002 91001 91102=
15245 06/// /1002 10132 20103 30064 40162 52003 60002 333 10182
20091 3//// 55300 0//// 20297 3//// 60007 70000 91104=
15254 01997 00800 10109 20090 38557 48510 54001 69922 7018/ 333
10111 20083 3//// 69927 70008 91001 91102=
15284 02398 51602 10088 20059 38377 48512 52002 60002 85500 333
10097 20078 30/// 60007 70000 91003 91103=
15285 02598 60103 10119 20084 39202 42808 53007 60002 86500 333
10122 20109 31/// 55300 0//// 20243 3//// 60007 70054 91006 91109=
15307 02570 43402 10182 20095 39991 40172 52005 60022 84500 333
10182 20156 3/015 4/000 55301 0//// 20422 3//// 69927 70034=
15316 02999 02301 10099 20067 38550 48507 54001 60002 333 10108
20083 30/// 55300 0//// 20149 3//// 60007 70000 91001 91102=
15345 02597 61003 10135 20122 39539 42809 52004 69962 86300 333
10179 20133 30014 55300 0//// 20315 3//// 60007 70006 91005 91106=
15347 02597 81600 10151 20137 39651 40178 53006 60012 8337/ 333
10183 20147 31017 55300 0//// 20208 3//// 60007 70050 91001 91104=
15377 01597 73101 10157 20143 39967 40180 52005 60032 70282 87300
333 10197 20145 31016 4/000 55300 ///// 20150 3//// 69967 70029
91002 91102=
15419 02597 80803 10148 20145 39996 40187 52005 60052 8472/ 333
10203 20146 31016 69927 70046 91004 91106=
15421 01597 80902 10150 20142 30082 40191 52007 60052 7258/ 8536/
333 10202 20149 31/// 55300 0//// 20079 3//// 60047 70048 91003
91105=
15425 02597 83302 10158 20141 30113 40176 53004 60022 8457/ 333
10196 20151 31017 4/000 55300 ///// 20137 3//// 69927 70021 91004
91104=
15455 02597 80705 10161 20135 30047 40176 52005 60002 8537/ 333
10215 20158 30016 4/000 55300 0//// 20128 3//// 60007 70000 91008
91108=
15490 02997 60903 10184 20124 30128 40167 52008 60002 86070 333
10249 20167 30018 4/000 55300 0//// 20303 3//// 60007 70000 91006
91107=
15498 02997 20804 10177 20132 30124 40165 52007 60002 82040 333
10244 20159 30015 60007 70000 91006 91107=
15107 02598 40000 10089 20083 39392 42813 54001 60002 84800 333
10147 20065 30005 60007 70000 91000 91101 95001=
15123 02598 40100 10148 20111 39707 40179 52002 60002 83240 333
10185 20131 30013 55300 0//// 20329 3//// 60007 70000 91002 91103=
15124 06/// /0901 10179 20094 39646 40169 54001 60002 333 10180
20135 3//// 60007 70000 91004 91104=
15127 02598 42701 10100 20086 39318 42812 54001 60002 81241 333
10144 20061 30004 55302 0//// 20469 3//// 60007 70000 91002 91102
95000=
15145 02697 40403 10142 20115 39807 40177 52002 60002 83501 333
10203 20128 31014 55301 ///// 20376 3//// 60007 70000 91004 91104=
15165 02698 51102 10156 20122 39556 42800 54001 60002 85800 333
10179 20137 30012 60007 70000 91003 91103=
15168 06/// /0302 10141 20106 39558 42800 57002 60002 333 10170
20111 3//// 60007 70000 91004 91104=
15182 02997 01301 10128 20113 39951 40165 54001 60002 333 10188
20100 30010 60007 70000 91002 91102=
15184 02999 11400 10125 20103 38828 48514 54001 60002 81040 333
10135 20109 30/// 60007 70000 91001 91102 95000 95140 444 47084=
####018003692####
SMRO01 KWBC 050600 RRC
AAXX 05061
15247 05/97 01301 10140 20104 30054 40159 53003 60002 7000/ 333
10213 20113 30010 55306 00067 20443 30117 60007 70000=
15261 02597 60400 10126 20103 39373 42819 57002 60002 86300 333
10153 20103 30011 55300 0//// 20262 3//// 60007 70000 91001 91101
95000=
15279 02997 03101 10073 20035 37959 48501 54000 60002 333 10088
20067 30/// 60007 70006 91001 91102=
15324 01561 81601 10128 20125 39391 42810 53006 60032 7028/ 8537/
333 10173 20127 31015 55300 0//// 20052 3//// 69917 70032 91002
91103=
15333 02998 23201 10169 20120 30154 40173 53002 60002 82040 333
10196 20140 30012 4/000 55308 ///// 20646 3//// 60007 70000 91002
91102=
15375 02597 80801 10148 20135 39831 40185 52007 60062 8557/ 333
10198 20139 31015 4/000 55300 ///// 20182 3//// 69937 70059 91002
91102=
15042 02997 02500 10120 20090 30012 40164 52003 60002 333 10192
20081 30011 4/000 55301 0//// 20324 3//// 60007 70000 91001 91101=
15095 03/// /1101 10136 20113 39771 40168 54000 60002 333 10161
20086 3//// 4//// 55300 0//// 20380 3//// 60007 70000 91002 91102=
15160 02998 01702 10135 20112 39828 40160 54001 60002 333 10176
20101 30010 60007 70000 91003 91104=
15179 06/// /3401 10175 20117 39609 40159 54000 60002 333 10184
20165 3//// 55300 0//// 20231 3//// 60007 70000 91102=
15204 06/// /0900 10101 20100 39988 40179 54001 60002 333 10173
20069 3//// 55300 0//// 20230 3//// 60007 70000 91101=
15231 02998 12801 10153 20123 39849 40172 52002 60002 81040 333
10207 20115 30011 55303 ///// 20454 3//// 60007 70000 91002 91103=
15277 06/// /3501 10146 20121 39561 42798 53001 60002 333 10178
20127 3//// 55303 60007 70000 91002 91103=
15301 01295 82102 10106 20101 38647 48528 54000 60062 71082 883//
333 10114 20105 31/// 55300 0//// 20187 3//// 60007 70257 91004
91104 95080=
15302 01295 81401 10117 20117 38940 48508 54000 60012 71022 883//
333 10137 20106 31010 55300 0//// 20176 3//// 60007 70058 91002
91102 95080=
15325 01/92 92102 10088 20088 38499 48510 54001 60092 74584 333
10109 20086 31/// 69927 70190 91004 91105=
15349 01597 83001 10139 20131 39640 40185 52006 60042 7028/ 883//
333 10166 20133 31010 55300 0//// 20154 3//// 69927 70138 91002
91102=
15364 02998 10000 10114 20102 39874 40183 52003 60002 81030 333
10179 20075 30007 60007 70000 91000 91100 95000=
15402 01597 81901 10156 20147 30105 40179 52005 60042 70282 889//
333 10206 20152 31015 55300 0//// 20079 3//// 60027 70036 91002
91103=
15405 01597 80203 10156 20136 30119 40181 53003 60032 7028/ 8337/
333 10202 20151 31016 55300 0//// 20106 3//// 69977 70031 91004
91105=
15475 01597 80502 10153 20145 30159 40179 52011 60022 7808/ 8637/
333 10205 20153 31016 55300 0//// 20046 3//// 60027 70022 91004
91105=
15118 02997 01100 10053 20053 38920 48502 54001 60002 333 10105
20040 31/// 60007 70000 91001 91101=
15206 06/// /0901 10124 20106 39845 40173 54000 60002 333 10183
20084 3//// 55300 0//// 20316 3//// 60007 70000 91103=
15262 02698 63602 10091 20049 38232 48512 54001 60002 86070 333
10092 20050 31/// 55303 0//// 20439 3//// 60007 70008 91002 91104=
15328 01596 72300 10143 20137 39838 40184 52006 60052 71022 83370
333 10166 20132 31015 4/000 55300 0//// 20293 3//// 60007 70059
91001 91102=
15366 02997 41400 10145 20118 39938 40166 52004 60002 84030 333
10216 20125 30/// 60007 70000 91001 91102 95000=
15416 01597 70605 10160 20135 39928 40177 52005 60002 703// 84370
333 10224 20152 30016 60007 70000 91007 91108=
15491 02997 70604 10175 20133 30140 40170 52006 60002 87070 333
10210 20169 30017 4/000 55300 ///// 20225 3//// 60007 7//// 91009
91109=
####018003709####
SMUK04 KWBC 050600
AAXX 05064
03023 17467 /2920 10128 20111 30202 40207 57008 60012 723// 333
20101 3/008 70022 81/13 86/50 90710 91130=
03031 17571 /2909 10078 20060 39869 40197 56003 60022 761// 333
20066 3/005 55006 55300 20000 70038 86/26 83/50=
03047 15683 /3602 10056 20054 39914 40220 57002 69902 333 20038
3/001 55/// 553// 20012 70026 82/35 86/50=
03212 15970 /1101 10053 20047 30141 40242 51013 60012 333 20048
3/003 70030 8//99=
03225 16983 /3104 10066 20037 39929 40239 51017 69962 333 20054
3/003 55030 55300 20015 70060 8//99=
03275 16984 /2812 10068 20041 30018 40213 51021 60002 333 20067
3/005 70014 8//99=
03330 169// /3303 10057 20051 39880 40247 53021 60012 333 20057
3/004 70038 81/68=
03351 15972 /3404 10080 20056 30199 40243 53018 69902 333 20075
55048 55300 20013 70012 81/69=
03392 16984 /3008 10088 20052 30213 40217 52025 60002 333 20086
3/007 70012 8//99=
03257 15980 /2808 10079 20034 30185 40226 52019 69922 333 20073
3/005 55054 55300 20026 70006 87/68=
03853 15780 /3310 10120 20076 30234 40258 53025 60002 333 20120
3/011 55067 55300 20007 70002 87/50=
03044 17684 /2903 10080 20068 30081 40180 57005 69982 723// 333
20062 3/005 55045 55300 20008 70044 82/37 86/58=
03210 16976 /3219 10104 20064 30088 40239 53015 60002 333 20098
3/009 70016 8//99 90710 91127=
03373 16985 /2907 10074 20053 30153 40224 53022 60002 333 20063
3/003 70002 8//99=
03410 16681 /2805 10079 20055 39819 40258 53013 60012 333 20077
3/006 55041 55300 20006 70030 82/47 91017=
03469 15984 /3110 10082 20055 30218 40222 52025 69922 333 20080
3/006 55/// 553// 20031 70054 8//99=
03544 15776 /3107 10102 20080 30108 40239 52025 69902 333 20102
3/009 55/// 553// 20011 70002 82/50=
03604 16581 /3313 10116 20074 30227 40281 53014 69922 333 20110
3/010 70002 81/27 83/46=
03781 15478 /3307 10106 20084 30025 40233 53025 60002 333 20106
3/009 55/// 553// 20017 70022 85/14 86/23=
03895 17579 /3315 10138 20090 30148 40251 53017 69902 723// 333
20136 3/012 55070 55300 20000 70014 81/21 87/35=
03904 15669 /0000 10085 20077 30211 40271 53003 69942 333 20073
3/004 70012 87/31=
03008 15679 /3116 10092 20032 30070 40143 52007 69942 333 20081
3/007 70020 81/30 90710 91131 91026=
03062 17784 /2107 10079 20063 30181 40186 57006 69922 723// 333
20048 3/003 55/// 553// 20011 70006 87/50=
03105 17671 /2916 10121 20093 30226 40243 53004 60012 723// 333
20095 3/009 70088 81/41 87/48=
03132 15673 /3011 10116 20079 30231 40245 53009 69902 333 20099
3/008 70040 84/35 84/56=
03214 15980 /3215 10116 20071 30218 40237 52010 69902 333 20095
3/007 70016 8//99=
03220 16981 ///// 10081 20050 30197 40232 51013 60002 333 20077
3/005 70028 81/67=
03238 15980 /2806 10059 20037 30040 40216 52013 69922 333 20054
3/003 70060 83/67=
03266 16976 /2909 10086 20042 30207 40225 51022 60002 333 20080
3/006 70004 87/68=
03301 16559 /3108 10109 20083 30192 40266 53011 60002 333 20102
70000 81/23 83/50=
03507 15670 /3502 10076 20057 39892 40269 53018 69942 333 20069
3/004 70012 85/46=
03710 16973 /3509 10080 20056 39847 40272 53021 60012 333 20079
3/005 55062 55300 20001 70012 8//99 91019=
03823 15672 /3513 10108 20058 30033 40277 53019 69942 333 20103
3/009 55/// 553// 20001 70004 86/41=
03862 15784 /3411 10118 20077 30234 40247 53021 69922 333 20105
3/007 55081 55300 20015 70004 87/50=
03911 15663 /2912 10083 20079 39991 40268 53004 69922 333 20075
3/006 70030 82/30=
03002 15575 /3119 10086 20041 30102 40120 51010 60022 333 20078
3/007 70238 81/27 87/34 90710 91126=
03034 17667 /2508 10110 20091 30180 40193 57008 69942 757// 333
20092 3/007 70018 81/37 87/47=
####018003698####
SMFI01 KWBC 050600
AAXX 05061
02741 47350 81707 10164 20156 39999 40014 57029 76386 88/// 90600
333 10169 20083 3/004=
02801 37999 70501 10050 20033 39469 40047 54002 70000 87/// 90600
333 10088 20027 3/101=
02805 37057 51701 10034 20033 39920 40054 52006 72032 85/// 90600
333 10101 20011 3/102=
02814 17157 81603 10071 20070 39822 40075 54001 69912 720// 88///
90600 333 10100 20064 3////=
02849 17270 81502 10085 20081 39814 40080 52003 60022 700// 88///
90600 333 10110 20074 3/007=
02866 17009 81603 10094 20094 39936 40083 54000 69932 73332 88///
90600 333 10123 20081 3/004=
02978 37581 71805 10159 20126 30096 40100 57008 70000 87/// 90600
333 10165 20127 3/011=
02981 37472 81615 10174 20157 30034 40044 57023 700// 88/// 90600
333 10176 20138 3/012=
02721 47899 71606 10103 20084 30039 40047 57020 70000 87/// 90600
333 10137 20095 3//// 555 788// 0/206=
02751 47480 51413 10144 20132 30020 40025 57032 72386 83/// 90600
333 10145 20119 3/011 555 7926/ 0/114=
02757 47981 11810 10164 20146 30055 40083 57013 70000 81/// 90600
333 10164 20132 3//// 555 789// 0/211=
02872 47/81 /1406 10097 20080 30060 40066 57010 70010 90600 333
10140 20083 3/007 555 7894/ 0/406=
02958 47981 21902 10145 20125 39991 40118 700// 80/// 90600 333
10156 20100 3////=
02993 46/// /2011 10153 20135 39991 40009 57014 90600 333 10167
20141 3////=
02737 36/// /1504 10091 20084 39961 40064 58019 90600 333 10111
20054 3/003 555 60087 7952/ 0/005=
02759 37983 31805 10151 20130 30076 40104 57007 70000 80/// 90600
333 10153 20096 3/006 555 60137 7871/ 0/206=
02777 17375 81406 10139 20130 39932 40078 57017 69912 72286 88///
90600 333 10139 20063 3/003 555 79451 80270 0/006=
02790 47256 71710 10164 20161 39995 40024 57026 78386 87/// 90600
333 10170 20123 3////=
02816 37171 71302 10064 20064 39766 40068 52004 70032 87/// 90600
333 10108 21014 3/103 555 7008/ 0/102=
02823 37982 01001 10073 20055 39766 40053 54000 700// 333 10096
21004 3/103=
02824 369// 22002 10082 20051 39633 40050 54001 82/// 90600 333
10082 20039 3//// 555 781// 0/504=
02834 17582 71502 10105 20100 39844 40092 57003 69962 700// 85///
90600 333 10132 20094 3/009 555 79606 80840 0/002=
02862 47382 51607 10134 20125 30052 40057 57005 70000 85/// 90600
333 10139 20114 3/008=
02863 46/// /1809 10132 20111 30030 40051 57009 90600 333 10142
20125 3////=
02873 47899 71505 10110 20097 30051 40062 57009 70000 87/// 90600
333 10136 20109 3////=
02917 47482 21703 10130 20114 39979 40098 700// 81/// 90600 333
10151 20087 3////=
02920 46/// /1409 10102 20084 30021 40043 57024 90600 333 10143
20098 3////=
02929 47499 51703 10144 20124 39964 40108 700// 85/// 90600 333
10161 20120 3//// 555 788// 80335 0/203=
02942 32581 71304 10114 20103 39900 40045 57025 70322 83570 333
10114 20060 3/003 555 60108 7940/=
02944 47381 71605 10129 20110 39924 40066 700// 81/// 90600 333
10130 20051 3////=
02947 37678 51502 10127 20125 39986 40106 57005 700// 82/// 90600
333 10142 20103 3/006=
02948 47382 71703 10149 20115 39998 40111 700// 81/// 90600 333
10155 20134 3//// 555 780// 80274 0/003=
02963 37281 71705 10135 20127 39948 40073 57016 72286 87/// 333
10135 20070 3/003=
02974 32499 61907 10154 20132 30036 40099 57008 700// 86/// 333
10155 20097 3/009=
02976 37480 11808 10163 20128 30100 40115 57003 700// 81/// 90600
333 10163 20149 3////=
02979 46/// /1816 10178 20169 30004 40023 57027 90600 333 10178
20144 3////=
02980 47315 82113 10147 20142 30007 40019 57025 76386 88/// 90600
333 10173 20138 3////=
02982 46/// /1814 10171 20148 30064 40075 57015 90600 333 10172
20129 3////=
####018003663####
SMTH04 KWBC 050600
AAXX 05064
48300 32562 60000 10319 20250 39741 40044 57026 83806 333 58001=
48333 32562 30000 10326 20227 39739 40030 57036 82205 333 59003
70010=
48357 01558 82905 10256 20241 39885 40053 57015 60181 76166 85776
333 58034 60097 70519=
48358 01559 82805 10256 20247 39880 40055 57014 60121 76166 8672/
333 58033 60057 70459=
48373 32562 62304 10335 20250 39993 40053 57020 83836 333 58009=
48380 32562 61103 10328 20242 39965 40057 57019 86545 333 58009
79999=
48382 01558 82203 10295 20267 39884 40057 57021 69901 76166 8457/
333 58035 69907 70208=
48386 31560 80601 10311 20242 30019 40058 57015 71022 82276 333
58013=
48390 11558 80000 10280 20262 39894 40054 57018 69911 71062 8357/
333 58022 70292=
48401 32560 60000 10320 20241 39966 40071 57013 84876 333 58014=
48402 32560 62106 10330 20237 30048 40067 57018 83555 333 58006=
48407 11560 82806 10301 20237 39914 40053 57014 69991 70262 83836
333 58011 70217=
48415 31558 62707 10327 20246 30052 40063 57018 70522 82546 333
59008 79999=
48418 32560 82302 10324 20252 39999 40057 57019 86801 333 58006=
48420 32560 62106 10302 20248 30063 40067 57021 82536 333 58003
70002=
48425 32562 82704 10332 20236 30056 40066 57020 84556 333 58006=
48436 01560 82106 10305 20232 39856 40059 57015 69921 72162 84556
333 58016 69925 70002=
48440 31557 82502 10298 20264 30018 40067 57019 71022 86576 333
58009 70010=
48453 32560 72103 10324 20244 30067 40070 57021 85876 333 58007
70002=
48454 32560 71703 10320 20249 30066 40073 57017 82276 333 58004=
48458 01456 82302 10308 20239 30009 40088 57016 69901 76022 885//
333 58011 69905 79999=
48459 32562 81603 10320 20233 30064 40067 57020 84576 333 58007=
48460 32560 60000 10300 20243 30040 40071 57016 82576 333 58008
70007=
48478 32560 82304 10289 20248 30074 40079 57014 81156 333 58010
70005=
48481 31558 82306 10300 20250 30052 40080 57020 71022 84246 333
58006 70070=
48564 32560 63004 10335 20234 30087 40091 57019 82156 333 59002=
48565 32560 70000 10316 20259 30079 40089 57017 82246 333 59003=
48570 32560 60000 10325 20247 30090 40097 57015 82246 333 58004=
48571 01458 83410 10295 20242 30080 40091 57018 69921 79522 86976
333 58011 69925 70002=
48303 32560 61404 10321 20234 39611 40037 57021 85806 333 58002=
48328 32560 60000 10325 20247 39781 40050 57021 82276 333 58009
70028=
48330 32465 73202 10319 20243 39864 40045 57023 82936 333 58009=
48351 32561 80000 10330 20253 39977 40048 57022 86856 333 58003=
48376 31559 62710 10306 20229 39924 40066 57016 70522 84536 333
58009=
48377 31558 61205 10336 20242 39894 40054 57020 70522 83556 333
58013 70003=
48432 01558 82404 10291 20237 39895 40061 57018 69901 71062 83576
333 58014 69907 79999=
48455 32560 80000 10314 20241 30062 40067 57021 8387/ 333 58003
70002=
48475 32560 72708 10318 20229 30066 40073 57016 83276 333 58005=
48500 11560 82508 10286 20234 30067 40075 57013 69911 70262 8457/
333 58000 70014=
48517 01557 82502 10269 20234 30088 40094 57009 69971 76062 83876
333 59003 69905 70426=
48569 31460 82307 10325 20249 30052 40091 57025 71722 82976 333
58006=
48324 32564 62405 10324 20231 39839 40052 57022 82258 333 58013=
48327 32560 81402 10316 20230 39706 40044 57023 83536 333 58004
70050=
48331 32560 52404 10330 20251 39821 40044 57026 84802 333 58005=
48334 31558 80000 10308 20250 39702 40051 57022 71022 85256 333
58014=
48354 01465 82002 10280 20247 39852 40053 57016 60021 70262 8487/
333 58029 69937 70153=
48355 01558 82603 10270 20248 39836 40053 57011 60071 76166 8272/
333 58025 60027 70346=
####018003661####
SMTH04 KWBC 050600 RRA
AAXX 05064
48356 01459 82804 10262 20246 39854 40049 57013 60061 76166 8267/
333 58033 60027 70314=
48374 32560 61803 10311 20233 39897 40059 57021 83546 333 58013=
48375 11560 82103 10274 20239 39837 40060 57015 69931 70262 8652/
333 58015 70321=
48378 32560 62104 10323 20245 30008 40059 57019 83546 333 58011
70008=
48379 32562 71402 10314 20243 39914 40043 57021 84846 333 58017=
48385 01558 80000 10258 20216 39578 40091 57008 60021 76062 83576
333 58041 60025 70081=
48400 32562 82302 10337 20250 30017 40057 57018 86836 333 58005
70018=
48403 32560 82507 10294 20227 39853 40060 57018 82556 333 58029=
48413 32560 70000 10314 20255 39976 40055 57023 84856 333 58009=
48429 01560 72309 10311 20238 30063 40070 57017 69911 72122 84876
333 58002 69915 70001=
48431 01459 82403 10304 20241 39850 40059 57015 69901 76062 86876
333 58014 69906 79999=
48434 01559 80000 10300 20243 39845 40061 57013 69901 76022 85876
333 58019 69905 79999=
48435 32460 82608 10277 20225 39635 40067 57011 885// 333 58014
70002=
48439 32561 60000 10302 20252 30051 40065 57016 84536 333 58005=
48450 01562 70000 10303 20252 30039 40072 57014 69901 70362 82576
333 58010 69906 79999=
48456 11660 72712 10319 20232 30054 40068 57022 69901 70362 83877
333 58004 79999=
48463 01560 82308 10301 20247 39988 40080 57019 60021 70262 82576
333 58006 60027 70020=
48477 32559 71804 10310 20254 30050 40074 57031 82876 333 58009
70029=
48480 31558 82103 10299 20243 30073 40077 57019 71022 84847 333
58007 70052=
48532 11560 82202 10274 20236 30090 40099 57016 60071 70262 84576
333 58000 70853=
48551 11460 62402 10325 20241 30081 40089 57023 69911 70162 83206
333 59001 70010=
48561 32560 72703 10310 20258 30090 40099 57012 82246 333 58000=
48566 32560 62504 10310 20265 30087 40095 57021 82146 333 58001=
48567 32560 72004 10335 20242 30071 40089 57025 82246 333 58003=
48574 32562 62707 10336 20242 30058 40087 57027 83136 333 58001=
48580 01557 80000 10303 20275 30077 40084 57021 69981 76022 82846
333 58008 69985 70008=
48583 32560 50810 10322 20236 30083 40089 57018 82206 333 58005=
48307 32562 30000 10322 20254 39671 40038 57027 82205 333 58005
70008=
48325 32560 50000 10300 20250 39824 40062 57023 82255 333 58007
70078=
48329 32560 61802 10310 20230 39716 40045 57021 84806 333 58008
70021=
48350 32565 80000 10299 20258 39745 40038 57024 84876 333 58022
70021=
48352 11563 82703 10297 20259 39850 40047 57020 69961 70262 86876
333 58033 70710=
48383 32562 82202 10280 20244 39886 40044 57012 83536 333 58029
70166=
48384 01558 70000 10290 20256 39858 40045 57020 69911 76062 83576
333 58025 69907 70125=
48404 01560 82704 10284 20253 39879 40055 57015 69951 70262 84576
333 58025 69907 70423=
48408 11560 82702 10303 20253 39908 40054 56016 60011 70262 85156
333 58009 70212=
48419 01559 42403 10328 20234 30059 40067 57023 69911 70561 82256
333 58005 69907 70002=
48421 01540 80000 10260 20243 39976 40090 57008 60031 76162 83546
333 58011 60035 70250=
48427 31559 82906 10326 20222 30058 40065 57018 70522 82556 333
58004 70006=
48430 31557 72802 10313 20251 30061 40068 57018 71022 82166 333
58010=
48437 11560 82806 10288 20252 39868 40075 57015 69941 70362 8452/
333 58019 70004=
48451 11560 82704 10323 20238 30057 40068 57020 69901 70362 8292/
333 58007 70003=
48457 32560 62208 10308 20231 30052 40068 57019 82276 333 58004=
48474 32560 82702 10298 20225 39954 40076 57017 83876 333 58004
70001=
48479 11561 81905 10306 20243 30021 40072 57019 69901 70262 82856
333 58007 70005=
####018003683####
SMAL04 KWBC 050600
AAXX 05064
60355 11558 22006 10214 20187 40137 52007 60004 700// 82200 333
0//00 20208 82830 95900=
60360 12562 12206 10211 20194 40140 53005 60004 81200 333 01900
20196 81823 95900=
60390 12565 41903 10180 20160 40168 53007 60004 83930 333 01600
20174 81820 81923 95900=
60402 12565 22408 10198 20165 40159 53008 60004 82800 333 01800
20190 81820 95900=
60421 11557 10000 10136 20133 39153 48521 53007 60004 700// 81102
333 01000 20122 81826 95900=
60423 11560 32807 10172 20164 39204 48501 53005 60004 700// 83200
333 01300 20152 83830 95900=
60425 12565 20605 10200 20124 40154 52007 60004 82200 333 01900
20200 82830 95900=
60430 11458 10000 10161 20134 40165 56002 60004 700// 81600 333
01100 20160 81710 95950=
60437 11970 10607 10152 20117 38986 48507 57003 60004 700// 80002
333 00900 20142 81070 95900=
60445 12960 10202 10150 20093 39031 48530 51005 60004 81030 333
01000 20150 81360 95900=
60452 12565 50000 10227 20204 40146 53007 60004 84102 333 0//00
20222 84820=
60457 11560 30000 10193 20180 40153 53007 60004 700// 82580 333
01300 20179 82626 95990=
60490 12465 30602 10196 20156 40155 53007 60004 83802 333 01500
20193 81816 95900=
60511 12960 02803 10156 20081 39063 48534 55000 60004 333 01200
20150 95900=
60517 11565 60804 10209 20183 40159 52006 60004 700// 84230 333
0//00 20208 84826 83360 95900=
60520 11965 31202 10156 20149 40153 55002 60004 700// 80002 333
01300 20150 83073 95900=
60522 11560 10000 10173 20121 40152 55000 60004 700// 81200 333
01500 20170 81826 95900=
60525 12660 30000 10242 20133 40134 53013 60004 82202 333 02000
20240 82840 95900=
60531 12565 20000 10186 20166 40159 53004 60004 81202 333 01500
20181 81826 95900=
60536 11660 21602 10148 20120 39315 48530 53005 60004 700// 82501
333 01100 20145 82633 95900=
60559 12660 30808 10260 20191 40119 53012 60004 82501 333 02500
20260 82640=
60560 11970 31702 10183 20135 38965 48538 53012 60004 700// 81032
333 01500 20169 81360 83073 95900=
60566 12960 20000 10246 20118 40114 53007 60014 82030 333 0//28
20230 82360=
60571 12662 31203 10208 20109 39228 48531 55003 60004 82282 333
02000 20207 82833 95900=
60581 12660 50703 10284 20163 40101 53008 60004 84230 333 02500
20283 84840=
60590 12660 30000 10248 20077 40100 53001 60004 83200 333 02100
20235 83840=
60620 12956 30806 10247 20114 40107 55004 60004 82032 333 02400
20245 82363=
60640 12960 01003 10254 20127 40102 53008 60004 333 02300 20252=
60680 12760 50201 10239 20053 38637 48520 52005 60004 82230 333
02200 20236 82850 84360 95900=
60690 12960 53508 10303 20113 40069 53004 60004 81130 333 0//00
20294 81856 83076=
60351 12565 21603 10209 20170 40156 53008 60004 82200 333 01800
20200 82820 95900=
60369 12559 20901 10241 20204 40150 52005 60004 82200 333 0//00
20239 82826 91836=
60419 12560 11803 10152 20138 40168 53006 60004 81500 333 01300
20137 81630 95900=
60468 12958 12603 10137 20125 39232 48527 53006 60004 80002 333
01000 20125 81070 95900=
60475 12456 32604 10157 20144 39235 48525 53004 60004 83802 333
01400 20147 81816 95910=
60507 12965 01103 10183 20127 40145 53003 60004 333 01500 20181
95900=
60535 11970 03402 10164 20081 38839 48521 51003 60004 700// 333
01200 20158 95900=
60549 12557 43508 10183 20137 38938 48557 56007 60004 83280 333
01500 20179 82830 83360 95900=
60550 12960 20504 10133 20092 38668 48528 52003 60004 80002 333
01000 20132 82073 95900=
60555 12660 30504 10250 20161 40113 53008 60004 83200 333 02400
20250 83840=
60580 12660 43304 10260 20130 40105 53010 60004 82230 333 02500
20258 82846=
####018003682####
SMTU04 KWBC 050600
AAXX 05064
17034 12970 50000 10240 20155 30078 40122 53006 60002 85030 333
20219 30018 50361 55000 85360 91104 92428=
17090 12665 22201 10151 20074 38710 48491 52005 60002 82100 333
20096 30008 50521 55120 82840=
17098 12960 00604 10153 20106 38201 48496 52004 60012 333 20078
30008 70010 91110=
17150 12960 00212 10237 20133 39993 40110 52008 60002 333 20201
30018 50781 55087 22072 91116=
17160 12970 20105 10203 20104 38989 48490 52012 60002 82030 333
20174 30014 50921 55076 82360 91114=
17184 12970 03601 10250 20129 39978 40083 52009 60002 333 20208
30018 50901 55117 27063 91105=
17190 12670 40402 10182 20129 38962 48488 52007 60022 82130 333
20166 32016 50601 55091 70020 82840 84360 91106=
17210 12970 00000 10293 20049 39078 40031 52011 60002 333 20223
30021 50601 55104=
17219 12965 03512 10255 20146 39940 40076 52009 60002 333 20225
30022 5096/ 55083 22064 91115=
17234 12970 01002 10240 20176 30002 40066 52008 60002 333 20217
30021 50551 55110 20783 91107=
17260 12960 02901 10275 20115 39276 40035 52012 60002 333 20178
30017 55107 22541 91105=
17280 12960 00802 10282 20054 39303 40031 52010 60002 333 20173
30011 51001 55111 22332 91107=
17350 12560 30000 10284 20224 39993 40066 52013 60002 83100 333
20242 30/// 83830=
17022 12670 11102 10233 20176 39971 40129 52005 60002 81100 333
20182 30016 50561 55109 81834 91105 92428=
17031 12670 21602 10228 20153 30111 40117 52004 60002 82100 333
20152 30013 82834 91108=
17038 11470 62504 10240 20172 30068 40113 53007 69902 70181 86200
333 20208 30/// 79999 82715 86830 91117 92428=
17050 12970 03605 10222 20160 30079 40138 52009 60002 333 20197
30019 50641 55113 91112=
17070 12965 01301 10145 20091 39291 40129 52007 60002 333 20094
30006 50474 55000 21825 91104=
17084 12970 00000 10174 20059 39246 40112 52008 60002 333 20090
30005 50561 55120 22386 91102=
17096 12970 00814 10170 20081 38226 48478 51002 60002 333 20091
30007 50744 55102 20980 91120=
17124 12960 02706 10181 20102 39238 40111 52010 60002 333 20152
30014 23312 91110=
17128 12670 20510 10201 20025 39062 40099 52007 60002 82100 333
20152 30014 50794 55097 20808 82840 91116=
17170 12660 13205 10230 20051 38311 48472 52005 60002 81100 333
20118 30/// 81835 91106=
17195 12670 10510 10190 20091 38945 48492 52009 60002 81100 333
20115 30009 55099 22340 81840 91115=
17240 12970 43201 10225 20133 38991 40070 52006 60002 84030 333
20170 31012 50514 55066 20942 70003 84360 91105=
17244 12670 33614 10206 20084 38965 48491 52012 60002 81130 333
20185 30/// 50711 81840 83360 91120=
17290 12970 01801 10256 20176 30036 40066 52009 60002 333 20230
30022 50854 55098 91102 92418=
17370 11670 43401 10295 20226 30066 40070 52010 60012 70182 84100
333 20258 31025 50681 55066 70012 84835 91112 92438=
17020 12670 10801 10186 20143 30088 40126 52003 60002 81100 333
20117 30008 50361 55112 24149 81835 91102=
17059 12670 43505 10248 20192 30081 40125 52007 60002 84200 333
20235 30022 55000 84835 91115 92438=
17069 12670 10602 10205 20128 30085 40120 52005 60002 81100 333
20171 30016 50561 55109 22148 81840 91104=
17089 12970 00000 10170 20082 38403 48486 52001 60002 333 20101
30007 50601 55000 91106=
17095 12970 01901 10176 20073 38118 48467 51001 60002 333 20094
30006 50401 55097 91108=
17119 12970 01202 10231 20180 30119 40123 52007 60002 333 20169
30013 50401 55113 91103 92417=
17129 12670 50406 10215 20066 39216 40104 52008 60002 81130 333
20170 30/// 81840 85360 91110=
17191 12670 53608 10203 20089 39030 40081 52012 60002 85200 333
20163 30015 50751 55101 85835 91115=
####018003743####
SMTU04 KWBC 050600 RRA
AAXX 05064
17193 12970 00203 10179 20074 38744 48502 52010 60002 333 20134
30012 50501 55103 22110 91106=
17218 12960 00000 10272 20146 30074 40080 52009 60002 333 20197
30/// 50744 55/// 91107=
17238 12970 03401 10208 20120 39021 40065 52008 60002 333 20153
32012 50704 55072 70052 91104=
17241 12660 33310 10212 20148 39122 40075 52006 60002 82130 333
20153 30015 50904 55092 24907 79999 82835 83360 91112=
17265 12970 01901 10272 20043 39312 40038 52012 60002 333 20230
30020 50881 55082 91103=
17271 12960 00112 10287 20025 39148 40027 52011 60002 333 20205
30020 91115=
17296 12970 00201 10263 20205 30057 40060 52010 60002 333 20227
30020 50521 55115 91103 92408=
17297 12970 01703 10274 20208 30017 40049 52008 60002 333 20231
30020 55115 25217 91106 92418=
17302 12970 03302 10277 20201 30012 40066 52020 60002 333 20249
30022 91105 92418=
17282 12970 00602 10269 20054 39372 40037 52011 60002 333 20139
30013 50701 55115 91104=
17030 12970 02601 10261 20161 30111 40115 52003 60002 333 20186
30016 50501 55114 91110 92428=
17033 12670 41501 10255 20166 30111 40116 53003 60002 82130 333
20206 30019 50411 55092 82834 84360 91106 92428=
17045 12670 10501 10200 20146 39407 40112 51006 60002 81100 333
20170 30015 50521 55091 81840 91103=
17052 12570 50703 10219 20169 39868 40134 52007 60002 83250 333
20194 30016 50451 55041 83830 85357 91107=
17068 12560 21104 10210 20195 30048 40129 53006 60002 82100 333
20127 30/// 82830 91107=
17072 12970 00401 10183 20130 39960 40129 52005 60002 333 20141
30011 50251 55096 91103=
17080 12965 02001 10189 20079 39274 40104 52009 60002 333 20112
30009 50471 55098 91103=
17085 12970 03204 10178 20102 39655 40123 52006 60002 333 20128
30012 50501 55099 91110=
17127 12965 50205 10196 20093 39177 40106 52007 60002 85030 333
20160 31/// 70046 85360 91113=
17131 12960 40906 10208 20053 39200 40099 52010 60002 84030 333
20178 30/// 79999 84360 91111=
17175 12965 00803 10261 20121 30079 40083 52009 60002 333 20232
30022 50701 55111 2//// 91109 92427=
17180 12970 01203 10253 20151 30080 40084 52012 60002 333 20219
30021 50851 55119 91109 92418=
17220 12970 13402 10274 20151 30040 40072 52008 60002 81030 333
20243 30024 50671 55115 24300 81360 91109 92418=
17291 12960 01502 10239 20172 30056 40069 52006 60002 333 20187
30017 91105=
17298 12970 02802 10264 20199 30048 40066 52009 60002 333 20229
30020 50581 55100 22181 91104 92418=
17340 12970 01501 10305 20193 30059 40067 52011 60002 333 20269
30026 50721 55092 92428=
17352 12660 32004 10288 20234 30043 40066 52012 60002 83100 333
20255 30/// 83835=
17355 12670 40000 10287 20221 39959 40071 52011 60002 82230 333
20256 30025 50721 55107 82835 84360 91102=
17040 12670 72701 10251 20199 30103 40113 52007 60022 84250 333
20208 31020 50221 55069 21583 70182 84840 87360 91103 92428=
17061 12670 70212 10241 20200 30053 40120 53005 60002 84230 333
20229 30020 55000 84835 87360 91115 92438=
17063 12660 30409 10225 20188 30010 40125 53006 60002 83200 333
20187 30019 55104 22106 83835 91112=
17082 12960 01301 10186 20067 39522 40117 52006 60002 333 20082
30006 91106=
17099 12970 00102 10198 20090 38342 48470 52003 60002 333 20108
30009 50641 55115 22466 91109=
17118 12960 01201 10190 20142 39852 40119 52008 60002 333 20110
30010 50571 55102 23680 91107=
17130 12670 40304 10218 20047 39120 40089 52009 60002 84200 333
20180 30018 50781 22165 84835 91114=
17135 12670 31301 10218 20070 39272 40095 52008 60002 81101 333
20173 30014 50851 55081 22093 81840 83070 91104=
17192 12975 00705 10226 20052 39030 40065 52013 60002 333 20194
30018 50721 55089 91118=
####018003659####
SMGR04 KWBC 050600
AAXX 05064
16627 12960 00316 10240 20193 30119 40125 52004 60002 333 20220
30/// 50860 55105 70000 90730 91120 555 10000 30280 20000 89024
99066 30000 10256 20264 30270 4//// 50290 60260 40000 47623 44240
50000 50210=
16641 12970 00000 10222 20187 30095 40100 54000 60002 333 20210
30/// 50684 55086 70000 90730 91105 555 10000 30290 20000 89034
99088 40000 47608 44260 50000 50200=
16643 12960 10206 10258 20170 30103 40103 52004 60002 80001 333
20194 30/// 70000 90730 91108 555 10000 30257 20000 89024 99095=
16650 12460 20521 10236 20193 30100 40105 53006 60002 82100 333
20226 30/// 55111 70000 90730 91133 555 10000 30256 20000 89038
99074 30000 10254 20266 30262 40272 50280 60271 40000 47611 44255
50000 50208=
16667 12960 03306 10248 20160 30085 40090 53006 60002 333 20212
30/// 50554 55116 70000 90730 91108 555 10000 30262 20000 89042
99073 40000 47598 44240 50000 50194=
16675 36/// /9904 10214 20115 30114 40127 52010 333 20162=
16682 12860 10000 10222 20138 30087 40097 52003 60002 81040 333
20158 30/// 50900 55108 70000 90730 91103 555 10000 30260 20000
89029 99099 30000 10250 20258 30262 4//// 50258 6////=
16723 12960 00207 10264 20164 30053 40066 52006 60002 333 20240
30/// 55/// 70000 90730 91110 555 10000 30264 20000 89039 99068
40000 47578 44265 50000 50202=
16734 36/// /9902 10256 2//// 30037 40095 52004 333 20195=
16648 12560 10000 10236 20137 30046 40127 52006 60002 81100 333
20170 30/// 51070 55103 70000 90730 91107 555 10000 30242 20000
89021 99074 30000 1//// 2//// 3//// 4//// 5//// 6////=
16710 12960 00000 10198 20085 39376 40114 52005 60002 333 20121
30/// 50740 55104 70000 90730 91103 555 10000 30228 20000 89020
99087 30000 10222 20228 30236 40270 50276 60262=
16716 12960 03606 10252 20148 30048 40098 57003 60002 333 20240
30/// 55119 70000 90730 91113 555 10000 30278 20000 89018 99046=
16754 12560 22815 10264 20190 30036 40082 52003 60002 82100 333
20222 30/// 50680 55115 70000 90730 91119 555 10000 30264 20000
89049 99070 40000 47569 44280 50000 50216=
16624 12660 10706 10240 20162 30120 40126 52007 60002 81130 333
20196 30/// 55110 70000 90730 91109 555 10000 30276 20000 89021
99065 40000 47627 44270 50000 50192=
16642 12960 09903 10208 20124 40149 5//// 60002 333 20122 30///
55088 70000 90730 91108 555 10000 30262 20000 89024 99100 30000
1//// 2//// 3//// 4//// 50212 6//// 40000 47234 44255 50000 50160=
16614 12570 40000 10164 20068 39397 40151 53006 60002 83432 333
20129 30/// 55106 70000 90730 91106 555 10000 30224 20000 89015
99076=
16622 12560 39903 10248 20175 30129 40130 52007 60002 81140 333
20231 30/// 5//// 55113 70000 81825 83360 90730 91108 555 10000
30270 20000 89024 99077 30000 10274 20275 30275 4//// 50282 6////=
16684 12560 20113 10236 20199 30083 40105 52005 60002 82100 333
20214 30/// 55111 70000 90730 91119 555 10000 30258 20000 89051
99095=
16738 36/// /3610 10235 20186 39897 40087 52007 333 20218=
16746 12560 22804 10248 20192 39915 40087 52005 60002 82130 333
20212 30/// 55120 70000 90730 91106 555 10000 30248 20000 89047
99080 40000 47474 44255 50000 50212=
16749 12560 12309 10256 20208 30049 40062 53009 60002 81100 333
20236 30/// 55105 70000 90730 91113 555 10000 30256 20000 89056
99083 40000 47572 44240 50000 50224=
16718 12560 23306 10256 20161 40087 52006 60002 82100 333 20244
30/// 70000 90730 91120 555 10000 30274 20000 89022 99047=
16726 12960 00404 10232 20109 40096 52007 60002 333 20176 30///
50900 55109 70000 90730 91107 555 10000 30268 20000 89025 99075
30000 1//// 20264 30272 40294 5//// 6////=
####018003741####
SMNL01 KWBC 050600
AAXX 05061
06203 47472 63210 10147 20100 30126 40175 53034 72385 8//// 333
20139 82/18 83/22 86/50 91015 91119 91213 555 51115 51211=
06204 47457 53013 10134 20103 30111 40161 53035 78186 8//// 333
20123 82/19 84/24 85/34 91017 91120 91216 555 51119 51215=
06211 47471 53215 10138 20075 30102 40157 51035 72386 8//// 333
20119 81/10 83/40 85/50 91018 91121 91218 555 51120 51217=
06235 17562 73109 10146 20095 30146 40146 51035 60012 70380 8////
333 20135 3/013 70097 84/24 85/29 87/39 91015 91118 91212 555
51115 51209 53008=
06240 17767 73007 10142 20102 30161 40156 53026 69952 72386 8////
333 20118 3/010 7//// 87/56 91010 91115 91210 555 51113 51209
53014=
06242 47462 43216 10148 20107 30129 40133 51036 72385 8//// 333
20137 3/013 82/19 83/26 91019 91121 91217 555 51121 51217=
06340 17480 33004 10141 20104 30159 40177 53023 69932 72385 8////
333 20117 3/009 70063 82/19 83/22 91006 91110 91207 555 51110
51205=
06344 17565 83005 10142 20106 30174 40168 53023 69912 72300 8////
333 20124 3/010 70098 82/23 83/28 85/38 91009 91114 91209 555
51111 51206 53008=
06370 17568 52303 10127 20111 30147 40172 53021 69912 70385 8////
333 20111 3/010 70049 83/26 85/33 85/40 91005 91107 91205 555
51105 51204 53016=
06375 17766 22304 10126 20115 30140 40164 53020 69942 70286 8////
333 20113 3/010 70040 82/50 91005 91108 91206 555 51106 51205
53017=
06205 47574 13213 10133 20080 30059 40117 53031 70185 8//// 333
20116 81/24 91016 91120 91216 555 51119 51215=
06208 47571 33114 10158 20084 30054 40102 53024 72386 8//// 333
20133 82/27 83/34 91017 91119 91215 555 51119 51215=
06269 17579 22906 10146 20100 30153 40147 53025 69932 70185 8////
333 20112 3/009 70068 82/23 91010 91113 91208 555 51112 51207
53011=
06280 17661 82706 10131 20114 30113 40117 53023 60012 78185 8////
333 20103 3/009 70032 81/35 85/47 88/50 91009 91110 91207 555
51109 51206 53013=
06350 17570 22802 10130 20111 30157 40171 53022 69942 70280 8////
333 20117 3/011 70055 81/27 91003 91106 91204 555 51105 51204
53014=
06380 17560 82204 10118 20106 30045 40180 53018 60002 75700 8////
333 20102 3/009 70011 81/29 85/42 88/47 91005 91107 91204 555
51106 51204 53008=
06229 46/// /3116 333 91018 91122 91217 555 51119 51216=
06320 47/65 /3312 10152 20104 30148 40174 53023 70000 333 20141
91016 91118 91215 555 51118 51215=
06321 47/67 /3014 10148 20092 30157 40180 53026 72300 333 20140
91017 91119 91215 555 51118 51214=
06201 47469 73416 10130 20086 30099 40150 51037 70286 8//// 333
20129 81/19 84/27 86/33 91020 91123 91219 555 51120 51217=
06203 47472 63210 10147 20100 30145 40175 53034 72385 86/// 333
20139 546// 82/19 83/22 86/50 90760 91015 91119=
06212 47560 83215 10147 20101 30091 40151 52032 78186 8//// 333
20139 82/20 84/25 85/33 91018 91120 91217 555 51118 51215=
06269 07579 23006 10146 20100 30151 40147 53025 69932 70185 82///
333 20112 3/009 546// 55/// 20609 553// 20106 60005 70068 82/23
90760 91010 91113=
06275 17768 12403 10123 20113 30100 40154 53022 69912 70181 8////
333 20112 3/009 70059 81/50 91005 91108 91205 555 51106 51204
53016=
06344 07565 83105 10142 20106 30173 40168 53023 69912 723// 88///
333 20124 3/010 546// 55/// 20553 553// 20084 69915 70098 82/24
83/29 85/38 90760 91009 91114=
06290 07574 82405 10130 20113 30100 40142 53017 60002 703// 88///
333 20112 3/008 546// 55/// 20902 553// 20113 60005 70016 82/22
83/28 86/32 90760 91007 91110=
06273 17/80 /2906 10140 20105 6///2 70085 333 20112 3/010 7////
91008 91114 91209 555 51109 51206 53017=
06225 46/// /3214 333 91018 91119 91215 555 51118 51215=
06248 46/// /3005 333 91009 91112 91206 555 51110 51206=
####018003739####
SMCN04 KWBC 050600
AAXX 05064
71110 17/// /2207 10156 20156 30087 40146 56019 69921 7//4/ 333
10190 20136 70004=
71111 15766 22402 10126 20118 30206 40214 52001 60001 333 10167
20121 70012=
71122 16/// /3501 10098 20062 38619 40185 52014 60001 333 10222
20068 70003 555 32318 4020/=
71127 17/// /2506 10133 20098 39282 40148 53022 60011 7//4/ 333
10228 20125 70065 555 33421 4001/=
71130 15666 80306 10121 20113 39702 40150 52005 60001 333 10182
20066 70000 555 30518 4020/=
71132 15966 80906 10091 20043 39849 40157 57002 60001 333 10138
20024 70000=
71133 16/// /1502 10115 20100 39442 40132 51006 60001 333 10189
20048 70000 555 30624 4022/=
71142 15966 02109 10120 20089 39185 40128 52009 60001 333 10270
20120 70000 555 32524 40141=
71144 16/// /0205 10153 20139 39832 40133 51002 69931 333 10230
20127 70004 555 32220 4014/=
71147 16/// ///// 10151 20127 60001 333 10255 20053 70000=
71149 17/// /3303 10139 20133 39719 40138 53002 60041 7//4/ 333
10247 20096 70036 555 32428 4014/=
71188 12574 62806 10176 20147 39971 40012 56006 60001 83530 333
10197 20063 70016 555 10000 20000 32124 40020=
71251 16/// /2103 10119 20091 39254 40154 53013 60001 333 10278
20117 70015 555 33226 40220=
71253 17/// /3503 10119 20105 60071 7//4/ 333 10133 20087 70194=
71254 16/// /2806 10139 20121 39304 40162 53026 60001 333 10237
20072 70000=
71263 12574 03502 10102 20092 39915 40201 50001 60001 81500 333
10230 20101 70004 555 32725 40151=
71264 16/// /2011 10204 20193 30072 40102 58023 60001 333 10222
20177 70000 555 32118 4022/=
71265 15966 03506 10149 20104 30103 40196 52002 60001 333 10215
20149 70000 555 32824 40101=
71271 17/// /2604 10124 20109 60021 7//4/ 333 10226 20099 7////
555 32518 40010=
71272 15966 00601 10018 20013 39846 40197 52010 60001 333 10124
20001 70000 555 33318 4017/=
71278 16/// /2103 10124 20118 60001 333 10243 20079 70000=
71279 16/// /2908 10109 20093 39951 40015 53027 60051 333 10136
20046 70411 555 30825 4019/=
71281 46/// /3602 10133 20102 30096 40197 51010 6///1 333 10233
20122 7//// 555 31921 4009/=
71282 46/// /0802 10113 20100 39928 40194 53002 6///1 333 10211
20113 7//// 555 32833 4013/=
71285 17/// /2807 10130 20114 60021 7//4/ 333 10234 20089 70039
555 33017 40020=
71702 17/// /2213 10185 20173 30055 40070 56010 69991 7//4/ 333
10241 20127 70009 555 31922 4000/=
71710 17/// /1914 10189 20176 30049 40058 56023 69981 7//4/ 333
10202 20111 70008 555 31829 4000/=
71720 16/// ///// 10135 20118 30029 40180 52003 60001 333 10214
20123 70000=
71867 15966 81005 10111 20100 39833 40162 57002 60001 333 10148
20110 70002=
71952 16/// /0000 10043 20030 39367 40211 51019 60001 333 10202
20043 70002 555 33118 4021/=
71954 16/// /0803 10104 20082 39802 40172 55002 60001 333 10133
20094 70000=
71956 16/// /3105 10114 20080 39971 40200 52005 60001 333 10187
20106 70000 555 33027 4007/=
71962 16/// /2201 10108 20100 39768 40187 50001 60001 333 10192
20080 70000=
71970 16/// /1604 10122 20104 39562 40134 51006 60001 333 10222
20059 70000=
71973 16/// /2004 10182 20148 39913 40094 58024 60001 333 10231
20111 70000=
71983 16/// /3205 11013 21028 30167 40187 52004 60001 333 11002
21031 70151=
71984 16/// ///// 10042 20038 30134 40143 52008 60001 333 10102
20029 70000=
71987 46/// /2117 10182 20164 30042 40051 58011 6///1 333 10241
20163 7//// 555 31926 4001/=
71113 16/// /0000 10154 20150 30143 40160 52006 60001 333 10252
20139 70000=
71118 46/// /0004 10150 20107 39343 40147 52015 6///1 333 10255
20096 7////=
71120 11974 72204 10160 20120 39489 40127 50004 69901 70381 87070
333 10234 20102 79999 90940 555 10000 20000 3////=
####018003742####
SMCN04 KWBC 050600 RRA
AAXX 05064
71121 45964 42607 10140 20107 39358 40161 53015 6///1 333 10233
20100 7//// 555 33227 40010=
71123 11874 82309 10137 20121 39333 40178 53027 69961 78081 8807/
333 10248 20079 70012 90906 555 33123 40231=
71135 16/// /2404 10115 20078 39084 40138 53007 60001 333 10295
20104 70000 555 32226 4022/=
71139 16/// /3104 10153 20055 38730 40140 53009 60001 333 10251
20108 70000 555 32624 4022/=
71140 11474 80311 10156 20140 39625 40110 55014 60011 78092 8727/
333 10253 20037 70013 90942 555 31121 40061=
71207 16/// /0301 10148 20134 30104 40167 52008 60001 333 10246
20136 70000=
71250 16/// /2005 10168 20162 30026 40159 56018 69991 333 10216
20164 70019=
71252 16/// /1703 10072 20062 38646 40196 51012 60001 333 10205
21005 70000=
71255 17/// /2406 10147 20130 60021 7//4/ 333 10182 20103 70072
555 32521 40030=
71257 16/// /0000 10117 20110 60001 333 10250 20077 7//// 555
33122 40131=
71259 16/// /3607 10115 20100 60001 333 10280 20093 70000 555
33124 40191=
71260 12980 10502 10039 20036 39974 40209 50000 60001 333 10167
20034 70000 555 10000 20000 33231 40091=
71267 15966 02005 10131 20046 39091 40152 52012 60001 333 10289
20111 70000 555 32632 40161=
71268 16/// /2702 10096 20086 39583 40194 51015 60001 333 10202
20095 70046=
71270 46/// /2003 10101 20082 39981 40194 53001 6///1 333 10193
20101 7//// 555 33025 4013/=
71274 17/// /2604 10121 20108 69981 7//4/ 333 10227 20102 70028
555 33323 40001=
71275 46/// /2404 10142 20141 6///1 333 10240 20127 7//// 555
32519 40040=
71276 17/// /2207 10114 20114 60021 7//4/ 333 10247 20111 70023
555 32821 40031=
71277 16/// /2605 10110 20091 60001 333 10214 20098 70033 555
32528 40001=
71283 16/// /2806 10102 20090 60001 333 10206 20102 70007 555
32729 40211=
71284 16/// ///// 10121 20102 60091 333 10232 20079 70125=
71700 15566 22506 10161 20148 30060 40085 52011 60021 333 7////
555 32023 40031=
71713 16/// /2302 10082 20074 30092 40130 51028 60041 333 10215
20081 70186 555 31423 4015/=
71716 15564 42204 10078 20074 39950 40153 51018 60001 333 10191
20078 70350 555 33021 40000=
71721 16/// /0000 10051 20049 39944 40188 53005 60001 333 10196
20049 70000 555 32827 4017/=
71724 46/// /2604 10118 20085 30154 40161 51014 6///1 333 10223
20117 7//// 555 32033 40181=
71736 16/// /2307 10136 20047 38826 40165 53011 60001 333 10249
20065 70000 555 32433 4017/=
71744 16/// /2207 10164 20164 30010 40049 53001 60021 333 10254
20141 70019 555 32028 4022/=
71746 16/// /1901 10095 20093 39986 40204 53001 60001 333 10224
20093 70000 555 33221 4014/=
71747 16/// /0000 10085 20083 39723 40191 53007 60001 333 10171
20025 70000=
71950 15966 02803 10096 20085 39580 40203 52015 60001 333 10209
20091 70047=
71967 16/// /1602 10073 20068 30079 40184 51015 60001 333 10231
20073 70123 555 32528 4021/=
71981 16/// /2703 10100 20066 60001 333 10257 20079 70000=
71989 16/// /2108 11036 21036 30163 40179 53003 60001 333 11018
21045 70000=
71114 16/// /1003 10162 20145 30124 40171 51014 60001 333 10249
20147 70000=
71137 16/// /2802 10096 20056 39222 40142 53018 60001 333 10310
20082 70000 555 33030 4023/=
71258 16/// /3507 10137 20106 60001 333 10244 20076 70000 555
33123 40191=
71261 16/// /1202 10067 20056 39946 40204 55000 60001 333 10208
20066 70000 555 33025 4010/=
71269 16/// /3207 10144 20100 60001 333 10281 20103 70000 555
32630 40201=
71273 16/// /1805 10116 20103 39485 40126 52006 60001 333 10227
20073 70000=
71287 17/// /2706 10121 20110 60021 7//4/ 333 10233 20097 70039
555 32835 40221=
71288 16/// /0303 10013 21005 30157 40183 52009 60001 333 10034
21010 70000=
####018003735####
SMCN04 KWBC 050600 RRB
AAXX 05064
71289 16/// /2911 10144 20137 60001 333 10241 20074 70010 555
32417 40150=
71291 16/// /0501 10107 20096 39895 40168 52002 60001 333 10194
20045 70000=
71292 17966 20706 10111 20110 39540 40132 52005 60021 7004/ 333
10240 20097 70014 555 31222 40041=
71294 16/// /0000 10055 20049 39804 40203 53005 60001 333 10194
20048 70000 555 33018 4016/=
71297 46/// /2801 30072 50002 6///1 333 7//// 555 32418 4014/=
71667 16/// /2502 10087 20081 39945 40187 50006 60001 333 10195
20021 70000 555 32517 4020/=
71670 46/// /2004 10166 20160 30037 40062 55006 6///1 333 10257
20141 7//// 555 32220 4001/=
71674 16/// /3604 10139 20122 60001 333 10257 20058 70000=
71684 15966 01803 10066 20059 39887 40184 52003 60001 333 10167
20066 70000 555 33425 40171=
71685 15966 02701 10134 20130 39653 40180 52017 60001 333 10235
20125 70005 555 33618 4008/=
71687 46/// ///// 10129 20104 39419 40183 51011 6///1 333 10246
20115 7////=
71689 17766 82005 10150 20136 39644 40086 52001 60021 7004/ 333
10200 20116 70029 555 33124 4003/=
71691 15966 02608 10090 20065 30053 40080 52039 60011 333 10156
20079 70276 555 33023 4003/=
71694 16/// /0000 10053 20051 39852 40212 52003 60001 333 10198
20053 79999 555 32519 4011/=
71695 16/// /1103 10110 20091 39831 40158 56002 60001 333 10146
20109 70002=
71696 16/// /2302 10057 20043 30144 40180 53007 60001 333 10089
20037 70000 555 33121 4016/=
71697 15966 02502 10109 20100 30028 40197 52002 60001 333 10212
20095 70000 555 33125 40191=
71701 17564 42508 10162 20147 30025 40085 53011 69951 7004/ 333
10247 20069 70005 555 32024 40190=
71741 16/// /1307 10217 20123 39752 40159 53025 60001 333 10286
20125 70000=
71865 16/// /3003 10111 20093 39474 40137 53021 60001 333 10238
20077 70002 555 32019 4007/=
71869 12474 80703 10104 20101 39636 40152 50011 60001 885// 333
10169 20047 79999 555 30826 40001=
71883 16/// /0000 10113 20109 39398 40202 53018 60001 333 10226
20091 70020=
71889 12974 03607 10174 20108 39748 40154 52018 60001 333 10268
20111 70016=
71979 46/// /2703 10052 20045 38560 40188 51015 6///1 333 10198
20001 7//// 555 32819 4021/=
71985 46/// ///// 10076 20056 30116 40122 52014 6///1 333 10119
20049 7////=
71999 16/// ///// 10193 20084 39872 40156 51028 60001 333 10302
20136 70000=
71105 46/// ///// 10125 20092 6///1 333 10284 20121 7////=
71115 16/// /0902 10166 20110 39594 40158 53015 60001 333 10271
20125 70017 555 31317 4008/=
71129 12974 13406 10112 20100 39326 40128 50010 60001 81071 333
10290 20085 70000 555 10000 20000 31932 40221=
71131 16/// /3205 10129 20055 38925 40141 53009 60001 333 10283
20117 79999 555 32932 4022/=
71136 17/// /0310 10157 20135 39625 40110 55014 60011 7//4/ 333
10252 20051 70010 555 31317 4005/=
71200 16/// /2502 10148 20123 30086 40169 53002 60001 333 10188
20119 70000 555 32418 4008/=
71704 17932 01701 10100 20094 39989 40207 52001 60001 710// 333
10224 20097 70000 555 33223 40141=
71712 16/// /3103 10125 20100 30121 40179 51008 60001 333 10248
20125 70151 555 32528 4017/=
71734 16/// /2203 10078 20058 39787 40173 56001 60001 333 10156
20072 70014 555 33124 40131=
71748 16/// /1301 10152 20134 39860 40136 56012 60001 333 10248
20054 70000 555 32324 4018/=
71960 469// 00707 10065 20045 30016 40145 52008 6///1 333 10114
20030 7////=
71982 16/// /2603 10089 20066 60001 333 10258 20063 70000 555
33320 40190=
71009 16/// /3504 10088 20080 60001 333 10254 20053 70000 555
33326 40221=
71023 15764 42102 10142 20105 39374 40122 50000 60001 333 10214
20088 70000=
71029 16/// /0506 10025 20013 30126 40164 52004 60001 333 10073
20013 70002=
####018003680####
SMCN04 KWBC 050600 RRC
AAXX 05064
71040 46/// /2507 10094 39934 40129 53018 6///1 333 10203 20077
7//// 555 32824 4022/=
71048 16/// /3305 10142 20104 60001 333 10279 20092 70000 555
31827 40181=
71350 16/// /2012 10192 20180 30007 40070 56020 60021 333 10244
20124 70017 555 31922 4001/=
71357 16/// /0501 10037 20026 30099 40105 53012 60001 333 10056
20034 70062=
71359 17/// /1903 10133 20132 60011 7//4/ 333 10240 20088 70014=
71360 16/// /3307 10129 20114 60001 333 10228 20090 70006 555
30220 40191=
71361 16/// /1601 10117 20112 39913 40114 53006 60001 333 10154
20069 70111=
71362 16/// /0803 10113 20092 39869 40118 53003 60001 333 10166
20079 70000=
71363 16/// /3006 10005 20002 30105 40158 53011 60001 333 10054
20004 70000=
71369 15566 72820 10148 20111 39463 40151 52022 60001 333 10211
20135 70000 555 32830 40031=
71370 16/// /2504 10089 20079 30027 40160 51013 60001 333 10225
20087 70168 555 31921 40140=
71371 15766 43006 10145 20094 30145 40178 52012 60001 333 10243
20140 70131 555 32835 40212=
71376 16/// ///// 10064 20062 39900 40182 52013 60001 333 10214
20064 70110=
71390 16/// /3010 10118 60021 333 10150 20066 70422 555 30920
40190=
71554 17/// /2312 10097 20072 30098 40104 51033 60011 7//4/ 333
10188 20083 70172 555 31832 40181=
71559 16/// /3309 10129 20115 39424 40104 53018 60001 333 10274
20078 70000 555 31523 4022/=
71565 17/// /0404 10124 20123 60081 7//4/ 333 10237 20051 70075
555 33018 40130=
71572 16/// /1401 11011 21019 39960 40189 51007 60001 333 10131
21011 70002=
71577 46/// /1502 10170 20141 39867 40127 57013 6///1 333 10239
20081 7//// 555 32220 4019/=
71582 15966 00000 10114 20105 30147 40200 57001 60001 333 10195
20114 70002=
71584 17158 82310 10134 20131 39945 49990 57008 60021 7614/ 333
10158 20016 70131 555 31224 40001=
71589 16/// /1805 10163 20158 30009 40138 58027 60001 333 10229
20139 70000=
71621 12674 10000 10111 20106 30089 40194 51007 60001 81500 333
10228 20109 70090 555 10000 20000=
71631 46/// /0901 10061 20053 39712 40208 53001 6///1 333 10206
20059 7//// 555 33220 4012/=
71707 11148 82011 10195 20192 30036 40110 58020 69901 70252 886//
333 10208 20140 70006 90942 555 32122 40040=
71718 11983 02612 10099 20061 30035 40099 52035 60011 70182 333
70133 90936 555 31737 40161=
71719 46/// /2115 10176 20156 30021 40027 56003 6///1 333 10199
20107 7//// 555 32129 4002/=
71818 17766 81212 10121 20110 30027 40048 57067 60061 7624/ 333
10180 20068 70064 555 31423 4003/=
71819 17666 81413 10139 20130 30036 40076 57041 69931 7004/ 333
10185 20107 70002 555 31319 4005/=
71912 12974 02104 10021 21003 30013 40195 52010 60001 333 10126
20021 70000 555 10000 20000 33417 4010/=
71150 17/// /0508 10147 20147 39473 40131 53002 60081 7//4/ 333
10234 20078 70076 555 31275 4005/=
71151 16/// /1704 10143 20129 39675 40167 50000 60001 333 10182
20064 70002 555 32221 4018/=
71152 17/// /1815 10164 20161 30106 40119 58029 69941 7//4/ 333
10186 20117 70005 555 31922 4006/=
71153 16/// /1804 10137 20050 60001 333 10265 20116 70000 555
32523 40100=
71155 17/// ///// 10136 20121 69951 7//4/ 333 10247 20082 70007=
71156 17/// /2602 10133 20091 39120 40193 51021 69951 7//4/ 333
10222 20094 70008 555 33118 4000/=
71158 16/// /0807 10110 20092 39889 40159 51001 60001 333 10185
20110 70000=
71159 16/// /1708 10181 20151 30024 40094 58018 60001 333 10211
20095 70000 555 31717 4003/=
71160 16/// /0805 10074 20014 39951 40160 53007 60001 333 10164
20043 70004=
71161 16/// /2502 10078 20072 30043 40189 51009 60001 333 10227
20076 70077 555 32626 4017/=
####018003702####
SMCN04 KWBC 050600 RRD
AAXX 05064
71162 17/// /1009 39918 53005 60061 7//4/ 333 70055 555 31022
4020/=
71163 17/// /0905 10078 20071 39804 40135 52004 60051 7//4/ 333
10122 20073 70046=
71167 15866 72604 10138 20091 39115 40187 52021 69981 333 10223
20078 70009 555 33023 4000/=
71168 16/// /1503 10146 20130 39613 40179 58005 60001 333 10234
20086 70000=
71170 16/// /0909 10160 20139 39652 40105 58032 60001 333 10245
20060 70000=
71171 16/// /3403 10141 20116 30094 40186 50002 60001 333 10248
20138 70042 555 33123 4016/=
71172 46/// ///// 10111 20099 39971 40184 53003 6///1 333 10195
20110 7////=
71180 16/// /1621 10180 20180 30055 40093 58018 60001 333 10208
20079 70000 555 31637 4006/=
71183 16/// /2904 10132 20099 30138 40177 51011 60001 333 10241
20132 70224 555 32532 4021/=
71187 15966 01103 10165 20142 30126 40173 52014 60001 333 10253
20145 70000 555 33018 4000/=
71189 46/// ///// 6///1 333 7////=
71190 46/// /3209 10121 20079 6///1 333 10160 20094 7//// 555
33046 4001/=
71192 15966 00401 10099 20085 39554 40206 52014 60001 333 10226
20081 70002=
71193 16/// /2506 10104 20066 39819 40175 52005 60001 333 10167
20059 70008 555 33220 4018/=
71199 16/// /2402 10081 20031 39376 40197 51017 60001 333 10187
20034 70000 555 32819 4000/=
71399 16/// /0000 10129 20104 60001 333 10265 20081 70000 555
33124 40221=
71900 16/// ///// 10085 20072 30015 40027 56057 60011 333 10135
20061 7////=
71903 16/// /2803 10118 20114 30156 40216 55000 60001 333 10151
20116 70000=
71904 16/// ///// 10149 20125 60001 333 10244 20054 70000=
71905 16/// /3401 10138 20111 39274 40187 51020 60001 333 10219
20106 70028=
71918 45/// /2810 39748 53006 6///1 333 7//// 555 32920 40120=
71920 16/// /2320 10172 20172 30108 40114 56013 60001 333 10180
20135 70002 555 32325 4005/=
71923 16/// /1305 10037 20008 39753 40191 53007 60001 333 10105
20009 70079 555 33219 4019/=
71927 16/// /0000 10150 20131 30113 40167 51002 60001 333 10247
20122 70000=
71933 16/// /0301 10098 20083 39384 40199 52017 60001 333 10197
20098 70000=
71941 15966 82303 10083 20056 39768 40179 52004 60001 333 10155
20062 70026 555 33324 40141=
71947 17766 82704 10079 20046 39813 40154 52009 60001 761// 333
10152 20027 70063 555 33126 40191=
71001 15966 72703 10041 20018 39242 40209 52015 60001 333 10167
20008 70000=
71011 16/// ///// 10160 20117 60001 333 10242 20107 70013=
71021 16/// /0000 10080 20075 39809 40153 53012 69901 333 10208
20029 70002 555 33521 4023/=
71043 11574 43603 10048 20044 30067 40158 52013 60001 70282 83570
333 10157 20015 79999 90950 555 10000 20000 32922 40231=
71063 16/// /1902 10088 20076 30090 40184 51008 60001 333 10224
20088 70107 555 31856 4007/=
71066 17105 72703 10102 20101 39722 40133 52012 60001 730// 333
10147 20101 70000=
71076 17/// /0807 10097 20068 39748 40132 57006 60011 7//4/ 333
10139 20063 70015 555 31217 4021/=
71079 12974 10603 11014 21026 39918 40199 50006 60001 80001 333
10136 21021 70000 555 10000 20000=
71083 12674 63009 10035 20013 30123 40164 52012 60001 86500 333
10087 20027 70000 555 10000 20000 33422 40151=
71090 15966 81002 10032 20014 30077 40111 52005 60001 333 10069
20032 70000=
71094 461// 83618 11001 39188 40067 52013 6///1 333 10005 21007
7////=
71095 15666 80201 10036 20032 30036 40115 52008 60001 333 10053
20019 70000=
71108 12974 01603 10144 20125 30097 40169 51004 60001 333 10239
20126 70000 555 10000 20000=
71375 46/// /2515 10096 20095 6///1 333 10122 20058 7//// 555
30828 4020/=
71377 46/// /2704 10129 20102 30133 40180 51011 6///1 333 10242
20129 7//// 555 32927 4022/=
####018003726####
SMCN04 KWBC 050600 RRE
AAXX 05064
71384 16/// /2702 10087 30133 40140 51030 60001 333 10194 20083
70350 555 32822 40020=
71391 16/// ///// 10086 20081 60001 333 10201 20086 70041=
71392 46/// /2207 10105 6///1 333 10221 20105 7//// 555 32229
40200=
71398 15666 73504 10054 20051 30145 40156 52017 60001 333 10171
20053 70008 555 33230 40231=
71555 16/// /2706 10141 20056 38650 40169 53008 60001 333 10232
20119 70000 555 32628 40150=
71567 17/// /2404 10132 20132 69981 7//4/ 333 10232 20075 70008
555 33023 40051=
71610 15966 02001 10082 20078 39886 40177 52018 60001 333 10239
20081 70132 555 32734 40211=
71820 16/// /0103 10107 20107 30082 40195 51009 60001 333 10219
20106 70061 555 32032 4008/=
71821 16/// /2805 10080 20040 39813 40154 53008 60001 333 10158
20046 70072 555 33224 4021/=
71825 17466 82910 10058 20045 39339 49994 52010 60001 761// 333
10076 21004 70000 555 31321 4018/=
71826 16/// /1104 10057 20007 30042 40082 53017 60001 333 10086
20040 70000=
71831 12774 82507 10117 20075 39893 40168 52007 60001 885// 333
10174 20045 70000 555 10000 20000 33219 4019/=
71835 17/// /0504 10080 20069 39711 40185 53015 60021 7//4/ 333
10122 20055 70023 555 32519 4018/=
71840 16/// /1104 10145 20129 60001 333 10255 20090 70007 555
32422 4017/=
71842 12674 82204 10136 20110 39716 40177 53007 60001 8557/ 333
10180 20035 70000 555 10000 20000 32323 40210=
71850 11780 81804 10142 20129 39680 40169 50000 69901 78022 8357/
333 10183 20067 79999 90921 555 32122 40181=
71893 12980 03407 10176 20130 30146 40177 52006 60001 333 10222
20148 70000 555 10000 20000=
71896 15966 72004 10106 20099 39387 40208 52011 60001 333 10189
20081 70002=
71906 12674 73405 10042 20027 30020 40070 56008 60001 81570 333
10119 20040 70000 555 10000 20000 32122 4014/=
71907 16/// /2802 10056 20053 30075 40104 53006 60001 333 10062
20040 70000 555 32018 4016/=
71003 47666 82909 10054 20008 39720 40093 52013 6///1 761// 333
10133 20017 7//// 555 32917 4006/=
71006 16/// /3508 10146 20127 60001 333 10256 20073 70014 555
30320 40171=
71024 16/// /2603 10127 20118 39781 40134 53012 69941 333 10150
20108 70128=
71032 16/// /1802 10148 20093 39369 40182 51018 60001 333 10272
20104 70000=
71068 11974 02808 10119 20105 39488 40166 51017 69901 70161 333
10214 20117 70013 90941 555 32630 40211=
71077 16/// /1705 10151 20117 39594 40120 50000 60001 333 10181
20113 70000=
71092 454// 70608 10007 21007 39470 40120 52008 6///1 333 10045
20006 7////=
71101 16/// /2401 10118 20113 30205 40213 53001 60001 333 10171
20116 70013=
71109 12974 01903 10116 20111 30172 40198 50001 60001 333 70000
555 10000 20000=
71337 16/// /2010 10157 20142 39872 40102 56026 60001 333 10181
20105 70005 555 31920 4006/=
71373 17/// /3101 10122 20087 39907 40175 51008 69921 7//4/ 333
10240 20120 70137 555 30121 4015/=
71382 16/// /0203 10067 20056 39222 40115 51014 60001 333 10148
20065 70210 555 30224 40230=
71395 11266 82111 10203 20200 39925 40097 58021 69941 72162 886//
333 10237 20160 70004 90900 555 10000 20000 32223 40051=
71412 46/// /1715 30063 58027 6///1 333 7//// 555 31524 4020/=
71467 16/// /0504 10034 20013 30051 40163 53006 60001 333 10070
21007 70000=
71551 16/// ///// 10113 20104 39489 40109 53008 69921 333 10207
20102 70027=
71557 16/// /0402 10149 20095 60001 333 10281 20066 70000=
71569 16/// /1604 10102 20088 39431 40114 53009 69931 333 10269
20079 70003 555 30130 4000/=
71603 11/10 /2511 10167 20167 30068 40113 55000 60061 72898 333
10192 20116 70057 90941 555 10000 20000 32329 40051=
71623 42974 03502 10085 20084 39874 40209 53002 6///1 333 10225
20074 7////=
####018003674####
SMCN04 KWBC 050600 RRF
AAXX 05064
71627 12774 02904 10134 20097 30136 40180 51011 60001 81500 333
10243 20134 70224 555 10000 20000 32936 40211=
71634 16/// /3106 10151 20141 39917 40065 53017 69971 333 10224
20091 70007 555 32017 4017/=
71816 11459 80607 10107 20104 39936 49995 58057 60121 76188 885//
333 10168 20054 70134 90973 555 10000 20000=
71832 16/// /3602 10108 20085 39851 40171 51007 60001 333 10183
20034 79999 555 33619 4022/=
71834 12674 83601 10120 20087 39754 40174 53002 60001 885// 333
10175 20004 70000 555 10000 20000 32719 4019/=
71845 45766 70505 10080 20069 39720 40189 52015 6///1 333 10122
20054 7//// 555 33022 4016/=
71851 17/// /1506 10159 20134 39798 40123 58014 69941 7//4/ 333
10252 20087 70004 555 32217 4017/=
71858 16/// /0904 10136 20098 39885 40160 56007 60001 333 10138
20063 70000=
71861 17/// /0708 10134 20116 39409 40111 58001 60021 7//4/ 333
10261 20061 70020 555 31918 4020/=
71862 15966 03309 10132 20121 39425 40111 52018 60001 333 7////
555 31526 40231=
71894 16/// /3405 10145 20141 30167 40176 58006 60001 333 10193
20134 70000 555 33217 4011/=
71911 462// 83108 10019 20016 30104 40159 52009 6///1 333 10039
20019 7////=
71951 12780 41905 10140 20118 39947 40211 52011 60001 84500 333
10196 20128 70052 555 10000 20000 31722 40161=
71002 17256 81307 10086 20083 39434 49956 57039 60121 7614/ 333
10095 21010 70182 555 31225 40011=
71050 16/// /2601 10121 20063 39154 40209 51021 60001 333 10242
20062 70000 555 32517 4022/=
71060 17/// /0201 10100 20093 38684 40180 51028 69971 7//4/ 333
10220 20060 70007=
71104 12974 03207 10133 20072 39117 40204 51017 60001 333 10212
20096 79999=
71351 46/// /2806 10150 20120 6///1 333 10238 20097 7//// 555
33227 40011=
71358 16/// /1002 10027 20004 30077 40111 53005 60001 333 10069
20027 70000=
71365 16/// /3004 10078 20076 39937 40146 51012 60001 333 10126
20076 70005=
71372 16/// /3002 10138 20110 60001 333 10239 20134 70193 555
32528 4020/=
71378 16/// /0802 10060 20059 39955 40160 51014 60001 333 10219
20054 70240 555 33225 40221=
71380 17/// /3309 10140 20131 60041 7//4/ 333 10237 20076 70036
555 33318 40190=
71389 16/// /1901 10058 20058 60001 333 10205 20056 70343 555
33126 40011=
71393 16/// /2003 10128 20078 38924 40158 53011 60001 333 10246
20097 70002 555 33125 4018/=
71550 17/// /0604 10139 20130 39779 40143 53012 60031 7//4/ 333
10230 20115 70026 555 32321 4014/=
71564 16/// /1308 10151 20127 39762 40116 58021 60001 333 10247
20080 70000 555 32518 4015/=
71573 16/// /0000 10059 20056 39919 40198 53002 60001 333 10236
20058 70017 555 33119 4015/=
71574 15566 72916 10148 20109 39994 40064 52027 60001 333 10218
20090 70000 555 32730 40061=
71585 17/// /2004 10149 20127 39639 40080 51001 60021 7//4/ 333
10201 20116 70028 555 33124 4003/=
71587 15966 00702 10025 20021 39837 40195 52010 60001 333 10113
20023 70074=
71598 46/// /2508 10170 20147 30035 40041 53013 6///1 333 10207
20100 7//// 555 32822 4006/=
71607 46/// /2805 10163 20143 30070 40102 53013 6///1 333 10232
20090 7//// 555 31818 4020/=
71625 15964 02802 10053 20047 30033 40192 53005 60001 333 10171
20049 7////=
71628 12974 01903 10083 20080 30053 40192 51009 60001 333 10229
20073 70073 555 10000 20000 32933 40191=
71633 12974 01103 10067 20064 39934 40204 52002 60001 333 10186
20058 70000 555 10000 20000 32827 40080=
71705 11574 72209 10180 20180 39990 40074 55003 60031 78092 885//
333 10249 20122 70031 555 10000 20000 31924 40201=
71714 16/// /2508 10092 20078 30078 40151 51023 60001 333 10212
20090 70350 555 32430 4020/=
####018003720####
SMCN04 KWBC 050600 RRG
AAXX 05064
71715 17/// /2604 10103 20071 39946 40123 51025 60011 7//4/ 333
10194 20097 70136 555 32019 4020/=
71812 15966 01913 10225 20123 39887 40152 52023 60001 333 10282
20149 70000 555 32029 40071=
71823 16/// /2908 10053 20007 39721 40094 53013 60001 333 10136
20021 70000=
71827 11274 82909 10030 20021 39884 40125 53005 69951 75182 887//
333 10122 20030 70005 90962 555 32920 40231=
71833 16/// /0301 10068 20065 60001 333 10204 20062 70002 555
32924 4014/=
71846 16/// /2402 10001 21001 39878 40191 51014 60001 333 10156
20001 70037=
71848 16/// /2602 10146 20064 60001 333 10268 20125 70000 555
32831 40141=
71849 16/// /1510 10159 20127 39841 40126 58016 60001 333 10250
20068 70002 555 32018 4021/=
71005 16/// ///// 10139 20113 60001 333 10254 20061 70000=
71007 16/// /1402 10116 20063 60001 333 10274 20088 70000 555
32926 40151=
71012 16/// /0000 10132 20121 60001 333 10227 20081 70031=
71013 16/// /3002 10122 20115 60001 333 10258 20092 70000 555
33018 40140=
71014 17/// /3214 10133 20118 60041 7//4/ 333 10227 20100 70045
555 33123 40061=
71017 16/// /2805 11052 21058 30174 40189 53006 60001 333 11018
21052 70002=
71022 15266 73402 10114 20107 30172 40215 52005 60001 333 10162
20101 70067=
71026 16/// /2104 10135 20079 39307 40134 53013 60001 333 10291
20132 70002 555 32827 4019/=
71028 16/// /3303 10070 20052 39205 40227 51020 60001 333 10233
20047 70000=
71030 46/// /2704 10159 20158 30011 40105 53009 6///1 333 10200
20073 7//// 555 31920 4023/=
71033 17/// /1207 10087 20067 39530 40149 58003 60011 7//4/ 333
10125 20000 70012=
71035 16/// /2905 10096 20089 60001 333 10243 20055 70042 555
32925 40191=
71039 46/// /0000 10064 20052 39542 40197 53014 6///1 333 10184
20005 7//// 555 33521 4023/=
71041 15466 82007 10213 20199 39968 40105 57025 60001 333 10214
20148 70000 555 31919 4022/=
71044 16/// /2603 10098 20086 39851 40160 52010 60001 333 10138
20066 70022 555 32420 4023/=
71355 16/// /3302 11022 21031 30003 40088 53007 60001 333 7////
555 33417 4015/=
71356 16/// /3307 10028 20017 30105 40170 51012 60001 333 10063
21005 70000 555 33319 4007/=
71364 17/// /3006 10075 20070 30009 40138 53012 60051 7//4/ 333
10141 20075 70068=
71556 17/// /1003 10112 20100 39538 40126 51016 69921 7//4/ 333
10228 20096 70032=
71558 16/// ///// 10138 20129 30034 40070 56041 60001 333 10185
20116 70002=
71560 16/// /1308 10149 20118 39845 40118 58014 60001 333 10240
20034 70000 555 31918 4019/=
71566 16/// /2706 10141 20096 60001 333 10236 20113 70000 555
33325 40221=
71570 16/// ///// 10159 20115 39850 40154 58001 60001 333 10230
20063 70000=
71575 16/// /2408 10019 20014 30015 40078 53006 60001 333 10069
20011 70000 555 32617 4023/=
71576 16/// /0000 10034 20018 30034 40117 53009 60001 333 10060
20014 70000=
71579 16/// /1001 10161 20125 39855 40130 58015 69921 333 10244
20087 70002=
71580 11332 52407 10014 20003 30107 40143 52008 60001 71022 87700
333 70000 555 10000 20000=
71581 46/// /0000 10040 20030 39722 40200 51004 6///1 333 10184
20038 7//// 555 32119 4011/=
71586 16/// /1509 10123 20099 39688 40144 58007 60001 333 10161
20096 70000=
71588 16/// /1806 10183 20151 60001 333 70002=
71590 17/// /3104 10092 20080 39924 40111 51032 60031 7//4/ 333
10187 20059 70168 555 31521 4018/=
71599 17/// /2805 10199 20198 39950 40100 58008 60061 7//4/ 333
10255 20158 70064=
71609 11162 22403 10150 20150 39962 40092 55002 60041 70198 82500
333 10211 20087 70041 90926 555 32023 40221=
71624 12974 00407 10128 20096 39989 40198 55000 60001 333 10211
20126 79999 555 10000 20000 32830 40131=
####018003749####
SMCN04 KWBC 050600 RRH
AAXX 05064
71706 11469 81916 10195 20187 30011 40072 57022 60011 79561 86770
333 10247 20109 70011 90916 555 10000 20000 31926 40011=
71915 12674 23308 10034 20025 30043 40122 52010 60001 82500 333
10084 20032 70000 555 10000 20000=
71917 12874 72809 10001 21039 30124 40138 54001 60001 81071 333
70000 555 10000 20000 33520 4021/=
71157 17/// /2706 10155 20110 39380 40161 53016 69921 7//4/ 333
10247 20128 70003 555 33324 4002/=
71165 17/// /1302 10098 20086 39871 40144 53012 69941 7//4/ 333
10128 20085 70004=
71178 16/// /1812 10161 20154 30118 40149 56021 60001 333 10208
20146 70000 555 31623 4000/=
71290 15866 40903 10108 20074 39376 40195 52020 60001 333 10192
20098 70000=
71295 16/// /0201 10146 20124 39732 40168 51007 60001 333 10184
20043 70000 555 32517 4020/=
71296 16/// /2901 10095 20083 39898 40200 53002 60001 333 10217
20081 70000 555 33221 4015/=
71298 16/// /0603 10152 20122 39968 40196 58001 60001 333 10235
20146 70000=
71299 16/// /2507 10114 20076 39895 40155 53007 60001 333 10170
20044 70000 555 32818 4020/=
71665 17/// ///// 10060 20050 30031 40041 57039 69921 7//4/ 333
10157 20031 70002=
71666 17/// /2208 10174 20164 30021 40063 56006 60021 7//4/ 333
10254 20138 70024 555 31923 4000/=
71668 17/// /2809 10165 20146 30044 40086 52011 60031 7//4/ 333
10241 20081 70032 555 31928 4019/=
71671 16/// /2509 10202 20180 30025 40083 55015 60071 333 10258
20164 70073 555 31918 4003/=
71672 16/// /0602 10089 20083 39935 40196 51005 60001 333 10203
20085 70000 555 32422 4014/=
71673 16/// ///// 10138 20122 60001 333 10239 20062 70000=
71675 15966 03402 11001 21001 39920 40198 52015 60001 333 10112
21014 70005=
71679 16/// /3204 10124 20067 39209 40212 51012 60001 333 10180
20121 70000=
71681 16/// /0803 10227 20077 39769 40152 51026 60001 333 10304
20135 70000=
71686 15966 03502 10064 20057 39266 40210 52018 60001 333 10159
20062 70000=
71688 46/// /0701 10105 20093 39171 40185 53006 6///1 333 10215
20105 7////=
71690 16/// /2404 10099 20092 60001 333 10209 20093 70012 555
32729 40221=
71868 16/// /0505 10115 20104 39716 40147 53004 60001 333 10172
20074 70000=
71871 15966 41802 10128 20112 39360 40145 52012 60001 333 10224
20083 70000 555 31019 4018/=
71877 12974 01902 10155 20087 38912 40163 52011 60001 80001 333
10249 20107 79999 555 33226 40191=
71878 42769 53613 10138 20124 39135 40185 52033 6///1 333 10243
20076 7////=
71880 12982 02404 10179 20067 39096 40167 52016 60001 333 70000
555 10000 20000 32120 4023/=
71882 16/// /2701 10138 20132 39653 40178 52017 60001 333 10240
20126 70007 555 33420 4007/=
71887 12986 01307 10216 20124 39750 40158 52025 60001 333 10291
20122 70000 555 10000 20000=
71892 12980 03402 10163 20152 30161 40166 50000 60001 333 10219
20137 70000 555 10000 20000=
71914 16/// /2301 10169 20116 39942 40159 53002 60001 333 10223
20120 70000=
71916 16/// /1303 11004 21012 30107 40161 53005 60001 333 10063
21034 70000=
71944 16/// /0901 10097 20070 39369 40191 52020 60001 333 10199
20097 70004=
71057 16/// /1304 10121 20082 60001 333 10269 20084 70000 555
32625 40181=
71064 461// 81501 11006 21008 39987 40200 52007 6///1 333 10037
21017 7////=
71072 15966 02902 10088 20085 39946 40188 52007 60001 333 10194
20029 70000 555 32518 4020/=
71222 16/// /0000 10066 20055 39266 40223 53018 60001 333 10159
20062 70000=
71230 16/// /0602 10092 20077 39302 40179 51014 60001 333 10189
20091 70000 555 32727 4021/=
71243 16/// /2304 10137 20072 39113 40129 53014 60001 333 10287
20125 70000 555 32434 40111=
71301 46/// ///// 10071 20064 39783 40176 54000 6///1 333 10161
20067 7////=
####018003704####
SMCN04 KWBC 050600 RRI
AAXX 05064
71315 17/// /2710 10128 20090 30018 40070 53048 69921 7//4/ 333
10182 20070 70020 555 32833 4005/=
71339 15166 81806 10122 20119 30064 40077 57048 60001 333 10170
20094 70000 555 31619 4020/=
71348 16/// /3005 10075 20075 60001 333 10218 20075 70004 555
32828 40201=
71401 16/// /3501 10172 20077 39501 40166 53019 60001 333 10297
20145 70000 555 33619 4010/=
71410 15966 00806 10067 20037 39905 40180 52002 60001 333 10163
20060 70008=
71424 46/// /2611 6///1 333 7//// 555 32637 40202=
71448 46/// /1303 10143 39826 40147 58004 6///1 333 10227 20049
7////=
71450 16/// /0604 10096 20081 39430 40133 51018 60001 333 10231
20095 70014 555 31117 4001/=
71454 16/// /2401 10080 20072 39477 40155 51002 60001 333 10169
20071 70000=
71456 17/// /1007 10121 20109 39554 40137 53007 69921 7//4/ 333
10187 20086 70002 555 31020 4002/=
71458 17/// /2306 10124 20116 39396 40140 53007 69931 7//4/ 333
10245 20074 70003 555 33028 4003/=
71461 16/// /2506 10098 20088 60001 333 10219 20093 70024 555
32528 40231=
71475 16/// /1201 10146 20139 30087 40179 51010 60001 333 10263
20146 70000=
71485 16/// /2910 10112 20111 30179 40196 58003 60001 333 10164
20107 70002=
71488 16/// /3502 10094 20029 38651 40161 53009 60001 333 10252
20094 70000 555 32425 4015/=
71494 16/// /2704 10073 20066 39654 40166 51023 60011 333 10192
20073 70158 555 32027 4017/=
71496 17/// /3506 10092 20084 39530 40128 53011 69931 7//4/ 333
10202 20089 70005 555 30618 4020/=
71611 46/// /1502 10098 20084 6///1 333 10243 20092 7//// 555
32630 40211=
71616 16/// /2404 10089 20076 30053 40170 51017 60001 333 10223
20077 70174 555 33226 4000/=
71728 12982 02608 10088 20065 39926 40143 52021 60001 333 10206
20083 70322 555 10000 20000 33130 40211=
71750 16/// /2503 10118 20105 39953 40183 58001 60001 333 10165
20031 70000=
71752 16/// /3001 10115 20107 39983 40197 50001 60001 333 10241
20112 70000 555 32923 4015/=
71780 16/// /3002 10124 30144 40174 52002 60001 333 10162 20117
70000 555 33021 4009/=
71787 17/// /2711 10149 20145 39611 40082 55003 60121 7//4/ 333
10212 20131 70120 555 32124 4003/=
71788 16/// /2106 10124 20079 60001 333 10283 20122 70000 555
32926 40191=
71795 16/// /2205 10141 20071 60001 333 10283 20135 70000 555
32733 40192=
71814 17/// /1912 10141 20139 30025 40034 58033 60051 7//4/ 333
10156 20060 70051 555 31925 4005/=
71934 11569 80903 10114 20090 39870 40121 52004 69901 76162 8753/
333 10158 20074 79999 90931 555 10000 20000=
71943 12874 21504 10104 20090 39358 40184 52015 60001 82070 333
10171 20101 70088 555 10000 20000 32520 40181=
71946 11659 33103 10082 20082 39935 40145 52012 69901 71081 835//
333 10123 20082 70004 90931 555 10000 20000=
71968 452// 82909 10088 20082 30077 40139 52013 6///1 333 10149
20076 7////=
71221 16/// /2702 10100 20100 60001 333 10163 20098 70014=
71245 46/// /2609 10085 20002 6///1 333 10134 20066 7//// 555
32543 4014/=
71303 16/// ///// 10128 20126 39985 40189 55000 60001 333 10238
20121 70000=
71305 17359 80711 10125 20119 39798 40081 57010 60021 761// 333
10136 20100 70018 555 31122 4005/=
71306 15566 82803 10056 20049 30074 40106 52006 60001 333 10063
20042 70000 555 32519 4008/=
71308 46/// /1910 10214 20196 30019 40100 58023 6///1 333 10221
20153 7//// 555 31826 4021/=
71310 16/// /1913 10200 20184 30038 40073 56019 60001 333 10257
20121 70000 555 32121 4020/=
71314 46/// /2905 10085 20077 39856 40204 53003 6///1 333 10201
20076 7//// 555 33132 4013/=
71316 17/// /2811 10149 20113 39461 40128 53004 69921 7//4/ 333
10228 20112 70016 555 32922 4023/=
####018003685####
SMCN04 KWBC 050600 RRJ
AAXX 05064
71317 17/// /2006 10201 20192 30045 40090 56022 69971 7//4/ 333
10264 20155 70011 555 31921 4022/=
71321 16/// /0103 10028 20020 30068 40110 53011 60001 333 10078
20023 70015 555 33120 4007/=
71332 16/// /2705 10059 20049 30113 40142 53007 60001 333 10090
21001 70002 555 30917 4000/=
71338 15566 80501 10038 20035 30095 40102 52011 60001 333 10063
20034 70065 555 33618 4007/=
71347 16/// /3002 10092 20084 69951 333 10196 20092 70009 555
32529 40201=
71349 16/// /2704 10127 20108 60001 333 10218 20082 70005 555
32918 40000=
71411 16/// /2012 10177 20176 30090 40102 58016 60001 333 10188
20165 70007 555 32018 4005/=
71431 46/// /0004 10130 20104 30089 40183 50003 6///1 333 10211
20128 7//// 555 32529 4007/=
71447 16/// /1811 10172 20141 39549 40073 58023 60001 333 10242
20074 70000 555 31418 4023/=
71513 17262 81816 10159 20153 39986 40001 57033 60101 7614/ 333
10165 20035 70140 555 31631 40021=
71516 16/// /2903 10093 20078 39248 40126 53012 60001 333 10302
20076 70000 555 32827 4000/=
71528 16/// /2905 10129 20085 60001 333 10277 20129 70010 555
32126 40101=
71545 46/// ///// 10123 20114 6///1 333 10234 20086 7////=
71730 12974 02904 10073 20054 39777 40198 52005 60001 333 10178
20072 70000 555 10000 20000 33623 40171=
71769 16/// /2509 10183 20153 30151 40168 52003 60001 333 10212
20165 70000 555 33019 4014/=
71776 46/// /1701 10152 20085 39542 40166 53018 6///1 333 10298
20137 7//// 555 32718 4010/=
71785 16/// /0000 10150 20140 30153 40169 51002 60001 333 10198
20137 70000=
71786 46/// /2306 10103 20086 38413 40186 53012 6///1 333 10201
20069 7//// 555 32519 4023/=
71794 16/// ///// 10146 20133 60001 333 10241 20093 70045=
71808 11574 81311 10156 20141 30018 40064 57036 69901 76162 885//
333 10169 20066 79999 90915 555 31123 40031=
71876 15966 01404 10095 20091 39500 40152 52011 60001 333 10206
20090 70017 555 30719 4023/=
71201 16/// ///// 10167 20150 60001 333 10218 20151 70000=
71212 16/// /3208 10079 20055 39354 40142 53020 60001 333 10157
20067 70286 555 33427 4000/=
71216 16/// /0402 10129 20110 39571 40172 52016 60001 333 10251
20119 70002=
71220 46/// ///// 10120 20113 6///1 333 10156 20120 7////=
71223 16/// /2302 10141 20107 60001 333 10251 20100 70000 555
33121 40161=
71228 46/// /3304 10133 20116 6///1 333 10267 20079 7////=
71232 46/// /2504 10158 20032 38703 40154 53011 6///1 333 10238
20059 7//// 555 32521 4011/=
71233 17/// /0802 10126 20115 60031 7//4/ 333 10229 20077 70032=
71234 16/// /2603 10118 20059 39005 40157 53008 60001 333 10271
20068 70000 555 32822 4015/=
71238 17/// /0000 10118 20116 39321 40149 53014 60101 7//4/ 333
10225 20113 70097 555 33022 4002/=
71242 17/// /3408 10133 20116 39188 40187 53039 60041 7//4/ 333
10242 20089 70041 555 33218 4021/=
71244 16/// /3106 10120 20048 38965 40154 52010 60001 333 10287
20108 70000 555 32931 4020/=
71248 16/// /3512 10144 69931 333 10239 20063 70017 555 33422
4019/=
71402 46/// /1911 10165 20148 30007 40118 58028 6///1 333 10203
20124 7//// 555 31422 4000/=
71409 46/// ///// 10115 20037 6///1 333 10288 20111 7////=
71419 46/// /1913 10197 20197 30083 40093 57020 6///1 333 10216
20180 7//// 555 31821 4006/=
71436 17903 02501 10072 20072 39966 40198 52004 60001 730// 333
10205 20069 70000 555 32726 40151=
71441 16/// /1408 10152 20115 39828 40129 56015 60001 333 10247
20049 70000 555 32220 4018/=
71463 46/// /0107 10145 20107 39975 40197 50000 6///1 333 10240
20142 7//// 555 32538 4009/=
71473 16/// ///// 10162 20137 30135 40164 53002 60001 333 10227
20125 70000=
####018003670####
SMCN04 KWBC 050600 RRK
AAXX 05064
71481 17/// /2706 10137 20089 69941 7//4/ 333 10233 20100 70004
555 33122 40211=
71486 16/// /0002 10115 20088 39019 40198 53025 60001 333 10228
20023 70000=
71489 16/// /0704 10110 20095 39367 40141 51011 60001 333 10228
20099 70000 555 30118 4020/=
71495 16/// /3106 10095 20089 60001 333 10229 20079 70000 555
33425 40191=
71498 16/// /2403 10112 20090 60001 333 10264 20073 70004 555
33125 40231=
71499 17666 81108 10088 20077 39534 40152 57003 60011 7004/ 333
10125 20021 70010=
71500 46/// /2906 10122 20095 6///1 333 10234 20115 7//// 555
33127 40001=
71510 16/// /3301 10109 20091 39437 40127 51008 60001 333 10237
20080 70000 555 31034 4021/=
71604 16/// /2213 10181 20165 60001 333 10181 20103 70008 555
32324 4005/=
71638 46/// /3401 10143 20125 30067 40170 53002 6///1 333 10227
20127 7////=
71731 15966 03207 10048 39750 40197 52004 60001 333 10172 20047
70002 555 32831 40101=
71753 16/// /2006 10180 20168 30058 40086 58025 69921 333 10237
20134 70002 555 32020 4021/=
71758 16/// /1911 10195 20194 30036 40110 58018 60001 333 10209
20140 70000 555 32120 4004/=
71772 16/// /3206 10193 20164 30154 40166 51001 60001 333 10209
20175 70000 555 33418 4015/=
71781 46/// /3006 10186 20156 30148 40172 53003 6///1 333 10211
20158 7//// 555 33017 4012/=
71800 46/// ///// 30130 58015 6///1 333 7////=
71803 12374 81816 10177 20166 39954 40135 56028 60001 886// 333
10237 20113 79999 555 10000 20000 32128 40061=
71815 12574 71712 10183 20157 30064 40093 58018 60001 87500 333
10206 20096 70000 555 10000 20000 31722 40041=
71925 12474 80303 10010 21013 30145 40185 53008 60001 885// 333
10030 21012 7////=
71935 12474 53601 10114 20112 39917 40120 52006 60001 85570 333
10154 20066 70102 555 10000 20000=
71948 469// 00911 10025 20023 30038 40149 52010 6///1 333 10063
20022 7////=
71008 16/// /3104 10124 20096 60001 333 10269 20071 70000 555
33031 40221=
71027 16/// /2203 10206 20180 30082 40088 58019 60001 333 10207
20133 70000=
71036 17466 80804 10140 20139 39780 40144 52012 60031 7614/ 333
10236 20116 70027 555 32423 40141=
71055 17/// /1907 10044 20034 39813 40152 53011 69971 7//4/ 333
10090 20034 70007=
71061 46/// /2503 10124 20089 39396 40145 53016 6///1 333 10244
20102 7//// 555 33023 4000/=
71070 16/// /2409 10128 20045 60001 333 10292 20123 70000 555
32834 40221=
71075 16/// /1603 10071 20023 39674 40178 51004 60001 333 10123
21013 70000=
71078 15966 71304 10057 20033 39753 40191 52006 60001 333 10139
21014 70000=
71084 452// 83309 6///1 333 7////=
71097 459// 00608 10031 20022 39634 40099 52012 6///1 333 10051
20018 7////=
71202 16/// /3206 10135 20135 60001 333 10246 20053 70000=
71203 15966 00404 10141 20111 39654 40160 52017 60001 333 10278
20096 70018 555 32019 4007/=
71209 46/// /3105 10190 20162 6///1 333 10191 20143 7////=
71215 46/// /0000 10169 20122 39815 40149 52019 6///1 333 10300
20133 7//// 555 33117 4006/=
71229 46/// /2704 10103 20103 6///1 333 10204 20098 7//// 555
32718 40200=
71341 16/// /2612 10155 20054 60001 333 10269 20075 70000 555
32627 40181=
71343 16/// /2505 10123 20042 60001 333 10286 20119 70000 555
32533 40172=
71345 16/// /2408 10144 20037 60001 333 10289 20132 70000 555
32730 40181=
71368 15966 02702 10071 20071 39821 40207 54000 60001 333 10205
20057 70002 555 33228 40151=
71379 16/// /2705 10087 20064 39954 40120 51019 60001 333 10183
20086 70171 555 33126 4021/=
71397 11458 82512 10199 20192 30060 40093 55008 60111 79282 884//
333 10269 20153 70114 90926 555 10000 20000 32521 40060=
####018003725####
SMCN04 KWBC 050600 RRL
AAXX 05064
71400 46/// /1806 10177 20154 39992 40118 57028 6///1 333 10236
20075 7////=
71405 16/// ///// 10124 20113 69941 333 10239 20058 70008=
71415 46/// /2107 10215 20185 30078 40081 56021 6///1 333 10261
20178 7//// 555 31921 4023/=
71428 17/// /2527 10113 20087 30057 40063 51051 60071 7//4/ 333
10193 20082 70120 555 32438 40042=
71429 46/// /2410 39997 57008 6///1 333 7//// 555 32128 40021=
71430 46/// /0107 10116 20101 30099 40194 50006 6///1 333 10212
20108 7//// 555 32134 4010/=
71443 17/// /0308 10123 20120 39745 40147 51006 69921 7//4/ 333
10197 20123 70002 555 30618 4023/=
71446 16/// /2007 10114 20076 39176 40133 51009 60001 333 10272
20112 70000 555 32123 4014/=
71453 16/// /0601 10103 20053 39255 40141 53015 60001 333 10287
20102 70000 555 32530 4021/=
71457 16/// /2801 10117 20089 39275 40141 53010 60001 333 10279
20107 70000 555 33225 4019/=
71493 16/// /2607 10182 20178 30047 40084 55014 60111 333 10240
20140 70107 555 32318 4006/=
71725 16/// /2203 10082 20051 39764 40177 52004 60001 333 10154
20058 70022 555 33323 4017/=
71765 16/// /1814 10224 20124 39886 40151 51022 60001 333 10295
20150 70002 555 31929 4020/=
71774 46/// ///// 10163 39734 40164 55000 6///1 333 10223 20138
7////=
71783 16/// /3201 10136 20122 30097 40169 53003 60001 333 10215
20115 70000=
71793 46/// /1902 10118 20110 6///1 333 10263 20094 7//// 555
33122 40161=
71799 12974 01702 10146 20138 30145 40169 50002 60001 333 10217
20133 70000 555 10000 20000=
71924 12974 23409 10005 21012 30064 40152 51007 60001 80009 333
10046 21001 70000 555 10000 20000 30321 40131=
71940 12882 12705 10123 20088 39393 40183 52015 60001 81030 333
10210 20086 79999 555 32533 40191=
71966 16/// /0000 10069 20037 39735 40189 53019 60001 333 10188
20055 70000=
71051 16/// ///// 10117 20054 60001 333 10286 20112 70007=
71085 15966 02407 10139 20060 38824 40163 52011 60001 333 10248
20067 70000 555 32535 40172=
71231 16/// /2202 10112 20063 60001 333 10287 20112 70000 555
32633 40171=
71240 16/// ///// 10110 20096 39319 40145 51010 60001 333 10267
20067 70000=
71249 16/// /3111 10141 20121 60001 333 10244 20052 70006 555
33224 40221=
71304 16/// /2206 10111 20053 38757 40169 51010 60001 333 10240
20060 70000 555 32528 4016/=
71311 17/// /2311 10184 20176 30061 40085 55006 60091 7//4/ 333
10248 20126 70100 555 32421 4006/=
71322 16/// /2903 10053 20033 30162 40174 53010 60001 333 10090
20042 70000 555 33426 4016/=
71335 455// 82005 10074 20023 39463 40083 57019 6///1 333 10096
20031 7////=
71397 11458 82512 10199 20192 30060 40093 55008 60111 79282 885//
333 10269 20153 70114 90926 555 10000 20000 32521 40060=
71403 46/// /2118 10198 20196 30083 40102 58016 6///1 333 10202
20179 7//// 555 32023 4005/=
71413 16/// ///// 10112 20097 60001 333 10265 20074 7////=
71426 16/// /2815 10095 20068 60001 333 10134 20057 70090 555
32932 4002/=
71435 16/// /2402 10092 20086 39604 40188 50002 60001 333 10171
20035 70000=
71451 16/// /1301 10098 20056 39750 40169 50003 60001 333 10153
20006 70003=
71455 16/// /1005 10105 20088 39354 40129 51013 60001 333 10284
20101 70041 555 33327 4021/=
71460 46/// /3108 10133 20083 39967 40204 52005 6///1 333 10191
20133 7//// 555 32927 4007/=
71465 46/// /0104 10166 20120 39988 40198 53001 6///1 333 10229
20166 7////=
71538 15966 00703 10132 20115 39978 40205 52001 60001 333 10221
20131 70000 555 33220 4013/=
71612 16/// /3101 10142 20096 30090 40178 51012 60001 333 10234
20142 70227 555 33618 4001/=
71614 16/// /3102 10129 20101 30111 40175 50008 60001 333 10250
20129 70219 555 33127 4020/=
####018003688####
SMCN04 KWBC 050600 RRM
AAXX 05064
71727 12782 22609 10092 20071 39943 40137 53019 60001 82500 333
10187 20089 70321 555 10000 20000 33026 40221=
71754 16/// /1303 10090 20079 39495 40118 51011 60001 333 10204
20088 70016 555 30718 4023/=
71767 16/// /3204 10122 20102 39943 40200 53004 60001 333 10177
20118 70000 555 33026 4007/=
71768 16/// /2805 10193 20071 39637 40169 51015 60001 333 10259
20120 70000=
71777 46/// ///// 10137 20123 39923 40167 51022 6///1 333 10294
20119 7////=
71779 16/// /0000 10100 20084 39553 40204 51014 60001 333 10227
20080 79999=
71789 16/// /2806 10121 20059 60001 333 10287 20100 70000 555
32530 40171=
71813 17/// /1815 10158 20153 39984 49997 58034 60101 7//4/ 333
10163 20038 70152 555 31830 4005/=
71886 17/// /0806 10110 20104 39541 40132 50004 60011 7//4/ 333
10233 20097 70014 555 31221 4004/=
71928 16/// /3402 10122 20116 39046 40180 51034 60011 333 10240
20067 70011 555 33417 4005/=
71931 46/// /2009 10152 20144 30119 40131 57024 6///1 333 10197
20142 7//// 555 31621 4021/=
71936 11674 80604 10092 20063 39884 40138 50006 60031 76122 885//
333 10159 20075 70027 90931 555 10000 20000 31222 40201=
71938 11774 82605 10059 20049 30117 40146 53007 69901 78062 885//
333 10087 21001 79999 90915 555 10000 20000 30818 4000/=
71949 16/// /0000 10081 20057 39344 40201 52011 60001 333 10168
20061 70004 555 32722 4021/=
71964 42774 22005 10094 20046 39358 40204 52011 6///1 333 10180
20047 7////=
71505 46/// /0000 10047 20014 39488 40210 53020 6///1 333 10187
21010 7//// 555 32717 4004/=
71514 16/// /0906 10135 20104 39439 40116 53006 69921 333 10258
20096 70004 555 30228 4000/=
71515 16/// /0404 10127 20113 39439 40119 53005 60021 333 10243
20110 70022 555 31924 4018/=
71517 16/// /2504 10117 20041 60001 333 10270 20116 70000 555
32833 40182=
71524 46/// /2601 10112 20093 30158 40183 51012 6///1 333 10248
20112 7//// 555 32526 4019/=
71526 16/// /2102 10144 20107 60001 333 10248 20096 70000 555
33225 40221=
71534 45/22 00000 10044 20044 39932 40201 52001 6///1 333 7////
555 33027 4012/=
71536 16/// /2406 10148 20055 60001 333 10281 20121 70000 555
32933 40182=
71540 17/// /0011 10130 20129 60131 7//4/ 333 10247 20056 70129
555 33124 40171=
71543 16/// /0101 10061 20051 60001 333 10198 20061 70000 555
32730 40201=
71544 16/// /2907 10125 20117 60081 333 10240 20097 70079 555
32826 40011=
71546 16/// /2108 10080 20078 60001 333 10212 20072 70004 555
32829 40211=
71056 17/// /0610 10124 20116 39804 40094 56010 60081 7//4/ 333
10136 20101 70148 555 30919 4005/=
71074 16/// /3005 11017 21039 30097 40173 53001 60001 333 10017
21031 70000 555 30223 4010/=
71087 46/// /3402 10122 20091 39925 40125 51011 6///1 333 10150
20077 7////=
71088 466// 82814 10042 20031 30047 40099 52006 6///1 333 10089
20031 7////=
71213 16/// /1802 10063 20047 39884 40180 53003 60001 333 10166
20063 79999 555 33024 4010/=
71217 16/// /3207 10125 20072 60001 333 10271 20068 70000 555
33224 40191=
71226 17/// /2605 10114 20104 69981 7//4/ 333 10223 20114 70008
555 32926 40011=
71236 16/// /2301 10072 20064 60001 333 10235 20046 70000 555
33026 4014/=
71247 15966 01903 10136 20084 39310 40138 52013 60001 333 10291
20127 70002 555 32831 40191=
71300 46/// /0000 10081 20078 30068 40189 51006 6///1 333 10232
20079 7//// 555 33224 4021/=
71307 16/// /0000 10086 20083 39964 40212 53003 60001 333 10224
20086 70005=
71312 16/// ///// 10121 20107 39699 40147 53005 60001 333 10179
20067 70000=
71318 16/// /0101 10108 20097 39228 40156 53011 60001 333 10252
20081 70075 555 33020 4015/=
####018003742####
SMPL01 KWBC 050600
AAXX 05061
12195 12975 11802 10149 20107 39929 40151 57004 60002 80001 333
10160 20097 31007 55065 91202 96122 93000=
12235 12979 62302 10143 20102 39910 40115 53005 60002 8603/ 333
10184 20121 30010 5///3 55090 91203 93000=
12270 12982 21502 10166 20100 39961 40137 58002 60002 81031 333
10180 20127 30011 50323 55104 91202 96122 93000=
12280 12980 11804 10157 20115 39986 40139 58003 60002 80001 333
10172 20132 31012 55075 91205 96122 93000=
12435 12981 11504 10149 20103 39962 40128 57001 60002 81031 333
10206 20130 30012 55117 91204 93000=
12530 12980 01702 10155 20101 39943 40138 57002 60002 333 10195
20112 30009 55125 91202 96122 93000=
12580 12970 00902 10119 20114 39909 40170 57003 60002 333 10157
20072 31004 91202 96122 93000=
12120 12581 72204 10164 20131 30097 40101 53007 60002 8153/ 333
10171 20141 31012 50003 55076 70002 91207 93000=
12205 11470 52303 10156 20145 30113 40122 53010 69932 70182 83532
333 10203 20150 31011 55112 70003 91203 93093=
12250 12982 21702 10161 20097 30036 40122 52001 60002 81038 333
10205 20135 30011 55087 91203 93000=
12375 12981 11403 10149 20102 30023 40151 57001 60002 80002 333
10189 20114 30010 55047 91203 96122 93000=
12424 12984 31502 10153 20111 39990 40134 53009 60002 83030 333
10197 20125 30010 55113 91203 96122 93000=
12566 12970 00000 10136 20120 39873 40161 57001 60002 333 10157
20090 31007 91202 93000=
12105 11677 72203 10158 20137 30068 40109 52009 69902 76111 8127/
333 10192 20153 31013 55081 79999 91203 93097=
12160 12570 61805 10156 20097 39895 40114 57003 60002 82506 333
10175 20147 31014 55110 91205 96122 93000=
12295 12970 01801 10145 20122 39980 40162 58001 60002 333 10145
20082 30005 55114 91201 96122 93000=
12300 12782 72401 10147 20111 30040 40128 52013 60002 875// 333
10221 20141 30011 55113 91107 91203 93000=
12330 12983 62102 10149 20103 30017 40123 53007 60002 86030 333
10216 20144 30012 55113 91203 93000=
12400 12883 73104 10157 20098 39904 40132 52013 60002 8155/ 333
10212 20151 30014 55099 91204 93000=
12465 12970 01201 10153 20103 39926 40141 57003 60002 333 10161
20086 30006 55108 20000 91202 93000=
12495 12962 01702 10145 20110 39883 40169 57002 60002 333 10162
20095 31007 91202 96122 93000=
12570 12981 11302 10134 20107 39850 40161 56003 69902 81030 333
10152 20087 31007 55100 79999 91202 96122 93097=
12135 12980 51904 10170 20123 30099 40102 53002 60002 85030 333
10185 20166 30014 55102 91111 91206 93000=
12200 12582 42502 10157 20130 30105 40112 52009 69912 84300 333
10196 20149 31012 55080 70001 91203 93091=
12385 12973 11702 10153 20107 39975 40160 57003 60002 80001 333
10153 20086 31006 55089 91202 96122 93000=
12575 15/73 /0000 10143 20107 39912 40161 55001 60002 333 10167
20097 3/009 55094 91201 91300 93000=
12100 11670 32103 10157 20144 30100 40107 52006 69902 70181 82230
333 10190 20157 31015 55071 79999 91203 93097=
12115 12580 72204 10158 20120 30087 40101 52008 60002 8257/ 333
10186 20154 31014 55052 70001 91206 93000=
12185 11980 11504 10160 20105 30002 40133 57004 60002 700// 80001
333 10174 20123 31011 55099 91204 96122 93000=
12210 17/67 /2002 10148 20138 30051 40114 52007 69912 723// 333
10197 20138 3/012 55093 70001 91203 91302 93091=
12215 17/// /9902 10158 20112 39947 40112 52011 60002 7//// 333
10218 20124 3/011 55000 70000=
12272 12983 11704 10163 20102 39966 40128 57003 60002 80001 333
10166 20128 31010 91204 96122 93000=
12360 15/78 /1602 10158 20103 30004 40133 57003 60002 333 10181
20123 3/009 55090 91202 91302 93000=
12399 12971 21502 10132 20107 30007 40173 50000 60002 80001 333
10144 20081 30005 55092 91202 96122 93000=
####018003739####
SMCN04 KWBC 050600 RRN
AAXX 05064
71323 16/// /2404 10095 20074 39879 40154 53028 60001 333 10208
20095 70094 555 33118 4002/=
71342 16/// /0402 10104 20098 60001 333 10276 20089 70004 555
31826 40171=
71425 17/// /2816 10127 20099 39996 40031 53030 60011 7//4/ 333
10202 20082 70011 555 31843 4021/=
71437 46/// /3005 10146 20101 30102 40197 51001 6///1 333 10244
20142 7//// 555 32824 4015/=
71440 16/// /3403 10176 20115 60001 333 10261 20092 70000 555
33226 40221=
71444 17/// /0205 10138 20125 39403 40137 55000 60031 7//4/ 333
10245 20034 70029=
71605 46/// /3401 10153 20139 30022 40172 52003 6///1 333 10230
20139 7////=
71618 17666 82403 10056 20049 30148 40185 52008 60001 761// 333
10087 20037 70000 555 33323 40161=
71726 16/// /3002 10052 20052 39636 40170 51010 69921 333 10174
20046 70158 555 33122 4019/=
71739 42874 52606 10103 20064 39822 40180 52005 6///1 85050 333
10166 20051 7//// 555 33120 4010/=
71751 16/// /2706 10117 20097 39925 40181 51007 60001 333 10150
20079 70000 555 33221 4007/=
71766 16/// /2502 10153 20128 30104 40174 53003 60001 333 10223
20126 70000=
71773 16/// /2003 10101 20043 39356 40200 53012 60001 333 10181
20041 70002=
71775 16/// /2401 10164 20144 30161 40167 52003 60001 333 10251
20133 70000=
71782 46/// /3503 10106 20071 38884 40173 53019 6///1 333 10255
20061 7//// 555 31919 4020/=
71784 16/// /0301 10165 20133 39966 40169 53001 60001 333 10222
20143 70000=
71792 46/// ///// 10136 20109 6///1 333 10247 20076 7////=
71801 11148 82308 10177 20176 39996 40165 57019 60021 71084 885//
333 10211 20162 70030 90942 555 10000 20000 32021 40231=
71810 17/// /2516 10130 20127 39940 40004 53002 69981 7//4/ 333
10152 20056 70155 555 31330 4022/=
71926 11474 43208 10030 20020 30149 40173 52013 69901 70271 84500
333 10068 21007 79999 90920 555 19999 29999 33522 40071=
71945 12974 22608 10148 20046 39699 40157 52017 60001 82070 333
10214 20127 70034 555 32922 40201=
71062 16/// /2703 10138 20107 39128 40172 53025 69921 333 10231
20079 70002 555 30119 4002/=
71089 16/// /2002 10095 20094 60001 333 10221 20067 70006 555
33519 40181=
71214 16/// /1101 10125 20125 60001 333 10258 20110 70000 555
33419 40220=
71218 46/// /1502 10156 20135 39748 40166 53017 6///1 333 10263
20126 7////=
71219 16/// /0102 10123 30201 40209 53004 60001 333 10148 20123
70062=
71225 46/// /2007 10120 20035 6///1 333 10286 20110 7//// 555
32945 40111=
71227 46/// /2905 10127 20118 6///1 333 10240 20064 7//// 555
33522 40031=
71235 46/// /2607 10138 20053 6///1 333 10237 20105 7//// 555
33119 4013/=
71239 16/// /0704 10151 20134 39667 40110 56015 60031 333 10258
20058 70026=
71246 17/// /2704 10126 20121 39504 40152 51027 60011 7//4/ 333
10216 20124 70046 555 33021 4003/=
71302 16/// /2003 10106 20099 39397 40203 51011 60001 333 10187
20083 70002=
71309 16/// /3404 10061 20054 30142 40155 51017 69921 333 10173
20060 70009 555 33325 4023/=
71319 16/// /3105 10071 20045 39292 40137 53026 60001 333 10155
20066 70300 555 33225 40010=
71331 16/// /1003 10104 20038 39802 40163 51001 60001 333 10160
20083 70000=
71344 16/// /3501 10117 20112 60001 333 10253 20100 70000 555
32924 40231=
71406 46/// /1819 10167 20141 30045 40054 58034 6///1 333 10169
20128 7//// 555 31827 4004/=
71407 16/// /2708 10034 20026 30136 40156 53012 60001 333 10060
20011 70000=
71432 46/// /0009 10172 20127 30099 40194 51002 6///1 333 10250
20165 7//// 555 32827 4013/=
71442 16/// /0604 10139 20127 39838 40143 58006 60001 333 10230
20078 70000 555 32618 4018/=
71445 16/// /1008 10120 20089 39894 40165 51003 60001 333 10162
20119 70005 555 30324 4017/=
####018000099####
SIKN04 KWBC 050300 RRD
AAXX 05034
63820 42480 42305 10228 20219 40154 84800 333 59005 84819=
####018000115####
SMAA04 KWBC 050600
AAXX 05064
89532 41/60 80717 11160 21209 39754 49782 51020 70272 8757/ 333
55000 20360=
####018000467####
SMBC04 KWBC 050600
AAXX 05064
68024 31960 00408 10196 20026 38890 48522 51020 702// 333 20151
30/// 50511 70000=
68054 31960 00205 10195 20008 39058 48556 51018 70200 8/000 333
10304 20065 30/// 5///1 70000=
68026 31960 00503 10202 20059 39040 48/// 702// 8/000 333 10339
20125 30/// 50611 70000=
68328 32960 01706 10163 2//// 48/// 52020 87080 333 20108=
68325 41960 10307 10187 21023 38770 48542 51010 702// 81001 333
20144 30/// 5///1 81062=
####018000095####
SINO01 KWBC 050300 RRK
AAXX 05031
01311 47462 83307 10101 20088 39957 40017 55001 761//=
####018000139####
SMBJ04 KWBC 050600
AAXX 05064
65338 12457 72404 10235 20229 39954 40134 60144 84532 333 02259
20233 50114 55010 59001 84610 83360=
####018000454####
SMCY04 KWBC 050600
AAXX 05064
17600 12562 13603 10277 20198 30063 40072 52009 60002 81500 333
10277 20216 30020 50601 55107 70000 81623=
17601 12970 03302 10270 20212 30041 40071 52008 60002 80000 90550
333 20224 30019 55109 55300 70000=
17607 11560 10802 10285 20206 39886 40069 52/// 60004 703// 81100
333 20209 30017 70000 81830=
17609 12960 02304 10289 20217 30070 40073 52009 60002 80000 333
10289 20228 30020 50791 55098 70000=
####018000244####
SMDN04 KWBC 050600
AAXX 05064
06030 06/// /2210 10117 20112 30030 40045 52001 60032 333 10151
20114 3/011 60027 70179=
06193 07579 12721 10162 20117 30077 40088 52015 69902 70080 333
10186 20161 55300 20158 6///7 70000 81/25 91128=
####018002739####
SMCN04 KWBC 050600 RRO
AAXX 05064
71452 16/// /0105 10131 20114 39425 40116 53021 60001 333 10279
20080 70000 555 30126 4002/=
71459 16/// /2905 10138 20099 39348 40129 53015 60001 333 10299
20113 70000 555 32241 4016/=
71470 16/// /1607 10031 21001 39571 40183 52004 60001 333 10121
21014 70000=
71471 15966 00101 10104 20094 39402 40179 52011 60001 333 10185
20101 70007 555 32732 40201=
71474 16/// /3104 10114 20077 38982 40180 51014 60001 333 10240
20073 70000=
71477 16/// /2408 10123 20119 30201 40209 55001 60001 333 10163
20122 70002 555 32819 4011/=
71480 16/// /0302 10034 20022 30034 40153 52013 60001 333 10161
20011 70004 555 32917 4001/=
71483 17/// /2503 10118 20097 69941 7//4/ 333 10239 20114 70004
555 32932 40231=
71487 16/// /2105 10111 20077 39286 40131 51006 60001 333 10274
20102 70000 555 30230 4001/=
71490 46/// /1605 11005 21009 39891 40201 51007 6///1 333 10075
21005 7//// 555 33118 4010/=
71497 16/// /0000 10075 20070 39891 40152 51018 60001 333 10210
20028 70000 555 30318 4000/=
71503 16/// /2602 10063 20060 39887 40153 53013 60001 333 10140
20030 70000=
71622 16/// ///// 10086 20081 39875 40211 53002 60001 333 10226
20085 70000=
71770 16/// /0003 10185 20083 39419 40168 52015 60001 333 10275
20144 70002=
71809 12574 72114 10181 20145 30071 40097 57027 60001 87500 333
70000 555 10000 20000 31922 40061=
71872 16/// /2410 11004 21039 30045 40138 50002 60001 333 10015
21011 70000 555 32633 4001/=
71922 12474 51310 10123 20103 39694 40152 55006 60001 85500 333
10168 20083 70000 555 10000 20000=
71508 16/// ///// 10140 20091 30061 40196 53002 60001 333 10217
20138 70000=
71509 16/// /2104 10125 20067 60001 333 10280 20112 70004 555
32826 40171=
71511 16/// /1709 10145 20123 39507 40126 50011 69931 333 10208
20081 70012 555 31318 4021/=
71518 16/// /2802 10132 20092 60001 333 10274 20119 70000 555
33321 40221=
71519 16/// /1901 10110 20068 60001 333 10286 20110 70004 555
32722 40180=
71525 16/// /2105 10123 20082 60001 333 10281 20115 70004 555
32633 40181=
71527 15966 8//// 10136 20110 39681 40176 52003 60001 333 7////=
71532 15966 01001 10061 20060 39858 40199 52003 60001 333 10195
20060 70002 555 32727 40111=
71535 16/// /2106 10119 20086 60001 333 10289 20119 70000 555
32526 40161=
71537 16/// /2604 10099 20084 60001 333 10277 20081 70000 555
33127 40001=
71539 16/// /1903 10113 20093 39450 40129 53006 60001 333 10267
20091 70000 555 30128 4000/=
71547 16/// /2303 10091 20086 60001 333 10172 20088 7//// 555
32826 40191=
71549 16/// ///// 10128 20106 60021 333 10235 20109 70035=
71541 16/// /2708 10120 20104 60001 333 10208 20109 70081 555
32724 40231=
####018000109####
SMBZ04 KWBC 050600
AAXX 05064
81909 26/// /1009 10225 20167 39505 40162 7//// 8//// 333 58008
60005=
####018000749####
SMBX01 KWBC 050600
AAXX 05061
06434 36/// /3003 10129 20098 30176 40196 53024 333 20120 3/009
91106 91203=
06447 36/// /2502 10116 20116 30062 40185 53020 333 20111 3/008
91105 91203=
06459 36/// /2503 10112 20106 30002 40195 53019 333 20102 3/008
91106 91204=
06484 16/// /2701 10091 20084 39815 40207 53013 69932 333 20069
91102 91201=
06418 16/// /3111 10150 20095 30176 40192 52025 69922 333 20149
91116 91212=
06464 16/// /2502 10122 20114 30155 40182 53020 60042 333 20111
3/007 91106 91203=
06477 36/// /2503 10119 20110 40186 333 20113 3/009 91106 91204=
06414 36/// /3003 10118 20100 30171 40203 52026 333 20115 91107
91204=
06472 36/// /2203 10094 20088 39848 40206 52015 333 20086 3/005
91106 91204=
####018000139####
SMGD04 KWBC 050600
AAXX 05064
78958 11470 21007 10276 20250 30117 40127 69961 70680 82800 333
00200 10314 20266 58002 82818 90924=
####018000133####
SMBE04 KWBC 050600
AAXX 05064
78016 11464 62910 10279 20250 30159 40163 57006 69901 71581 84205
333 10304 20260 70008 90930=
####018000544####
SMIE01 KWBC 050600
AAXX 05061
03961 15/74 /2804 10082 20064 30217 40295 53006 60002 333 20073
3/003=
03971 15970 /2803 10085 20070 30163 40287 51003 69902 80/// 333
20079 3/005 87/69=
03979 15669 /2602 10095 20080 30181 40279 53003 60002 81/// 333
20077 3/004 81/40=
03970 16/// /2603 10088 20075 30215 40300 54000 60002 333 20075
3/003=
03952 15980 /2402 10097 20074 30261 40312 52008 60002 80/// 333
20091 3/005 87/67=
03978 17463 /2809 10131 20095 30236 40278 50001 69902 70351 87///
333 20110 3/009 81/19 87/24=
####018001674####
SMAL04 KWBC 050600 RRA
AAXX 05064
60602 11662 33303 10214 20160 40116 53003 60064 700// 83500 333
01816 20209 83646 95900=
60607 11925 41204 10257 20112 40108 53004 60004 70600 84030 333
02300 20255 84362=
60611 12960 00506 10232 20028 40117 53010 60004 333 02000 20222=
60630 12760 30000 10264 20017 40100 52009 60004 82202 333 0//00
20262 82856=
60656 12660 52806 10261 20142 40110 53001 60004 82280 333 02500
20261 82846 83360=
60670 12660 61103 10257 20092 39048 48528 53010 60004 83530 333
02200 20254 83646 84360 95900=
60395 11665 10000 10189 20166 40167 53010 60004 700// 81200 333
01600 20187 81833 95900=
60514 11960 12204 10161 20091 39266 48541 50001 60004 700// 80002
333 01300 20157 81073 95900=
60515 11960 00403 10200 20145 40141 52008 60004 700// 333 01700
20192 95900=
60518 11565 50000 10223 20196 40128 52006 60004 700// 82502 333
0//00 20222 82620 83073 91807 95900=
60557 11670 50403 10167 20130 38879 48543 54000 60044 700// 82582
333 01356 20165 81640 83073 95900=
60603 11560 31702 10264 20088 40109 57006 60004 700// 83100 333
0//00 20260 83820=
60686 12660 30110 10295 20047 40068 52007 60004 81232 333 02900
20295 81846=
60417 11670 43602 10179 20156 40156 53007 60004 700// 82230 333
01600 20177 82833 95900=
60387 11570 51806 10217 20185 40154 53006 60004 700// 83230 333
01900 20201 83830 91827=
60545 12660 20000 10181 20153 39289 48524 53002 60044 82200 333
01500 20178 82833 95900=
60410 11570 10401 10193 20156 40170 53010 60004 700// 81100 333
01700 20193 81820 91828=
60415 11456 30000 10168 20150 39322 48537 53009 60004 700// 83200
333 01400 20164 81713 95990=
####018000095####
SINO01 KWBC 042100 RRH
AAXX 04211
01311 47966 81101 10098 20091 39964 40025 52002 722//=
####018000187####
SMIY04 KWBC 050600
AAXX 05064
16464 36/// ///// 10220 20204 3//// 4//// 5//// 333 20194 55000
20059 555 20216 3//65 4//// 5//// 61904 1/155 21111 31111 411//
51001 61111 7////=
####018000209####
SICI01 KWBC 050300 RRP
AAXX 05031
54157 31550 51603 10261 20185 40096 57005 72100 85///=
57328 31955 83201 10255 20218 40088 52002 71000 88///=
57411 41762 80202 10238 20222 40093 52007 70060 88///=
####018002903####
SMFI01 KWBC 050600 RRA
AAXX 05061
02984 47683 62009 10160 20141 30075 40087 57013 70000 86/// 90600
333 10161 20130 3////=
02991 46/// /1710 10161 20130 30074 40106 57005 90600 333 10163
20150 3////=
02992 47/70 71810 10162 20130 30108 40112 57005 700// 90600 333
10164 20148 3////=
02705 46/// /1806 10055 20055 39488 40072 54001 90600 333 10088
20049 3//// 555 700// 0/306=
02714 37999 71603 10088 20087 39948 40088 55002 700// 87/// 90600
333 10125 20063 3/001 555 7998/ 83190 0/003=
02717 37/70 40802 10061 20061 700// 90600 333 10073 20024 3/102
555 7009/ 0/402=
02719 36/// /1804 10075 20068 90600 333 10112 20016 3/102 555
60070 7951/ 0/305=
02739 37383 71901 10118 20099 39901 40095 54000 700// 87/// 90600
333 10137 20110 3/010 555 7892/ 0/202=
02766 16/// /1902 10120 20118 39828 40109 52003 69972 90600 333
10125 20102 3//// 555 799/7 0/303=
02800 46/// ///// 10111 20086 30025 40053 58014 90600 333 10140
20107 3//// 555 785//=
02803 36/// /1503 10087 20084 30011 40071 57005 90600 333 10128
20064 3/003 555 7981/ 0/003=
02813 36/// /1602 10092 20091 39939 40069 54001 90600 333 10100
20056 3/002 555 7992/ 0/503=
02815 46/// /2001 10072 20072 90600 333 10106 20071 3/006 555
7005/ 0/302=
02817 46/// /1807 10057 20057 39536 40062 52003 90600 333 10095
20044 3//// 555 60057 700// 0/007=
02818 46/// ///// 10087 20067 39754 40060 52004 90600 333 10113
20050 3//// 555 60076 787//=
02820 46/// /2105 10058 20017 39160 40055 54001 90600 333 10079
20047 3//// 555 775// 0/307=
02821 47/99 /2005 10073 20017 39385 40044 54000 70000 90600 333
10093 20055 3//// 555 768// 0/205=
02827 46/// /2003 10070 20067 90600 333 1//// 2//// 3//// 555
798//=
02847 47159 8//// 10083 20082 39967 40067 54002 71032 88/// 90600
333 10105 20060 3//// 555 799// 80060=
02868 46/// /2404 10088 20088 90600 333 10118 20088 3//// 555
700// 0/406=
02825 36/// /0000 10051 20051 30016 40046 52005 90600 333 10108
20005 3/101 555 7001/ 0/501=
02755 37983 71203 10087 20085 39977 40071 57015 70032 87/// 90600
333 10124 20041 3////=
02796 36/// /1703 10138 20126 90600 333 10145 20115 3/006 555
7924/ 0/103=
02807 47399 22404 10068 20056 39881 40061 700// 82/// 90600 333
10106 20032 3////=
02844 37014 81602 10079 20079 39949 40053 57002 72032 88/// 90600
333 10102 20050 3/004=
02897 47599 81702 10108 20096 39929 40091 700// 88/// 90600 333
10145 20093 3////=
02907 46/// /1510 10115 20096 30049 40055 57016 90600 333 10145
20113 3////=
02910 46/// /1507 10119 20106 30017 40024 57031 90600 333 10145
20118 3////=
02915 37999 71203 10115 20099 39926 40083 57010 70000 87/// 90600
333 10129 20092 3/007=
02945 47/99 /1504 10116 20103 39908 40082 700// 333 10123 20073
3//// 555 792// 0/104=
02966 47999 01704 10141 20124 39989 40111 700// 90600 333 10147
20091 3//// 555 60131 790// 0/004=
####018000121####
SMZM04 KWBC 050600
AAXX 05064
91762 11598 70000 10267 20236 40107 53022 60001 71522 83806 333
569/9 82822 87279=
####018000184####
SMMK01 KWBC 050600
AAXX 05061
13462 32970 03602 10232 20136 30084 40123 52005 333 20206 30018
55///=
13457 32970 00000 10206 20193 30107 40113 52001 333 20158 30015
55///=
####018002450####
SMIN04 KWBC 050600
AAXX 05064
42299 31396 70000 10210 20198 38163 48458 70164 85339 333 59006
82709 84616 81925=
42809 31495 61105 10318 20268 49998 70522 85430 333 56290 59002
84618 83825 85360=
43086 32597 62702 10298 20207 39847 40021 83531 333 58004=
43279 32597 62703 10344 20218 30039 40056 84530 333 59004 84620
83360=
43284 21496 62312 10278 20252 39969 40083 70165 83831 333 56599
59006 6003/ 83612 84358=
43348 32597 52004 10316 20263 30064 40071 82431 333 59004=
42314 21496 70203 10270 20247 40050 70565 84330 333 57960 58002
6001/ 82710 84620 81925 87360=
42492 31496 60908 10336 20258 40004 70522 84430 333 59004 83618
83825 85360=
42498 31495 51402 10352 20270 40016 70522 84430 333 59010 83618
83825 85360=
42500 31596 60902 10330 20260 40019 70562 85430 333 59005 84620=
42559 32596 60904 10304 20235 49990 83530 333 59003 83620 86360=
42671 32597 70000 10282 20254 39395 49992 85830 333 59004 83620
84825 85360=
43014 32596 72504 10274 20222 39383 40012 86810 333 59011 83620
83825 85458=
43196 21496 82306 10274 20266 40070 72162 8577/ 333 59002 6005/=
43233 32497 72710 10252 20226 39268 40064 84620 333 56690 58001=
43237 32497 72715 10304 20218 39661 40043 85730 333 56690 59004
83710 83615 85360=
42901 31596 61103 10338 20281 49984 70262 83430 333 59005=
43111 21/90 92512 10186 20186 38572 48452 76164 333 59008 6019/=
43192 21495 72903 10274 20260 40064 72122 83772 333 59005 6995/=
43221 32597 52303 10320 20249 30023 40036 85800 333 59002=
43360 32597 62910 10360 20213 39919 40062 70352 82832 333 59006=
43363 32597 52306 10328 20249 30065 40077 81432 333 59005=
42571 32496 80501 10296 20265 49995 8563/ 333 59003 83715 85625
87360=
43003 21495 82305 10280 20260 40029 76065 8672/ 333 59015 6004/
82710 85618 87458=
43295 21497 72303 10238 20193 39070 48483 75052 86830 333 56500
58000 6990/ 83710 85612 85358=
43311 21596 72706 10300 20272 40089 70262 85930 333 56690 57962
58000 6001/ 84618 81925 87358=
43314 21496 60000 10280 20260 40101 70262 82432 333 58004 6998/=
43315 21496 80502 10256 20250 40095 70265 84721 333 56699 58006
6016/=
43352 32597 62305 10308 20269 40099 83831 333 59002=
43360 31597 62910 10360 20213 39919 40062 70352 82832 333 59006=
43369 32497 62303 10320 20273 40103 84401 333 59002 83620 83070=
43371 21497 62908 10292 20246 30030 40102 70265 84331 333 57942
59002 6004/ 83618 81925 85356=
####018002205####
SMNO01 KWBC 050600
AAXX 05061
01115 16/// /0309 10109 20070 39973 49993 56017 60002 333 20093
70006 91111=
01397 16/// /1302 10097 20094 39536 49958 55001 60312 333 20082
70389 91105=
01447 16/// /3401 10034 20034 39350 40014 55001 60012 333 20028
70112 91103=
01045 16/// /3201 10097 20049 60002 333 20070 70000 91106=
01169 16/// ///// 10056 20052 39973 40018 56011 60002 333 20027
70000=
01370 16/// /3103 10033 20023 38913 49981 53004 60112 333 20025
70183 91108=
01412 16/// /3311 10098 20082 30010 40040 53015 60052 333 20082
70292 91115=
01026 11587 72002 10100 20050 39895 40032 55002 60002 71482 87500
333 20088 31/// 70049 91107=
01218 16/// /0101 10089 20074 39993 40014 52015 60112 333 20088
70109 91106=
01237 16/// /2908 10089 20075 39959 49974 53006 60192 333 20089
70188 91116=
01332 16/// /3201 10083 2//// 60062 333 20080 70124 91102=
01406 46/// /3213 10111 20106 30005 40025 53011 333 20109 91118=
01419 16/// /2001 10073 20039 60102 333 20065 70305 91106=
01422 16/// /2002 10095 20089 60092 333 20090 70344 91108=
01441 16/// /2101 10044 20024 39042 40009 54000 60022 333 20043
70164 91106=
01234 16/// /1904 10098 20092 60092 333 20094 70094 91106=
01291 16/// /2201 10084 20083 60092 333 20082 70089 91103=
01373 11415 70501 10074 20063 39786 49986 50005 60032 71162 856//
333 20071 31/// 70135 91103=
01488 16/// /1302 10092 20090 60092 333 20077 70346 91104=
01495 16/// /2511 10142 2//// 39983 49995 52006 60022 333 20137
70208 91113=
01027 16/// ///// 10104 20060 60002 333 20092 70053=
01270 16/// ///// 10098 20092 60062 333 20093 70063=
01272 16/// ///// 10103 20096 60072 333 20093 70066=
01300 41497 63413 10099 20062 40061 52011 78082 8696/ 22200 02098
10706 70030 333 91116=
01308 16/// ///// 10103 20068 60032 333 20096 70207=
01381 16/// ///// 10099 20079 60072 333 20081 70221=
01382 16/// ///// 10108 20083 60052 333 20084 70180=
01387 16/// ///// 10076 20058 60042 333 20075 70104=
01413 16/// /3505 10092 20080 60132 333 20088 70370 91109=
01459 11980 42703 10089 20078 69942 70220 84030 333 20071 32///
70149=
01464 16/// /2202 10098 20083 60002 333 20084 70162 91105=
####018000238####
SMHK01 KWBC 050600
AAXX 05061
45039 36/// /1003 10290 20243 30009 40023 54000=
45032 36/// /0803 10301 20298 30003 40018 57002=
45035 36/// /0804 10310 20259 39975 40015 57001=
45044 36/// /0807 10293 20261 39930 40018 57003=
####018000767####
SMLT01 KWBC 050600
AAXX 05061
26509 32970 61503 10170 20124 30099 40108 57007 86070 333 20140
30/// 91007 91107 555 53009 7000/=
26518 32970 31705 10143 20111 39928 40125 57006 81031 333 20094
31/// 91007 91108 555 53008 7001/=
26524 32970 21903 10155 20118 30007 40134 57006 80001 333 20120
30/// 91007 91107 555 53007 7990/=
26531 31969 31602 10153 20136 30069 40143 57007 70240 80004 333
20093 31/// 91006 91106 555 53006 7993/=
26629 31969 21704 10148 20120 30056 40148 57005 70240 81031 333
20102 30/// 91005 91105 555 53005 7990/=
26633 32970 11602 10150 20129 30030 40156 56004 80001 333 20092
31/// 91004 91104 555 53004 7000/=
26730 32970 01603 10134 20115 39979 40166 54000 333 20101 31///
91004 91105 555 31009 53005 7000/=
####018000137####
SMIC04 KWBC 050600
AAXX 05064
67005 14570 61806 10277 20220 40176 69924 700// 333 018// 20209
55060 58006 90710 91111 555 60005=
####018000256####
SMCM03 KWBC 050600
AAXX 05063
64860 12460 73006 10239 20226 39856 40123 60054 81502 333 02169
20230 50621 55064 58009 81610 87080=
64870 11209 70000 10173 20168 38927 48521 60054 74242 84742 333
0//29 20169 50351 55/// 59005 84703 84360 87080=
####018000107####
SMAA01 KWBC 050600
AAXX 05061
89014 46/// ///// 1//// 2//// 90600 333 1//// 2//// 3//// 555
7////=
####018002822####
SMPL01 KWBC 050600 RRA
AAXX 05061
12455 12977 01802 10151 20101 39900 40136 56001 60002 333 10179
20121 30011 55114 91204 93000=
12488 11982 11703 10154 20108 30006 40157 58004 60002 70240 80001
333 10154 20083 31006 55086 91203 93000=
12500 12982 12001 10117 20101 39739 40149 53012 60002 81030 333
10158 20079 30007 55119 91202 93000=
12510 12284 22303 10098 20042 38375 48491 53002 60002 82500 333
10104 20078 30/// 55115 93000=
12560 12970 01501 10147 20117 39820 40152 58002 60002 333 10157
20098 30007 55088 91201 93000=
12585 15/73 /1102 10139 20111 39904 40165 57003 60002 333 10171
20100 3/009 55089 91202 91302 93000=
12595 11970 11001 10134 20113 39909 40175 58002 60002 702// 80001
333 10142 20077 31005 91202 93000=
12650 12984 03101 10062 20013 38015 48507 55001 60002 333 10062
20043 31/// 55062 91205 93000=
12695 17/// /9901 10114 20098 39840 40175 57002 60002 700// 333
10206 20086 3/008 55109 70000=
12125 15/76 /2502 10169 20118 30056 40103 52009 60002 333 10185
20146 3/010 55063 91205 91302 93000=
12230 11980 62602 10154 20106 30030 40118 52011 60002 700// 86050
333 10200 20123 30010 50353 55102 91202 93000=
12285 15/70 /9903 10146 20104 30037 40150 57002 60002 333 10169
20100 3/007 55000 70000=
12310 11670 72803 10162 20122 30070 40134 53012 69902 78011 879//
333 10232 20132 30011 55099 79999 91203 93097=
12345 15/81 /1703 10155 20107 39989 40129 54000 60002 333 10181
20127 3/012 55091 91204 91303 93000=
12415 11784 22804 10172 20102 39985 40133 52013 60002 702// 81530
333 10206 20109 30008 55118 91204 93000=
12418 11980 42101 10146 20106 30015 40126 53006 60002 700// 84050
333 10208 20127 31010 55126 91203 93000=
12469 12975 11403 10132 20101 39922 40148 57004 60002 80001 333
10179 20105 30009 50373 55116 91203 96122 93000=
12497 12970 11802 10130 20111 39959 40175 58001 60002 80001 333
10148 20081 31006 50253 55085 91202 96122 93000=
12520 12984 13501 10125 20099 39725 40150 52004 60002 81031 333
10171 20101 31007 50373 55119 91203 96122 93000=
12540 12965 01603 10135 20112 39905 40152 54000 60002 333 10191
20111 31010 55114 91203 96122 93000=
12550 15/64 /1702 10139 20097 39797 40148 57004 60002 333 10181
20110 3/009 55102 91202 91302 93000=
12600 12980 00703 10154 20095 39684 40153 54000 60002 333 10155
20115 30010 55114 91204 96122 93000=
12625 12981 01401 10109 20088 39188 42798 58002 60002 333 10114
20062 31005 50163 55097 20000 91201 96122 93000=
12660 15/71 /2301 10103 20095 39819 40174 58001 60002 333 10161
20080 3/007 55126 91201 91300 93000=
12670 12977 01004 10112 20095 39774 40171 58002 60002 333 10156
20090 31009 55093 91204 96122 93000=
12690 11981 00901 10103 20097 39673 40178 56002 60002 74000 333
10134 20069 31006 55063 91202 96122 93000=
####018000177####
SMRO01 KWBC 050000
AAXX 05001
15088 01198 42203 10048 20046 37997 48522 57006 60001 70244 83570
333 55300 0//// 20000 3//// 55003 0//// 20538 3//// 60007 91004
91106=
####018000301####
SMRH01 KWBC 050600
AAXX 05061
14240 12982 03501 10148 20120 30006 40158 53005 60002 333 20107
31007 70000=
14445 12975 00603 10220 20138 39967 40115 51004 60002 222// 00240
333 20211 30018 70000 92311=
14258 11970 02601 10115 20109 39979 40164 57/// 60002 700// 333
20095 31008 70000=
####018000085####
SMRS01 KWBC 050000
AAXX 05001
22100 42/// /0000 10016 20016 39906 40046 54001=
####018000543####
SMKY01 KWBC 050600
AAXX 05061
36911 42699 52001 10250 20090 39175 40062 57018 85900 333 20100=
36974 42798 41402 10182 20029 37960 48477 58020 82202 333 20105
91003=
36982 42998 62706 10072 21064 36560 47095 58009 86080 333 21009=
38345 42799 52801 10213 20058 38756 48477 57012 82932 333 20069
91001=
38353 42998 33102 10256 20078 39248 40072 57010 83030 333 2////
91005=
38613 42999 21802 10272 20103 39209 40061 57007 80002 333 20172
91004=
38616 12598 23603 10244 20101 39138 40076 56003 69900 82500 333
20160=
####018002524####
SMNZ04 KWBC 050600
AAXX 05064
93023 16/// /2511 10122 20108 39786 49886 52009 69981=
93201 16/// /2014 10137 20130 39852 49880 52009 60071=
93404 17497 /1308 10122 20107 39827 49882 54000 60011=
93420 17698 /1806 10122 20092 39881 49888 54000 60021=
93515 16497 /2313 10121 20089 39904 49909 52003 69921=
93562 16/// /1513 10098 20090 39675 49895 52004 69921=
93597 16/// /1926 10099 20090 39894 49900 57003 60051=
93709 16/// /2411 10119 20095 39903 49904 52002 60001=
93721 16/// /1207 10130 20033 39914 49918 52004 60001=
93004 16/// /2352 10118 20087 39675 49925 52019 60031=
93069 16/// /3508 10150 20128 39770 49851 57013 60001=
93110 17798 /0802 10152 20136 39858 49866 52005 60001=
93186 17/97 /0904 10154 20139 39876 49880 57001 60001=
93196 16/// /3103 10140 20133 39836 49888 57002 60121=
93245 17598 /0503 10132 20110 39410 49878 52001 60001=
93292 17696 /2102 10160 20139 39872 49877 57001 60001=
93309 17496 /2609 10144 20123 39849 49884 52002 69921=
93339 16/// /1102 10105 20098 38961 57001 60011=
93373 17997 /0703 10141 20123 39872 49875 57001 60001=
93393 16/// /3603 10131 20130 39722 49880 57004 60001=
93439 17497 /1713 10107 20099 39893 49908 57001 60081=
93441 16/// /2209 10118 20114 39483 49885 52006 69921=
93479 16/// /1809 10102 20098 39900 49907 54000 60021=
93498 16/// /2120 10105 20105 39751 49891 54000 69961=
93527 16/// /0509 10121 20120 39882 49888 57007 60071=
93546 17396 /0103 10122 20116 39885 49891 57001 60021=
93615 17497 /2308 10117 20096 39851 49906 57001 60001=
93678 16598 /2215 10095 20079 39786 49913 57001 69941=
93738 16/// /2108 10067 20044 39178 57001 60001=
93747 16/// /1705 10089 20015 39366 49932 57001 60001=
93773 17497 /1408 10097 20083 39901 49934 52005 60001=
93781 17498 /2310 10093 20080 39878 49923 57001 69921=
93792 16/// /2131 10079 20060 39623 49903 57005 60001=
93796 17497 /1816 10092 20076 39896 49932 52004 69921=
93800 16/// /2307 10114 20087 39904 49924 57006 6///1=
93831 17798 /1712 10096 20038 39513 49932 57003 60001=
93845 17598 /1604 10095 20071 39951 49952 52004 6///1=
93887 16/// /2021 10077 20061 39786 49943 52002 60001=
93891 17/98 /2109 10085 20053 39936 49939 52003 60001=
93909 16/// /1811 10088 20074 39831 49954 52003 6///1=
93929 16/// /1914 10065 20054 39919 49967 52013 60021=
93947 16/// /1906 10058 20049 49954 52006 60011=
93985 17395 /0324 10124 20120 39977 49993 57026 60051=
93994 16/// /2707 10174 20158 39910 49966 52005 69981=
####018002668####
SMBY01 KWBC 050600
AAXX 05061
26666 32972 01701 10157 20105 39972 40180 52001 333 20068 555
31009 52006 90010=
33008 32980 10000 10149 20109 30001 40174 57001 80001 333 20095
555 31010 52006 90010=
33019 32960 10000 10140 20113 30011 40181 54000 80001 333 20081
555 30009 52005 90010=
26554 31960 21702 10138 20133 30008 40166 58001 70240 80001 333
20090 555 31009 52007 90011=
26850 32965 31801 10165 20127 39905 40176 54000 80001 333 20074
555 31011 52007 90010=
26941 32960 01601 10134 20106 39947 40177 54000 333 20097 555
31010 52008 90010=
26951 32660 10000 10146 20112 39990 40183 54000 81500 333 20073
555 31009 52006 90010=
33036 32967 00000 10177 20092 39960 40182 54000 333 20096 555
30007 52004 90011=
33041 32971 03502 10133 20101 30026 40178 57001 333 20086 555
31009 52008 90011=
26887 32881 23504 10137 20113 39973 40172 53003 82030 333 20095
555 30011 52007 90011=
26659 32965 01801 10140 20112 39974 40181 333 20084 555 31010
52008=
26763 31956 00000 10127 20107 39961 40182 52001 71040 333 20046
555 31004 52002 90010=
26825 31959 21603 10135 20112 39983 40161 56002 71000 80001 333
20097 555 30007 52006=
26832 32980 10000 10138 20111 39985 40172 53001 80001 333 20092
555 31010 52007 90010=
26961 32960 00000 10128 20117 39997 40185 52002 333 20045 555
31008 52003 90011=
33027 31997 20000 10130 20102 30022 40185 54000 72840 82030 333
20050 555 31006 52003 90011=
26645 32965 11801 10140 20107 39917 40168 54000 80001 333 20100
555 32009 52007 90010=
26657 32970 21902 10144 20120 39941 40170 54000 80001 333 20100
555 31009 52009=
26774 32968 02101 10132 20114 39946 40186 52002 333 20054 555
31007 52003 90012=
33124 32984 03402 10141 20099 30038 40177 57002 333 20040 555
30002 52002 90058=
26653 32960 21701 10133 20114 30018 40177 53002 82031 333 20092
555 32008 52007 90010=
26853 31981 11701 10137 20113 30001 40185 53001 70240 80009 333
20061 555 31008 52006 90010=
33038 32997 00101 10127 20093 30017 40188 54000 333 20033 555
30007 52002 90011=
26643 32570 41701 10138 20118 30010 40166 53001 82231 333 20110
555 31012 52009 90010=
26668 32978 01401 10147 20117 39972 40180 54000 333 20081 555
31010 52007 90010=
26855 32970 00000 10132 20119 39973 40184 54000 333 20068 555
31007 52005=
26864 31996 00000 10137 20132 39999 40184 53001 71000 333 20046
555 31008 52003=
26878 32970 00101 10131 20108 39979 40182 52002 333 20073 555
31007 52005 90018=
26966 32979 00000 10133 20098 30015 40185 53002 333 20075 555
31008 52005 90012=
26759 32997 00000 10134 20108 39955 40180 54000 333 20078 555
31008 52006 90010=
####018002639####
SMBM04 KWBC 050600
AAXX 05064
48001 32130 83601 10280 20233 40041 8577/ 333 56129 59035=
48004 32562 51301 10327 20275 70122 84940 333 56550=
48008 32458 72301 10316 20265 40046 84870 333 56560 59044=
48010 32560 51801 10335 20270 40034 83830 333 56440 59015=
48031 31/05 91401 10220 20220 74744 89/// 333 56999=
48035 32558 60000 10278 20220 40035 84960 333 56560 58006=
48045 31/05 90402 10225 20214 74344 89/// 333 56999=
48060 32457 63202 10306 20237 40025 84906 333 56309 59019=
48072 21459 72704 10270 20270 75065 85970 333 56590=
48078 21556 61801 10290 20254 40071 70155 84531 333 56499 58005=
48080 32560 62201 10300 20253 40063 84870 333 56590 58010=
48087 21450 70000 10278 20268 72052 8597/ 333 5659/=
48095 32457 82702 10290 20266 86870 333 56990=
48097 32457 62402 10285 20264 40070 84350 333 56990 59005=
48109 32497 72305 10285 20259 40078 85970 333 56990 58002=
48064 32460 41401 10320 20281 40053 82831 333 56499 58016=
48074 32457 71402 10292 20259 40063 85970 333 56490 59002=
48018 21557 82301 10280 20259 40049 70396 8487/ 333 56559 58003=
48019 21459 72701 10292 20248 40044 70196 85760 333 56560 58006=
48020 32460 61301 10310 20254 84930 333 56590=
48025 32458 60901 10316 20281 40052 84370 333 56590 58002=
48030 21256 70402 10208 20195 70155 87900 333 56100=
48033 32563 51801 10310 20254 40034 70121 85900 333 56900 58006=
48037 32558 51401 10314 20254 40044 70222 83370 333 56440 58001=
48042 32558 62201 10332 20258 40051 85902 333 56409 59003=
48048 32559 52201 10321 20265 40052 84950 333 56490 58005=
48051 32558 71305 10318 20281 85970 333 56490=
48053 32458 71803 10310 20254 40056 84956 333 56499 59001=
48057 21458 62702 10232 20198 70155 84301 333 56309=
48062 21456 81804 10270 20256 40044 75165 86970 333 56490 58003=
48071 21358 71807 10277 20268 40061 76266 85970 333 56490 58008=
48075 32458 62201 10280 20233 40047 85860 333 56590 59007=
48077 32559 50000 10310 20254 40043 84901 333 56909 58006=
48085 21358 81801 10280 20250 40060 75065 86920 333 56590 58007=
48093 21557 73601 10281 20259 72052 86320 333 56590=
48094 32458 72202 10295 20265 40068 84970 333 56590 58002=
48099 21440 82302 10251 20251 40088 75065 8687/ 333 5699/ 58010=
48101 32558 82703 10277 20250 8597/ 333 5659/=
48103 21340 81402 10260 20260 40087 75065 8672/ 333 5639/ 58018=
48107 21330 82701 10253 20253 40097 70265 8537/ 333 5655/ 58002=
48108 21494 82305 10255 20248 40098 75165 8632/ 333 5659/ 58011=
48110 21496 82303 10290 20259 40095 70252 84377 333 56999 59001=
48112 32597 83203 10250 20233 40093 83876 333 56799 59008=
####018000103####
SNAU04 KWBC 050500
AAXX 05054
94834 11/62 50512 10168 20101 39747 40098 57014 60001 70122 85050=
####018002296####
SMNL01 KWBC 050600 RRA
AAXX 05061
06249 17/68 /3106 10135 20108 60012 78180 333 20111 3/009 70054
91009 91114 91209 555 51113 51208 53016=
06257 16/// ///// 10146 20094 69992 333 20132 3/013 70064 555
53009=
06258 46/// /3012 48/// 333 546// 90760 91015 91119=
06277 16/// /3115 10154 20104 60032 333 20126 3/012 70083 91018
91120 91215 555 51120 51215 53005=
06260 07573 32802 10136 20106 30154 40159 53024 69932 72385 83///
333 20111 3/008 546// 55/// 20568 553// 20152 69915 70090 81/24
83/46 90760 91004 91108=
06278 16/// /2403 10126 20113 69902 333 20121 3/011 70051 91005
91112 91206 555 51107 51204 53009=
06251 17/71 /3007 10144 20109 30123 40124 51037 60042 72385 333
20131 3/012 70166 91010 91117 91212 555 51115 51210 53008=
06267 17576 53013 10145 20115 60022 70380 8//// 333 20137 3/013
70063 82/23 83/33 85/59 91016 91118 91215 555 51117 51214 53012=
06279 17681 12604 10128 20112 30111 40130 53019 69962 72385 8////
333 20107 3/010 70045 81/48 91007 91110 91206 555 51109 51205
53018=
06310 17575 43309 10148 20096 30177 40187 53025 60022 72385 8////
333 20135 3/013 70052 81/24 84/50 91013 91113 91209 555 51113
51209 53007=
06319 17/69 /2803 10130 20113 30187 40189 53025 60022 75186 333
20123 3/012 70070 91005 91110 91206 555 51109 51206 53007=
06323 16/// /3206 10142 20104 30180 40182 52025 69942 333 20124
3/011 70060 91008 91112 91208 555 51112 51208 53007=
06330 16/// /3215 10149 20107 30154 40168 53025 69902 333 20141
3/014 70078 91018 91118 91215 555 51118 51215 53007=
06343 46/// /3308 333 91012 91115 91211 555 51112 51208=
06356 16/// /2704 10131 20110 30164 40165 53023 69902 333 20106
3/009 70096 91006 91107 91205 555 51107 51205 53012=
06391 16/// /2402 10121 20115 60032 333 20115 3/011 70070 91005
91106 91202 555 51105 51202 53013=
06286 16/// /2507 10131 20119 69912 333 20108 3/010 70012 91009
91114 91210 555 51114 51210 53015=
06348 17/71 /3105 10140 20106 30165 40164 53024 69932 72385 333
20111 3/009 70070 91008 91111 91207 555 51111 51206 53011=
06377 17765 32304 10120 20113 69952 70100 8//// 333 20113 3/011
70023 83/56 91006 91107 91204 555 51106 51204 53008=
06283 16/// /2404 10129 20116 69912 333 20114 3/009 70015 91007
91109 91205 555 51108 51205 53014=
####018000119####
SMMZ04 KWBC 050600
AAXX 05064
67323 32580 10000 10216 20191 40202 52022 81100 333 20190 50380
55105 555 10000=
####018002958####
SMUK04 KWBC 050600 RRA
AAXX 05064
03153 15971 /2807 10083 20060 30094 40233 51008 60002 333 20076
3/005 55039 55300 20012 70018 8//99=
03155 16983 /2609 10070 20050 39927 40228 52007 60002 333 20064
3/005 70030 86/61 87/68=
03224 15980 /2809 10037 20029 39878 40231 52014 60002 333 20033
3/002 70116 84/67=
03226 15972 /3402 10029 20025 39957 40240 51016 69942 333 20021
3/000 70032 8//99=
03265 15983 /2909 10083 20044 30196 40227 51020 69922 333 20082
3/006 70004 82/68=
03316 15682 /3619 10121 20065 30233 40244 51016 69902 333 20118
3/010 70002 82/45 90710 91128=
03344 15981 /2703 10057 20042 39913 40237 51015 60032 333 20056
3/003 70076 83/67=
03385 46688 /2914 10093 20044 30203 40213 53024 333 20091 82/47=
03405 16480 /3218 10111 20078 30161 40278 52014 60002 333 20106
3/010 55074 55300 20003 70000 81/19 86/50 90710 91129=
03488 15566 /3224 10119 20079 30179 40204 53025 69962 333 20114
55046 55300 2//// 70022 83/23 83/50 90710 91132=
03522 15967 /2103 10087 20048 30167 40261 52022 69902 333 20087
3/004 70002 8//99=
03529 15769 /3203 10085 20066 30209 40252 52026 69902 333 20085
3/006 79999 83/50=
03605 16679 /3413 10112 20075 30263 40272 52016 60002 333 20112
70000 83/49=
03660 17659 /3404 10099 20084 39991 40240 53024 69902 781// 333
20098 3/007 79999 85/30 85/48=
03693 15684 /3209 10112 20076 30219 40222 52027 69902 333 20104
3/009 55059 55301 2//// 70018 87/48=
03707 17676 /3507 10124 20082 30266 40274 53018 69922 723// 333
20124 3/010 70002 81/31 85/45=
03768 16681 /3007 10115 20086 30159 40238 53025 60002 333 20110
3/010 70004 87/43=
03769 15477 /3003 10118 20084 30150 40231 53025 60002 333 20116
3/010 55067 55300 20015 70028 87/17=
03797 15584 /3313 10126 20076 30156 40216 52025 60002 333 20124
3/011 55056 55301 20052 70022 83/23=
03857 16/// /3318 10126 20087 30189 40253 52024 60002 333 20125
3/012 70002 90710 91126=
03872 15784 /3306 10111 20080 30232 40237 53021 60002 333 20111
3/009 55/// 553// 20017 70020 81/56=
03901 15970 /2404 10094 20078 30183 40272 55000 69902 333 20090
3/006 55023 55300 20000 70024 81/74=
03915 15968 /2302 10082 20076 30181 40260 53009 69902 333 20071
3/003 70022 84/58=
03916 17563 /3110 10105 20076 30063 40253 53006 69982 781// 333
20092 3/008 55/// 553// 20000 70048 81/24 87/41=
03923 15975 /3005 10086 20071 30068 40266 52003 60002 333 20078
3/007 70006 82/72=
03158 15984 /2305 10064 20038 30074 40213 51015 60022 333 20064
3/005 55032 55300 20017 70072 88/64=
03230 16984 /2803 10048 20033 39962 40224 52013 69942 333 20040
3/002 70098 81/63 84/67=
03382 15983 /3009 10086 20049 30206 40214 52021 69942 333 20086
3/006 55045 55300 20021 70010 8//99=
03503 17565 /3306 10112 20077 30188 40266 53013 60012 781// 333
20108 3/009 70012 82/24 86/48=
03907 17459 /2310 10108 20095 30251 40258 53001 69962 782// 333
20099 3/007 55006 55300 20000 70040 81/19 85/23=
####018000091####
SNNO01 KWBC 050200
AAXX 05021
01311 47050 82702 10096 20086 39958 40019 55002 762//=
####018000091####
SNNO01 KWBC 050500
AAXX 05051
01311 47550 83506 10092 20083 39966 40027 53009 762//=
####018001393####
SMPF04 KWBC 050600
AAXX 05064
91925 06/// /3503 10251 20204 30055 40116 51017 60001 333 55039
60007 90710 91107 555 60005 10108 59014=
91944 04959 /0903 10248 20219 30136 40149 51017 69902 700// 333
10278 20237 4//// 55038 60007 70401 90710 91105 555 60005=
91958 06/// /2805 10167 20091 30195 40197 51007 60001 333 55048
60007 90710 91118 555 60005 12922 59027=
91938 02570 53001 10262 20203 30143 40145 53022 60001 85800 333
55080 56400 60007 81820 85650 90710 91108 555 60005 13210 59003=
91948 06/// /0105 10212 20202 30040 40143 50008 60001 333 55026
60007 90710 91110 555 60005 10210 59044=
91958 06/// /2805 10167 20091 30195 40197 51007 60001 333 55048
60007 90710 91118 555 60005 12922 59027=
91929 04682 81415 10254 20225 30141 40144 53019 60022 700// 333
10284 20246 4//// 55/// 69907 70026 90710 91124 555 69905=
91944 04959 /0903 10248 20219 30136 40149 51017 69902 700// 333
10278 20237 4//// 55038 60007 70401 90710 91105 555 60005=
91954 04670 /1312 10201 20131 30204 40208 53016 60002 700// 333
10235 20200 4//// 55080 60007 70000 90710 91122 555 60005 11322
58001=
91929 04682 81415 10254 20225 30141 40144 53019 60022 700// 333
10284 20246 4//// 55/// 69907 70026 90710 91124 555 69905=
91954 04670 /1312 10201 20131 30204 40208 53016 60002 700// 333
10235 20200 4//// 55080 60007 70000 90710 91122 555 60005 11322
58001=
####018002110####
SMTH04 KWBC 050600 RRB
AAXX 05064
48550 01560 62903 10303 20247 30082 40089 57026 60011 70162 81146
333 58004 69927 70015=
48552 32460 72104 10340 20230 30073 40079 57027 83836 333 58003
70003=
48555 11557 72306 10322 20240 30059 40100 57029 69911 70562 82146
333 59019 70161=
48556 32562 72206 10312 20240 30075 40090 57017 84806 333 58002=
48557 32562 60000 10325 20252 30059 40094 57021 82106 333 58005=
48560 32560 72805 10335 20209 30071 40084 57028 82256 333 58004=
48581 31558 60000 10347 20234 30044 40084 57030 70522 82236 333
58000=
48310 32562 70000 10310 20222 39603 40045 57018 84546 333 58006
70010=
48315 32560 51803 10330 20256 39784 40045 57026 84555 333 58002
70015=
48372 32560 82605 10335 20258 30003 40059 57013 83836 333 58017=
48405 11560 82604 10291 20248 39890 40050 57015 69941 70262 84576
333 58021 70265=
48426 32560 70000 10329 20245 30049 40067 57018 82146 333 58011=
48433 11559 82802 10295 20242 39899 40062 57015 69901 71062 84576
333 58011 70001=
48461 32560 82406 10295 20234 30006 40074 57018 84576 333 58009
70019=
48465 32561 72210 10311 20238 30066 40070 57019 83846 333 58006
70013=
48501 31558 63103 10310 20268 30075 40079 57020 71022 82845 333
58015 70277=
48520 11557 82801 10266 20234 30077 40093 57008 60031 71062 8352/
333 59006 70502=
48554 32462 60000 10343 20250 30078 40082 57027 82246 333 58004
70010=
48568 31458 80602 10330 20253 30078 40085 57028 71022 8222/ 333
58006=
48302 01557 62803 10220 20212 38436 40026 57019 60031 76041 82806
333 58001 60035 70033=
48416 11958 50000 10288 20225 39918 40064 57016 60021 71062 83065
333 58018 70089=
48464 32564 81804 10307 20243 30069 40081 57011 84476 333 58004
79999=
48360 11560 80802 10275 20252 39790 40046 57020 60021 70262 83476
333 58034 70388=
48381 01458 80000 10275 20252 39837 40053 57021 69931 76166 8557/
333 58023 69927 70137=
48409 11558 82806 10295 20251 39911 40056 57015 69901 71062 83846
333 58007 70160=
48462 01557 80000 10300 20258 30012 40068 57021 69931 76062 885//
333 58011 69935 70005=
####018000709####
SMXT04 KWBC 050600
AAXX 05064
91258 32474 71210 10300 20261 30074 40077 87200 333 563// 70000
87815 555 90506 91367 32474 22404 10300 20263 82100 333 565//
70000 82815 555 90506 91369 11474 60804 10268 20239 30099 40102
61631 70282 84338 333 56229 70065 84815 83360 88480 555 90506=
91350 11474 82706 10278 20259 30080 40081 5//// 60041 70282 882//
333 56699 70043 88817 555 90506=
91353 11474 81806 10300 20256 30085 40086 5//// 60131 70282 83208
333 564/9 70127 83818 86280 555 90506=
91425 11474 82106 10278 20261 30092 40093 5//// 60101 70282 882//
333 56599 70104 88817 555 90506=
91434 11474 82206 10283 20253 30075 40076 5//// 60071 70282 882//
333 56499 70069 88817 90506=
####018000254####
SNRO01 KWBC 042300
AAXX 04231
15088 22198 42002 10043 20041 38000 48527 57005 83570 333 55300
0//// 20000 3//// 60005 91005 91105=
15088 22198 42002 10043 20041 38000 48527 57005 83570 333 55300
0//// 20000 3//// 60005 91005 91105 555 60000=
####018000307####
SMMC04 KWBC 050600
AAXX 05064
60318 31340 61004 10200 20183 40148 51003 71022 83602 333 20199
83706 85070=
60105 02458 81606 10223 20201 30062 40148 5//// 60004 888// 333
20215 30021 60007 82817 87620 91010 91110=
60265 12970 20001 10171 20137 38916 48543 55001 60054 82080 333
20170 82360=
####018000113####
SMLS03 KWBC 050600
AAXX 05063
68454 32589 70000 10081 21041 38423 48/// 5//// 83520 333 20059
555 10228=
####018000397####
SMIL04 KWBC 050600
AAXX 05064
04038 36/// /1209 10096 20085 40069 57034 333 10096 20095=
04005 26/// /0502 10077 20050 40057 57026 333 10077 20077 69907=
04018 41265 81609 10100 20096 40051 57039 71562 8762/ 555 3//12
82705 85720 87640=
04030 42580 81107 10094 20067 40057 57036 70262 8757/ 555 3//07
82623 87629 88438=
04097 42589 62103 10059 20033 40111 57020 81270 555 3/404=
####018000254####
SNRO01 KWBC 050200
AAXX 05021
15088 22198 42303 10048 20045 37992 48518 57008 83570 333 55300
0//// 20000 3//// 60005 91005 91106=
15088 22198 42303 10048 20045 37992 48518 57008 83570 333 55300
0//// 20000 3//// 60005 91005 91106 555 60000=
####018001400####
SMCZ01 KWBC 050600
AAXX 05061
11406 01775 79901 10134 20092 39588 40159 52011 69912 721// 83570
333 20100 31005 50294 69915 70001 83650 86359 555 376// 50159
60165 70174 80171 90167=
11464 12986 43604 10119 20095 39192 42790 52009 60002 83071 333
20115 30007 70000 83361 555 385//=
11766 01986 02105 10140 20083 39285 42785 52001 60002 702// 333
20117 30010 50364 60005 70000 555 369// 50146 60150 70158 80164=
11774 01984 01204 10164 20106 39886 40149 52002 60002 702// 333
20116 31010 50274 60005 70000 555 368//=
11520 02982 12402 10148 20099 39789 40146 51011 60002 81041 333
20109 30007 50304 60005 70000 81363 555 373// 50173 60176 70190
80199 90197=
11636 01980 00901 10120 20092 39486 42785 52003 60002 700// 333
20089 30005 50354 60005 70000 555 384// 50131 60154 70172 80185
90182=
11546 05781 /1901 10127 20092 39681 40155 53007 60002 333 20104
3/008 60005 70000 81/50 555 379// 50166 60165 70185 80192 90187=
11457 01984 12303 10115 20070 38896 48506 52005 60002 703// 81080
333 20068 31004 60005 70000 81364 9512/ 555 374// 50123 60130
70145 80149=
11679 01980 10501 10128 20100 39675 40150 52005 60002 702// 80002
333 20085 30006 50354 60005 70000 81081 555 383// 50162 60171
70182 80182 90177=
11787 01988 02009 10102 20071 38678 48498 52001 60002 702// 333
20087 31007 60005 70000 91113 9513/ 555 381// 50126 60137 70137
80139=
####018000266####
SNRO01 KWBC 050500
AAXX 05051
15088 22199 42502 10044 20041 37987 48514 57005 83540 333 55300
0//// 20050 3//// 60005 91004 91105 95171=
15088 22199 42502 10044 20041 37987 48514 57005 83540 333 55300
0//// 20050 3//// 60005 91004 91105 95171 555 60000=
####018000454####
SMSP04 KWBC 050600
AAXX 05064
08231 02570 43403 10163 20095 39127 42835 53012 60002 84100 333
20163 30017 50784 55101 60007 79999=
08215 01980 30104 10112 20017 38176 48562 53006 60002 70200 80002
333 20096 30009 51214 55123 60007 70000=
08280 12980 10604 10165 20157 39379 40179 52007 60002 81030 333
20165 30016 50760 55092 70000=
08223 11880 30411 10174 20075 39416 40199 53016 60002 702// 81081
333 20174 30016 51394 55106 70000=
####018000580####
SMCO01 KWBC 050600
AAXX 05061
80211 02565 30000 10186 20172 38797 60001 83500 333 561// 5////
60007 83625=
80028 01460 49901 10282 20266 30060 40095 60001 70522 84600 333
56900 58012 60007 84710=
80222 02470 23301 10101 20071 37548 60001 82501 333 56308 58010
60007 82615=
80001 02470 50505 10286 20258 30122 40123 60001 82201 333 03285
562/5 58017 60007 82816 84070=
80022 01462 80302 10291 20269 30099 40101 60001 70522 81476 333
56199 58016 60007 81615 85457=
80398 02470 63601 10227 20227 30045 40139 60001 83530 333 56110
58018 60007 83610 84358=
####018001815####
SMOS01 KWBC 050600 RRB
AAXX 05061
11229 15/// /0000 10096 20092 39699 40180 52004 60002 333 10172
20089 3/008 55300=
11241 15/// /3306 10120 20068 38571 48509 53005 60002 333 10125
20092 3/006 55300=
11280 15/// /0000 10088 20071 39244 40189 53002 60002 333 10175
20070 55300=
11298 15/// /0000 10127 20103 39777 40155 53003 60002 333 10178
20094 3/009 55300=
11385 15/// /2902 10161 20095 39095 48509 53006 60002 333 10162
20129 55300=
11034 15/// /1901 10169 20104 39943 40152 53007 60002 333 10222
20151 55300=
11035 32980 01101 10143 20111 39905 40151 52006 80000 333 10205
20119 55300=
11036 15981 03603 10132 20105 39938 40155 53007 60005 80000 333
20111 3/008=
11070 15/// /1101 10136 20094 39911 40153 53003 60002 333 10201
20095 3/007 55300=
11130 15/// /0000 10129 20111 39597 40172 53004 60002 333 10210
20116 3/010 55300=
11227 15/// /0401 10107 20091 39532 40172 53005 60002 333 10180
20094 3/008 55300=
11265 32589 10505 10092 20034 37864 48510 55002 81800 333 10110
20088 55300 81625 444 26072=
11275 15/// /0801 10113 20088 39154 40173 53003 60002 333 10144
20096 3/008 55300=
11285 15/// /1201 10130 20109 39746 40164 50003 60002 333 10170
20097 3/008 55300=
11301 15/// /2301 10136 20104 39348 40168 53004 60002 333 10195
20126 3/010 55300=
11314 15/// /0000 10118 20107 39210 40175 53003 60002 333 10167
20094 3/005 55300=
11318 45/// /2105 10019 21015 36727 47107 57006 333 10045 20007
55300=
11343 45/// /2203 10032 21004 37001 47115 56002 333 10058 20016
55300=
11346 15/// /0000 10083 20072 39104 48506 53002 60002 333 10143
20073 3/005 55300=
11384 15/// /2702 10126 20067 38695 48510 53005 60002 333 10126
20097 55300=
11387 15/// /1701 10140 20103 39936 40157 53007 60002 333 10209
20105 3/007 55300=
####018000339####
SMQT04 KWBC 050600
AAXX 05064
41160 44/65 /0211 10355 20259 30001 40004 333 20342 59003=
41167 44/67 /3105 10351 20253 30004 40006 333 20313 59005=
41170 44/70 /3107 10379 20201 39992 40005 333 20339 59002=
41176 44/66 /3412 10384 20234 39997 40003 333 20275 59005=
41178 44/70 /3209 10370 20228 30005 40011 333 20331 59003=
####018000133####
SMNU04 KWBC 050600
AAXX 05064
78988 01461 51213 10281 20238 30120 40130 57007 60001 70522 81201
333 58016 60007 81818 85081=
####018000109####
SMJD04 KWBC 050600
AAXX 05064
40272 31550 02806 10218 20186 39286 40083 52006 70500 333 2////
30015=
####018000681####
SMFR04 KWBC 050600
AAXX 05064
07487 06/// /2602 10131 20118 39921 40183 53013 69922 333 10240
20116 4//// 55/// 69927 70002 90710 91104 555 60005=
07059 04676 /3006 10101 20087 30078 40214 53022 69922 700// 333
10157 20092 30/// 4/000 55/// 69927 70012 90710 91111 555 60005=
07166 04765 62304 10090 20081 30011 40214 53013 60002 700// 333
10175 20065 30/// 4/000 55/// 60007 70000 90710 91110 555 60005=
07490 04881 81702 10133 20097 39655 40188 53012 60002 700// 333
10229 20116 30009 4/000 55/// 60007 70000 90710 91104 555 60005=
07628 04470 83009 10147 20134 30008 40234 53007 60022 700// 333
10244 20145 4//// 55/// 60027 70022 90710 91115 555 60015=
####018000505####
SMDR01 KWBC 050600
AAXX 05061
78458 32566 11203 10272 20241 40162 57002 81200 333 00000 10355
20236 30/// 58024 81820=
78460 31460 30000 10252 20242 40170 54000 70621 82204 333 02200
10364 20224 30/// 58016 82816=
78479 32466 20807 10282 20242 40161 57011 82200 333 01200 10321
20265 30/// 58015 82818=
78485 32466 20302 10258 20239 40158 57007 82200 333 01200 10330
20245 30/// 58019 82818=
78486 32466 23002 10270 20242 40160 57005 82200 333 01000 10338
20270 30/// 58019 82818=
####018001507####
SMGR04 KWBC 050600 RRA
AAXX 05064
16741 12560 23411 10246 20165 30011 40098 51008 60002 82100 333
20229 30/// 70000 90730 91127 555 10000 30272 20000 89033 99068=
16757 16/// /2710 10254 20163 39954 40083 52010 69902 333 20220
90730 91116 555 10000 30255 20000 89004 99071 60000 65555 60012=
16760 12960 00708 10238 20169 40094 52008 60002 333 20208 30///
55111 70000=
16765 12460 13118 10256 20205 40074 52012 60002 81100 333 20233
30/// 70000 90730 91125 555 10000 30257 20000 89057 99083=
16606 12560 20000 10240 20129 40133 52010 60002 82100 333 20187
30/// 50910 55101 70000 90730 91104 555 10000 30269 20000 89015
99075 30000 10232 2//// 30280 40284 50286 60276=
16613 36/// /0000 10186 20113 39440 40148 52004 333 20112=
16632 12860 33504 10218 20066 39436 40137 52006 60002 81045 333
20171 30/// 70000 81357 83067 90730 91108 555 10000 30219 20000
89013 99061=
16685 12960 00000 10238 20163 40096 51012 60002 333 20210 30///
55110 70000 90730 91107 555 10000 30274 20000 89032 99086 40000
47585 44240 50000 50192=
16706 12965 00112 10256 20143 40074 52008 60002 333 20244 30///
55107 70000 90730 91123 555 10000 30286 20000 89038 99070 40000
47586 44245 50000 50188=
16715 12560 10316 10242 20155 40093 52007 60002 81100 333 20218
30/// 70000 90730 91129 555 10000 30254 20000 89023 99053=
16742 12960 09903 10230 20215 39919 40067 52003 60002 333 20220
30/// 70000 90730 91108 555 10000 30270 20000 89057 99093 40000
47479 44270 50000 50220=
####018000168####
SMSQ01 KWBC 050600
AAXX 05061
11801 12970 01601 10156 20112 39912 40160 52005 60002 333 20137=
11955 12980 02202 10115 20098 39809 40174 51001 60002 333 20078=
####018000433####
SMMV04 KWBC 050600
AAXX 05064
43533 12465 52007 10313 20260 30106 40108 60001 82202 333 59002
82818 84077=
43555 12475 71406 10318 20256 30108 40110 60001 82202 333 59002
82818 87078=
43577 12468 51106 10311 20259 30109 40111 60001 81202 333 59002
81818 85077=
43588 12462 31407 10311 20262 30107 40108 60001 82231 333 59002
82818=
43599 12462 51414 10315 20251 30109 40111 60001 82202 333 58000
82818 85076=
####018001154####
SMRM01 KWBC 050600
AAXX 05061
33664 32998 03601 10142 20104 39869 40177 57001 333 20091 555
80016=
33678 32998 03401 10137 20094 39972 40178 53002 333 20095=
33745 32997 20000 10152 20110 39998 40186 54000 80001 333 20106
555 80013=
33749 32998 00000 10137 20117 30080 40176 53001 333 20086 555
80012=
33821 32997 20102 10151 20105 30121 40171 52001 81032 333 20127=
33829 32997 23002 10152 20115 30124 40173 53003 82030 333 20105=
33886 32998 00000 10163 20121 30081 40158 53002 333 20098=
33679 32997 00000 10112 20098 39996 40184 54000 333 20086=
33744 32998 03501 10145 20103 39984 40178 54000 333 20105 555
80014=
33881 32997 03603 10155 20098 39981 40171 53002 333 20124 555
80012=
33883 32998 00102 10168 20104 30007 40168 53003 333 20119 555
80014=
33748 32997 00000 10140 20134 39898 40174 54000 333 20112 555
80011=
33754 32998 20000 10139 20098 30029 40172 58003 80001 333 20085=
33885 32997 03302 10140 20117 30037 40175 54000 333 20122=
33892 32998 60000 10159 20098 39968 40175 53005 86030 333 20110
555 80009=
33815 32998 13502 10159 20082 39965 40166 53004 81030 333 20132
555 80018=
####018000265####
SMSO04 KWBC 050600
AAXX 05064
91503 31498 61106 10274 20209 40097 56003 70522 82838 333 56299
81817 85360=
91517 31498 22902 10290 20232 40084 55002 70500 81802 333 56200
81818=
91520 31598 22709 10300 20233 40079 55004 70500 82835 333 56999
81820=
####018000266####
SNRO01 KWBC 042200
AAXX 04221
15088 21198 42503 10049 20046 38001 48527 57005 72844 84500 333
55300 0//// 20000 3//// 60005 91004 91105=
15088 21198 42503 10049 20046 38001 48527 57005 72844 84500 333
55300 0//// 20000 3//// 60005 91004 91105 555 60000=
####018000616####
SMZR03 KWBC 050600
AAXX 05063
64402 31430 72404 10196 20190 39559 40136 71022 8353/ 333 0//00
20/// 50224 55025 59014 83610 87362=
64463 32460 40000 10215 20192 39/// 40/// 84500 333 0//00 20204
50144 55/// 5//// 84610=
64403 32460 50000 10218 20203 39/// 40/// 85500 333 0//00 20///
50154 55035 5//// 85615=
64452 32360 40000 10220 20212 39/// 40/// 84500 333 0//00 20///
50244 55/// 5//// 84612=
64454 32457 40000 10230 20209 39/// 40/// 84500 333 0//00 20///
50194 55047 5//// 84613=
64462 12460 63202 10220 20213 39/// 40/// 60024 83530 333 0//59
20/// 50064 55/// 5//// 83612 86362=
####018000254####
SNRO01 KWBC 050100
AAXX 05011
15088 22198 42003 10045 20042 37995 48521 57006 83570 333 55300
0//// 20000 3//// 60005 91006 91106=
15088 22198 42003 10045 20042 37995 48521 57006 83570 333 55300
0//// 20000 3//// 60005 91006 91106 555 60000=
####018001751####
SMRO01 KWBC 050600 RRD
AAXX 05061
15297 06/// /3102 10080 20057 38675 48/// 52002 60002 333 10137
20047 3//// 55300 0//// 20172 3//// 60007 70000 91104=
15340 02597 82101 10186 20127 39931 40173 52005 60002 8237/ 333
10231 20182 30018 55300 ///// 20144 3//// 60007 70000 91002 91102=
15408 02997 10203 10174 20155 39907 40167 52002 60002 81040 333
10188 20150 30015 55302 60007 70000 91005 91105=
15138 02998 01801 10170 20100 39481 42798 54001 60002 333 10173
20139 30012 4/000 55302 0//// 20290 3//// 60007 70000 91002 91103=
15217 02598 13603 10125 20082 39516 42807 57002 60002 81200 333
10150 20096 30009 60007 70000 91004 91106=
15235 02698 20804 10158 20114 39668 40172 53001 60002 81240 333
10187 20129 30012 55310 60007 70000 91007 91107=
15300 02799 70901 10135 20094 39550 42804 54000 60002 83570 333
10170 20132 30013 60007 70001 91003 91103=
15373 02597 70702 10153 20129 39798 40173 52006 69912 83170 333
10186 20149 31015 55300 ///// 20298 3//// 60007 70026 91004 91105=
15422 01597 80601 10151 20148 30080 40180 52007 60052 72582 8537/
333 10206 20149 31017 55300 0//// 20077 3//// 60047 70049 91005
91105=
15489 02697 70607 10175 20129 30079 40170 53005 60002 83370 333
10228 20171 30017 55300 ///// 20238 3//// 60007 70000 91009 91110=
15080 05997 01002 10148 20111 30000 40164 52003 60002 7000/ 333
10212 20105 30011 55304 ///// 20394 3//// 60007 70000 91003 91103=
15480 07497 83503 10183 20140 30144 40161 54001 69952 7818/ 889//
222// 06239 2//// 333 10212 20179 31016 4/000 55300 10247 20089
30077 69947 70005 91006 91106 92427=
15088 02199 53002 10052 20049 37988 48513 54001 60002 84540 333
10054 20034 30/// 55302 0//// 20379 3//// 60007 70000 91003 91105
95150=
####018001579####
SMPH01 KWBC 050600
AAXX 05061
98222 11462 72204 10278 20262 40046 56022 60091 70584 82870 333
56999 82619 87359=
98328 11456 82206 10178 20172 38492 40066 57009 60051 74684 8557/
333 56999 85612 88358=
98432 31568 52404 10324 20254 30054 40066 57023 70544 83272 333
56599 83820=
98444 32468 72204 10320 20258 30049 40067 58023 82205 333 56999
82818 86270 91108 90400=
98546 32575 72503 10324 20236 30059 40066 57024 82268 333 56999
82820 87275=
98646 32560 82207 10322 20233 30050 40078 57023 8227/ 333 56599
82820 88360=
98223 11458 82205 10282 20250 40055 57013 60031 72166 82818 333
56599 82618 86459 91012=
98233 31465 71802 10332 20246 40038 57030 70544 84370 333 56999
81918 83820 87358=
98435 32475 72403 10317 20240 30054 40060 57020 84270 333 56599
84818 87458=
98543 32470 52703 10328 20234 30063 40074 57021 82208 333 56999
82818 85272 91108 90413=
98324 11470 81705 10296 20258 30062 40068 57025 60051 70564 84967
333 56999 83915 83358 88280 94952 94955 95958=
98334 31470 82706 10320 20262 39843 40044 57019 70544 82270 333
56669 82818 86358=
98426 11468 62506 10297 20261 30053 40075 57023 69951 70584 83478
333 56599 83618 85280 90428 91110 91522=
98550 32460 73203 10324 20251 30062 40065 57028 81262 333 56999
81818 86357=
98630 32468 52002 10320 20263 30120 40125 56001 82871 222// 333
56599 81818 84358=
98752 11458 80102 10304 20257 40089 57016 69911 76086 8397/ 333
56999 83915 88357=
98428 31464 52205 10325 20252 30071 40074 57018 70544 82461 333
56999 82618 83359 90404 91108 91522=
####018000762####
SMIR01 KWBC 050600
AAXX 05061
40708 11560 70000 10174 20134 38665 40110 52019 69911 74052 87600
333 30013 50401 70001 83720 8764 0 555 10150 29077=
40737 12960 00000 10268 20194 30111 40127 53007 60001 333 30018
50481 70000 555 10220 29064=
40780 12960 02802 10313 20016 38645 40035 52010 60001 333 30015
51291 70000 555 10156 29015=
40792 12965 02402 10309 20003 38695 40038 51005 60001 333 30016
51151 70000 555 10151 29014=
40835 12960 00000 10373 21008 39196 49957 51006 60001 333 30021
51111 70000 555 10177 29009=
40845 12960 02502 10350 20260 39999 40004 52013 60003 333 30032
51011 70000 555 10285 29060=
40889 11940 00905 10336 20291 30005 40010 51013 60003 70500 222//
00341 20301 333 30029 50601 70000 555 10302 29077=
####018000091####
SNNO01 KWBC 050100
AAXX 05011
01311 47462 63203 10096 20085 39959 40020 55004 761//=
####018002536####
SMYG01 KWBC 050600
AAXX 05061
13160 12960 00201 10130 20121 30050 40157 53003 60002 333 20088
30005 55117 70000=
13370 11510 83101 10119 20117 39799 40168 53001 60002 72842 886//
333 20109 30009 55000 70000=
13262 12970 01901 10133 20123 30011 40158 58004 60002 333 20112
30008 55035 70000=
13272 12960 01501 10171 20135 30046 40162 53005 60002 333 20136
30010 55059 70000=
13285 12970 11001 10153 20141 30061 40161 55000 60002 80001 333
20090 30006 55088 70000=
13289 11/03 91104 10099 20090 38990 48503 53004 60002 74741 333
20091 30008 55064 70001=
13376 11908 00401 10118 20114 39909 40168 51002 60002 74240 333
20096 30007 55000 70001=
13388 12960 03201 10134 20113 39927 40170 53004 60002 333 20115
30007 55034 70000=
13489 11940 01601 10126 20097 39660 40169 53003 60002 71000 333
20107 30009 55070 70000=
13067 12960 00101 10139 20082 30039 40166 51004 60002 333 20094
30006 55113 70000=
13168 12970 00000 10155 20137 30055 40159 53002 60002 333 20120
30008 55100 70000=
13173 12970 01201 10147 20116 30057 40155 53001 60002 333 20110
30008 55105 70000=
13174 12965 00701 10156 20109 30060 40158 53004 60002 333 20099
30007 55119 70000=
13180 12970 01802 10176 20133 30054 40161 55001 60002 333 20114
30008 55108 70000=
13183 32965 01801 10188 20126 30057 40158 53002 333 20082 30004
55113=
13266 11956 00401 10130 20122 30063 40163 53005 60002 71000 333
20092 30008 55071 70000=
13269 12980 02601 10141 20124 39951 40161 53001 60002 333 20106
30008 55010 70000=
13274 12970 01501 10176 20121 30001 40156 53002 60002 333 20146
30011 55095 70000=
13278 12970 02102 10149 20125 39946 40165 58001 60002 333 20091
30007 55018 70000=
13279 12956 00000 10130 20110 30020 40165 50000 60002 71000 333
20094 30007 55057 70000=
13295 12965 20602 10186 20129 30115 40168 52006 60002 82030 333
20154 30012 55098 70000=
13367 12570 31901 10129 20114 38995 48505 53001 60002 83500 333
20115 31008 55000 70004=
13369 11/08 91601 10103 20100 38990 48483 53002 60002 74742 333
20103 31010 55025 70000=
13378 12965 01504 10137 20065 38295 48529 55000 60002 333 20101
30008 55070 70000=
13383 12970 00000 10146 20111 39968 40167 52003 60002 333 20095
30008 55005 70000=
13384 12970 01401 10134 20120 30019 40167 51003 60002 333 20090
30008 55026 70000=
13389 41905 00000 10126 20123 39888 40164 54000 60002 74444 333
20098 30007 55015 70000=
13397 12670 50401 10142 20111 39640 40164 56004 60002 85500 333
20107 30009 55084 70000=
####018000266####
SNRO01 KWBC 050400
AAXX 05041
15088 22199 42703 10042 20039 37988 48514 57007 82570 333 55300
0//// 20000 3//// 60005 91004 91105 95170=
15088 22199 42703 10042 20039 37988 48514 57007 82570 333 55300
0//// 20000 3//// 60005 91004 91105 95170 555 60000=
####018000091####
SNNO01 KWBC 050400
AAXX 05041
01311 47547 83607 10092 20082 39961 40022 53003 782//=
####018003083####
SMTU04 KWBC 050600 RRB
AAXX 05064
17200 12960 01204 10247 20056 39138 40052 52011 60002 333 20153
30/// 91117=
17204 12970 00000 10235 20026 38655 48480 52008 60002 333 20155
30012 50804 55000 91105=
17239 12670 61501 10210 20123 39002 48500 52009 60002 84250 333
20179 30015 50781 55100 22156 84840 86360 91106=
17246 12970 02703 10202 20091 38973 48492 52015 60002 333 20163
30014 55112 22349 91107=
17275 12970 00000 10287 20045 38930 48486 52011 60002 333 20251
30020 51081 55117 91110=
17285 12970 01401 10219 20052 38255 48490 52007 60002 333 20172
30012 50801 55111 22453 91105=
17380 12970 00000 10279 20192 39881 40054 52012 60002 333 20238
30023 50431 55081 92418=
17024 12970 01811 10219 20122 30041 40115 52004 60002 333 20159
30014 50381 55110 91123 92428=
17086 12970 11004 10180 20110 39429 40113 51004 60002 81030 333
20119 30011 50601 55120 22349 81360 91107=
17116 12970 00508 10244 20109 39992 40107 52005 60002 333 20177
31014 55104 22135 91112=
17202 12970 02503 10256 20053 39082 40053 52009 60002 333 20143
30/// 91107=
17250 12670 20606 10209 20058 38775 48485 52009 60002 82100 333
20142 30014 50961 55114 22345 82840 91113=
17270 12970 01402 10295 20151 39439 40038 52013 60002 333 20223
30017 51241 55103 91104=
17300 12960 00606 10275 20222 30010 40077 52020 60002 333 20231
30024 91110=
17042 12670 53001 10245 20199 30080 40118 52006 60002 83250 333
20207 30021 83835 85360 91110 92428=
17074 12970 02101 10153 20109 39228 40127 52005 60002 333 20088
30005 50801 55086 91104=
17088 12670 23402 10194 20112 38782 48498 55000 60002 82100 333
20144 30014 50701 55089 22060 82840 91106=
17092 12970 00000 10207 20089 38828 48481 52003 60002 333 20109
30010 50584 55082 22487 91105=
17115 12460 40312 10241 20199 30071 40119 53006 60002 84200 333
20219 30020 50704 55072 21859 82715 84835 91126=
17140 12965 01505 10171 20055 38694 48490 52007 60002 333 20122
30012 50601 55090 91110=
17155 12970 00501 10195 20081 39031 40091 52007 69922 333 20152
30012 50421 55102 70002 91103=
17203 12970 00000 10215 20037 38833 48509 52007 60002 333 20147
30011 50484 55086 22072 91103=
17237 12970 00701 10243 20144 39599 40073 53006 60002 333 20196
30016 50561 55074 91104=
17292 12970 00701 10227 20146 39347 40059 52009 60002 333 20178
30017 50641 55084 22102 91104=
17295 12960 00405 10254 20205 30061 40068 52011 60002 333 20203
30020 50464 55092 91107=
17320 12670 33401 10297 20208 30066 40070 52012 60002 83200 333
20247 30024 50641 55092 83836 92428=
17330 12670 23001 10299 20207 30052 40069 52012 60002 82100 333
20252 30024 50601 55108 82840=
17375 12970 00000 10280 20166 30053 40055 52013 60002 333 20238
30020 50881 55106 22370 91104 92408=
17056 12970 00209 10242 20182 30126 40130 52006 60002 333 20223
30021 55102 22114 91117 92438=
17248 12970 02403 10205 20085 38943 48480 52012 60002 333 20157
30014 50701 55109 91106=
17310 12670 30401 10292 20225 30050 40057 52009 60002 83200 333
20274 30024 55000 83833 91105 92428=
####018002664####
SMUR01 KWBC 050600
AAXX 05061
33393 32960 01503 10137 20113 39793 40174 57002 333 20076 555
11013=
33587 32997 02701 10145 20107 39914 40169 54000 333 20106 555
11016=
33658 32974 03401 10130 20113 39890 40182 57001 333 20098 555
11018=
34504 32497 83202 10169 20134 39977 40148 53011 886// 333 20153
88710 555 10025=
34601 11360 73403 10168 20152 30016 40147 52007 69912 70162 87600
333 20150 87708 555 10021=
33345 32998 70302 10150 20115 39972 40171 53003 87030 333 20127
555 10018=
33631 32998 00000 10123 20104 30026 40168 54000 333 20072 555
10014=
33663 31996 00801 10108 20100 30087 40182 54000 72840 333 20080
555 11016=
33791 12497 80204 10157 20136 30003 40149 53003 69902 885// 333
20147 88619 555 10017=
34300 11960 71601 10192 20110 39957 40138 52009 69902 70282 87030
333 20160 555 10030=
33506 11496 82901 10146 20142 39961 40151 52011 60012 75152 886//
333 20143 555 11017=
33177 32997 00101 10132 20109 39946 40177 57002 333 20077 555
11016=
33261 11496 83602 10143 20134 39985 40162 53007 69902 78082 889//
333 20135 87714 555 11016=
33275 31294 83403 10147 20142 39933 40149 53008 71022 886// 333
20137 88703 555 11016=
33325 32997 00000 10148 20098 39920 40180 53001 333 20080 555
10022=
33377 31356 83002 10142 20129 39971 40159 53009 71022 886// 333
20134 88707 555 11016=
33466 32568 63302 10161 20117 39983 40164 53001 86500 333 20133
86624 555 10020=
33526 32970 00000 10111 20091 39850 40184 57001 333 20046 555
11015 52002=
33562 32963 00000 10129 20088 39827 40180 51001 333 20075 555
10019=
33614 11496 83602 10157 20143 30053 40155 53007 69942 75152 886//
333 20150 555 11016 31014=
33902 32597 73303 10158 20135 30092 40156 54000 87550 333 20133
555 11019=
33088 32997 00000 10138 20116 39998 40184 53001 333 20074 555
11017 52004=
33301 32997 21001 10150 20109 39907 40180 56001 82050 333 20078
555 10022 52005=
33415 31996 00000 10112 20090 39794 40185 57001 71000 333 20058
555 10011=
33429 32997 00801 10151 20091 39768 40177 57001 333 20091 555
10017=
33761 32998 13504 10151 20112 39951 40167 53003 81030 333 20103
555 11020=
34415 32970 60000 10196 20150 30045 40136 53011 86030 333 20160
555 10026=
34712 32697 70203 10208 20158 30046 40127 53009 83530 333 20182
555 10024=
33135 32997 63602 10138 20101 30032 40176 53002 86030 333 20106
555 10015=
33317 32997 02201 10151 20091 39853 40179 54000 333 20074 555
10020 52003=
33711 11460 83504 10140 20127 39956 40159 53005 69902 75052 886//
333 20119 88719 555 10016=
33837 32983 23501 10192 20115 30115 40165 53004 80001 333 20145
555 10030=
####018000116####
SMNO26 ENMI 050600 RRB
AAXX 05061
01082 16/// ///// 10102 20071 39990 40056 51006 60002 333 20011
      70000=####018000227####
SMNO24 ENMI 050600 RRA
AAXX 05061
01337 16/// /2002 10100 20091 39945 40010 53005 60022 333 20086
      70202 91106=
01393 11360 83002 10072 20068 39180 49955 55002 60122 78086 8431/
      333 20062 32/// 70146 91103=####018001184####
SMAU02 AMMC 050600
AAXX 05064
94293 NIL=
94299 46/// /1409 10259 20162 30139 40150=
94300 NIL=
94302 46/// /0709 10286 21025 30131 40137=
94312 46/// /3316 10272 20171 30113 40121=
94317 46/// /0708 10281 21039 39528 40120=
94319 46/// /2007 10322 20013 39778 40109=
94324 NIL=
94326 46/// /2812 10342 21085 39483 40104=
94327 46/// /3309 10349 21103 39733 40110=
94332 46/// /0308 10325 20006 39731 40119=
94341 46/// /1405 10327 21043 39889 40126=
94344 46/// /3003 10345 21045 39909 40116=
94346 46/// ///// 10336 21069 39902 40124=
94348 46/// /0103 10328 21042=
94349 46/// /3506 10328 21042=
94363 46/// /3405 10328 21057 39909 40128=
94367 46/// /3607 10284 20026 30113 40148=
94374 46/// /3308 10330 21073 30112 40130=
94388 46/// /3611 10244 20188 30138 40143=
94393 NIL=
94394 46/// ///// 10232 30145 40153=
94395 46/// /3103 10319 21081 39823 40135=
94403 46/// /1008 10194 20040 30171 40207=
94429 46/// /1111 10186 21023 39719 40193=
94430 46/// /1112 10215 21038 39574 40167=
94449 46/// /1609 10177 21037 39661 40199=
94461 46/// /2609 10300 21089 39440 40115=
94462 46/// /3313 10332 21072 39538 40097=

####018001764####
SMAU04 AMMC 050600
AAXX 05064
94893 46/// /0415 10115 20072 30005 40122=
94907 46/// ///// 10141 20099=
94910 46/// /1010 10204 20056 39862 40116=
94926 46/// /2411 10196 20029 39459 40135=
94935 46/// /0807 10147 20084 30110 40137=
94951 46/// /2405 10123 20052 30122 40137=
94954 46/// /0819 10109 20040 30001 40112=
94956 46/// /1707 10120 20065 30089 40116=
94975 46/// /1711 10117 20033 30104 40137=
94983 46/// /0707 10131 20053 30117 40142=
94995 46/// /2510 10187 20136 30129 40137=
94996 46/// /2418 10167 20118 39961 40098=
94997 NIL=
94998 46/// /2616 10024 21019 39984 49994=
95111 46/// /3210 10288 20186 30081 40114=
95205 46/// /2907 10328 20069 30108 40116=
95322 46/// /3010 10355 21008 39713 40094=
95448 46/// /1110 10195 21028 39606 40178=
95458 46/// /2214 10251 20025 39854 40117=
95480 46/// /2214 10309 21018 30025 40084=
95481 46/// /3215 10348 21103 30042 40087=
95482 46/// /3114 10359 21072 30043 40098=
95485 46/// /3113 10336 21221 39887 40093=
95492 46/// /3210 10334 21113 39951 40104=
95527 46/// /3013 10320 21100 39861 40116=
95634 46/// /1205 10153 21022 39817 40229=
95637 46/// /1407 10131 20018 39903 40245=
95646 46/// /2418 10160 21007 39996 40185=
95666 46/// /1314 10206 20015 30090 40107=
95719 46/// /2712 10296 21066 39774 40109=
95762 46/// /2813 10294 21082 39657 40119=
95826 46/// /2712 10150 30071 40073=
95832 46/// /2711 10162 20098=
95839 46/// /0314 10187 20113 39927 40088=
95864 46/// /2105=
95909 46/// /2909 10026 20022 38006 40159=
95936 46/// /3609 10197 20071 30087 40096=
95954 46/// /0718 10106 20069 30004 40109=
95966 46/// /3002 10139 21005 39923 40126=
96995 46/// /1012 10256 20190 39839 40136=
96996 NIL=

####018000116####
SMNO23 ENMI 050600 RRB
AAXX 05061
01340 16/// /2903 10054 20053 39153 40006 53002 6//// 333 20050
      91106=####018000030####
SMNG01 AMMC 050600
NIL

####018000391####
SMAU11 AMMC 050600
AAXX 05064
94100 46/// /3511 10311 20159 30088 40115=
94204 46/// /2808 10343 20040 30015 40104=
94208 NIL=
94217 46/// /0307 10352 20089 39916 40101=
94303 NIL=
94306 46/// /2914 10290 20045 30102 40116=
94308 46/// /3313 10292 20077 30105 40118=
94316 46/// /2207 10284 21026 39633 40113=
94320 NIL=
94417 46/// /1007 10184 20010 39889 40210=

####018000411####
SMAU14 AMMC 050600
AAXX 05064
95101 NIL=
95632 46/// /1603 10129 20036 30036 40252=
95635 46/// /1907 10131 20024 30219 40252=
95636 46/// /1310 10135 21005 39879 40244=
95638 46/// /1814 10124 20044 30074 40245=
95639 46/// /1712 10119 20015=
95640 NIL=
95642 46/// /1514 10142 20012 39916 40229=
95644 46/// /1708 10131 21009 39982 40246=
95647 46/// /1104 10128 20050 30165 40254=

####018000472####
SMAA01 AMMC 050600
AAXX 05064
89564 41920 71433 11170 21239 39727 49747 50006 73732 86078=
89570 NIL=
89571 41780 72105 11220 21298 39740 49770 58016 70322 87500=
89573 NIL=
89577 46/// /0701 11702 37496 4//// 5////=
89578 46/// ///// 11461 36754 4//// 5////=
89586 NIL=
89610 NIL=
89611 41580 10504 11204 21254 39755 49809 53008 70100 81105=
89614 NIL=
89615 NIL=
89767 NIL=
89807 NIL=
89809 NIL=
89811 NIL=
89815 NIL=
89817 NIL=

####018000672####
SMAU12 AMMC 050600
AAXX 05064
94450 46/// /1408 10170 21011 39772 40204=
94457 46/// /1912 10248 20029 39624 40149=
94600 46/// /0611 10144 20038 30118 40250=
94602 46/// /1709 10134 20029 30193 40245=
94603 46/// /1211 10151 20030=
94604 NIL=
94605 46/// /1104 10166 20030 30243 40247=
94607 46/// /0809=
94608 46/// /1305 10157 20022 30213 40244=
94609 46/// /1204 10155 20027 30207 40244=
94612 46/// /0911 10149 20018 30189 40245=
94614 46/// /1205 10157 20007=
94615 46/// /0906 10146 20025=
94616 NIL=
94617 NIL=
94620 46/// /0907 10135 20024 39926 40247=
94628 46/// /1106 10130 20007 39857 40240=
94629 NIL=
94631 NIL=

####018000736####
SMAU13 AMMC 050600
AAXX 05064
94641 46/// /1404 10109 20009 39871 40255=
94644 46/// /2613 10109 20059 30202 40206=
95204 46/// /2610 10297=
95214 46/// /2707 10348 20106 30099 40104=
95215 NIL=
95303 NIL=
95304 46/// /2416 10251 20120 30122 40130=
95305 46/// /2712 10282 20104 30115 40128=
95307 46/// /3013 10278 20109 30111 40118=
95317 46/// /3105 10321 20002 39903 40111=
95402 46/// /1309 10228 20028 30138 40178=
95602 46/// /3307=
95607 46/// /2009 10142 20066 30241 40249=
95610 46/// /1007 10126 20010=
95611 46/// /0205 10139 20037 30231 40252=
95612 46/// /1010 10151 20020 30152 40242=
95617 NIL=
95618 NIL=
95621 NIL=
95625 46/// /0908 10147 20019 39985 40245=
95629 NIL=

####018000030####
SMNG02 AMMC 050600
NIL

####018000866####
SMAA80 AMMC 050600
AAXX 05064
61997 NIL=
61998 11575 22837 10014 21072 39783 49819 53021 60254 701// 82200
  333 052// 21020 55014 59095 82823 90710 91160=
68994 11598 52210 11009 21056 30094 40124 53012 60014 72682 85200
222// 00051 305// 40802
  333 21019 91017=
89009 41410 73517 11475 36763 52007 73832 876//
  333 87710=
89532 41/60 80717 11160 21209 39754 49782 51020 70272 8757/
  333 55000 20360=
89542 NIL=
89564 41920 71433 11170 21239 39727 49747 50006 73732 86078=
89570 NIL=
89571 41780 72105 11220 21298 39740 49770 58016 70322 87500=
89573 NIL=
89592 NIL=
89606 NIL=
89610 NIL=
89611 41580 10504 11204 21254 39755 49809 53008 70100 81105=
89614 NIL=
89642 41540 81604 11187 21220 39624 49680 56031 77177 885//
  333 55000 20374 88620=
89762 NIL=
89807 NIL=
89809 NIL=
89813 NIL=
89817 NIL=

####018001524####
SMAU03 AMMC 050600
AAXX 05064
94510 46/// /3113 10318 21124 39772 40123=
94515 46/// /2807 10331 21115 39765 40121=
94552 46/// /3012 10310 21071 39655 40127=
94578 46/// /0110 10240 20107 30114 40125=
94584 46/// /0106 10264 20183 30020 40132=
94601 46/// /1406 10140 20017 30239 40256=
94610 46/// /1107 10157 20007 30220 40244=
94637 46/// /1207 10147 21018 39791 40221=
94638 46/// /1910 10125 20018 30217 40250=
94647 46/// /2208 10125 20057 30081 40193=
94651 46/// /2320 10142 20058 30101 40179=
94653 46/// /2516 10157 20084 30137 40156=
94659 46/// /2115 10231 20015 39913 40111=
94672 46/// /2813 10158 20083 30106 40116=
94691 46/// /3017 10300 21078 39751 40080=
94693 46/// /2610 10271 20000 30011 40072=
94703 46/// /2708 10331 21092 39972 40098=
94710 46/// /3114 10308 21109 39843 40099=
94729 46/// /3015 10236 21013 39271 40130=
94750 46/// /0508 10181 20110 30007 40132=
94767 46/// /1111 10196 20116 30128 40134=
94776 46/// /1111 10200 20137 30123 40131=
94782 46/// /1007 10192 20127=
94802 46/// /1202 10125 20029 30174 40259=
94804 46/// /3029 10142 2//// 30060 40098=
94807 46/// /2918 10126 20055=
94821 46/// /3015 10144 20086 30005 40088=
94842 46/// /0612 10130 20102 39987 40086=
94847 NIL=
94850 46/// /0719 10127 20086 30056 40099=
94865 46/// /0210 10186 20083 30071 40096=
94866 46/// /0114 10166 20091 39961 40103=
94875 46/// /0708 10168 20113 39972 40109=
94943 NIL=
94988 46/// /1108 10111 20046 30131 40140=

####018001254####
SMAU01 AMMC 050600
AAXX 05064
94102 46/// /2907 10281 20209 30121 40130=
94103 46/// /1803 10269 30123 40128=
94105 46/// /3107 10327 20169 30079 40100=
94106 46/// /1112 10324 20080 30104 40122=
94108 46/// /0811 10279 20180 30106 40118=
94109 46/// /0608 10281 20176 30106 40118=
94110 46/// /0905 10343 20095 30097 40107=
94120 46/// /3608 10287 20167 30071 40111=
94122 46/// /1806 10300 20184 30105 40114=
94131 46/// /1011 10342 20019 39953 40106=
94132 NIL=
94147 46/// /1115 10290 20193 30106 40128=
94150 46/// /1113 10255 20182 30071 40132=
94170 46/// /0912 10312 20111 30099 40120=
94200 46/// /3012 10271 20178 30114 40123=
94203 46/// /2812 10271 20183 30119 40129=
94206 46/// /2307 10353 21039 39975 40105=
94207 46/// /2512 10242 30118 40127=
94212 46/// /0107 10339 20037 39637 40095=
94216 46/// /0207 10344 20121 30053 40103=
94236 NIL=
94238 46/// /0109 10337 20004 39686 40110=
94248 46/// /0312 10266 20190 30128 40143=
94255 46/// /2906 10338 20005 39855 40119=
94268 46/// /1206 10326 20052 30111 40123=
94287 46/// /0207 10268 20092 30151 40154=
94290 46/// /2010 10237 30142 40149=
94294 46/// /3509 10284 21033 30148 40153=
94298 46/// /1513 10237 30147 40156=

####018000128####
SMMW51 FWCL 050600
AAXX 05061
67586 31965 00907 10200 20085 38832 48551 70500 333 20120 51021 55091
59009 555 10273 7//11=####018001747####
SMID21 WIIX 050600
AAXX 05064
97008 32459 53604 10306 20240 30071 40085 57017 83232
  333 56000 57801 83819 80860=
97016 32564 61805 10306 20228 30094 40099 57021 81131
  333 56400 57844 81820 86360 80858=
97126 32458 71805 10304 20228 30054 40099 57030 82921
  333 56000 57902 81916 82616 87460 80980=
97142 32560 20709 10314 20225 30081 40096 56026 82231
  333 56000 57802 81820 80856=
97182 32568 32108 10319 20282 30089 40092 50028 82101
  333 56000 57800 82820 808//=
97240 32458 51313 10294 20196 30008 40123 57024 84131
  333 56000 84816=
97284 32464 40307 10236 20181 38879 40107 57015 84201
  333 56000 84815=
97310 32565 50207 10294 20196 30101 40113 57012 83221
  333 56000 57803 83820 80856=
97320 32464 23307 10289 20224 30104 40117 58020 82201
  333 56000 57802 82819 80850=
97378 35/// /1110 10275 20183 39959 40170 57015 7////
  333 1//// 2//// 59000=
97380 32464 41307 10302 20209 30102 40124 57018 84101
  333 56200 84815=
97406 32460 42611 10320 20230 30039 40080 57019 83201
  333 56000 57802 83818 80860=
97570 NIL=
97630 32460 52408 10269 20233 39955 40111 57017 82832
  333 56000 57803 82812 80858=
97682 12460 73004 10303 20237 30065 40072 57022 69901 82832
  333 56000 57802 82816 84360 80857=
97698 01458 80704 10282 20244 30081 40084 56015 69901 70262 8217/
  333 56009 69907 82814 88460=
97700 32462 21312 10306 20211 30065 40080 57023 82200
  333 56000 57804 82817 80850=
97722 32462 51708 10277 20234 30098 40108 56021 84832
  333 56200 57822 83819 80856=
97780 31357 62706 10238 20136 38233 40082 57018 70522 83842
  333 56000 57802 83808 84360 80860=
97790 32562 30704 10288 20236 30088 40109 57015 82101
  333 56300 57834 82820 80857=####018001410####
SMTS20 DTTA 050600
AAXX 05064
60710 12560 42205 10216 20216 30062 40141 53004 60004 84200
  333 20210 84820=
60714 12460 53505 10237 20192 30123 40129 53004 60004 85900
  333 20214 84816 81923=
60720 13560 52104 10234 20224 30088 40121 53003 69924 72162 85800
  333 20227 70002 83820 83630=
60728 06/// /2908 10228 20198 30036 40126 53002 60004
  333 10251 20219 59024 60007 70000 91013 91121=
60729 06/// /2306 10215 20203 39969 40149 53004 60004
  333 10255 20194 3/141 59029 60007 70000 91011 91112=
60731 05960 /2806 10220 20169 30125 40132 53005 60004
  333 10262 20212 3//// 59030 5///4 60007 70000 91008 91117=
60732 13560 42102 10176 20170 39567 40159 53007 60004 84200
  333 20162 84823=
60734 NIL=
60738 NIL=
60739 13760 10632 10182 20179 39359 40154 53006 60004 81500
  333 20174 60007 70000 81650 91000 91100=
60740 12560 22608 10228 20190 30125 40134 55000 60004 81280
  333 20223 81820=
60742 13960 02806 10240 20180 30135 40137 51002 60004
  333 20231 70000=
60764 13962 00410 10244 20213 30083 40132 53012 60004
  333 20236=
60770 13975 00000 10229 20174 30002 40136 53009 60004
  333 20226=
60772 13960 00000 10231 20151 39888 40134 53008 60004
  333 20///=
60775 13565 20704 10233 20166 39791 40131 53008 60004 82200
  333 20226 55092 82823 91006 91109=
60780 12660 41007 10246 20176 39825 40118 51007 60004
  333 20239 84833=####018002326####
SMID01 WIIX 050600
AAXX 05064
96009 32457 70505 10318 20244 30059 40093 57027 82872
  333 56000 57804 81817 81618 85360 80850=
96011 32460 61304 10348 20217 30064 40088 57028 83521
  333 56000 83619=
96035 32460 63510 10309 20256 30084 40096 57025 83276
  333 56000 57801 83817 80850=
96073 32560 72507 10322 20238 30086 40100 57023 83222
  333 56000 57802 83820 80860=
96091 32460 71413 10318 20235 30084 40108 57024 82138
  333 56400 82817 87280=
96109 32457 71710 10319 20214 30051 40088 58026 83532
  333 56000 83615=
96145 31410 41808 10328 20242 30094 40096 58015 70400 84110
  333 56400 84817=
96147 31456 51810 10316 20253 30102 40104 56009 84531
  333 56000 84615=
96163 32560 51813 10296 20247 30105 40111 56023 81231
  333 56000 57803 81820 83362 80850=
96179 32459 71809 10315 20250 30077 40112 56017 83208
  333 56300 57832 83817 87280 80850=
96195 32460 61206 10336 20193 30070 40100 58029 82521
  333 56000 82615 83460=
96221 32460 41210 10331 20199 30090 40104 57027 84101
  333 56909 84810=
96237 32460 60911 10316 20227 30064 40106 57023 83231
  333 56000 57802 83816 83360 80860=
96249 32558 71210 10336 20194 30040 40103 57025 84232
  333 56300 57831 84820 80863=
96253 32560 51719 10306 20223 30087 40107 58023 82832
  333 56000 57800 81820 83080=
96295 32558 31510 10335 20199 30002 40106 51031 81521
  333 56000 81620=
96509 32460 62705 10310 20259 30076 40084 57030 84211
  333 56000 84815=
96581 31450 61006 10336 20202 30083 40090 57032 70422 82131
  333 56000 82813=
96633 32460 51906 10302 20232 30091 40097 57025 82211
  333 56500 82618=
96645 32460 31507 10330 20190 30068 40101 57031 83500
  333 56000 83612=
96655 31432 52006 10331 20200 30078 40109 57033 70422 84511
  333 56000 84611 84462=
96685 31556 32004 10342 20196 30067 40088 57029 70444 81511
  333 56000 81620 83462=
96749 32457 70205 10309 20208 30098 40111 56026 84521
  333 56000 84619 85459=
96781 31458 43608 10292 20146 39291 40151 57032 70510 83231
  333 56000 57803 83818 80858=
96805 32459 11307 10278 20209 30122 40130 57024 81201
  333 56200 57823 81818 80858=
96839 32458 41311 10340 20145 30092 40095 57036 81131
  333 56000 81815 83362=
96935 32560 20810 10306 20182 30106 40110 57023 81101
  333 56000 81820=####018002676####
SMID02 WIIX 050600
AAXX 05064
97014 32560 53106 10329 20214 39992 40083 57022 82171
  333 56000 82821=
97028 31462 53104 10310 20241 30077 40079 58029 71722 83921
  333 56000 57902 57802 81919 82820 84460 80960 80860=
97048 32560 41814 10334 20182 30052 40073 57027 82131
  333 56000 82820=
97072 32560 43312 10336 20236 39991 40091 57033 83271
  333 56000 57805 82820 80850=
97086 32560 52013 10284 20226 30084 40105 56026 82271
  333 56000 57804 82820 83360 80860=
97096 32459 40207 10324 20238 30075 40084 57030 82221
  333 56000 57802 82817 80860=
97120 NIL=
97146 32460 30510 10320 20210 30056 40116 56028 83211
  333 56000 57802 83817 80858=
97180 32560 22708 10333 20221 30075 40092 57026 81101
  333 56000 81820=
97192 32460 52903 10302 20214 30058 40122 57027 85201
  333 56000 85619=
97230 NIL=
97260 32560 40907 10328 20170 30091 40096 57030 84101
  333 56000 84820=
97270 32460 31611 10324 20212 30107 40110 57025 83101
  333 56000 83815=
97300 32460 52605 10300 20207 30085 40121 56013 85231
  333 56000 57801 85818 80856=
97340 32560 20313 10298 20224 30110 40122 56019 82101
  333 56000 82820=
97372 32560 43117 10287 20223 30000 40122 56011 83111
  333 56000 83820=
97430 32460 52304 10314 20241 30059 40098 56026 84232
  333 56400 57842 84818 80860=
97460 32459 62312 10288 20232 30075 40097 56021 83872
  333 56000 57802 82818 80858=
97502 32459 51910 10316 20239 30082 40082 57016 84131
  333 56000 84812=
97530 32460 41303 10316 20239 30068 40072 57021 82132
  333 56000 82814=
97560 32460 52505 10303 20259 30064 40077 57019 83235
  333 56000 57803 83818 84360 85279 80860=
97580 32460 70000 10294 20221 30074 40079 58013 83844
  333 56000 57802 81815 82618 84361 80865=
97600 31458 61302 10312 20234 30099 40102 56022 71522 84931
  333 56000 57901 57802 81917 83818 80980 80859=
97686 NIL=
97690 02460 71205 10291 20226 39978 40074 57015 69901 81128
  333 56000 69907 81814 85362 86279=
97724 32560 61907 10282 20223 30090 40109 57019 84872
  333 56200 57822 83819 80859=
97748 31457 71806 10272 20230 30108 40111 56015 70522 84932
  333 56400 57941 57841 81914 83815 84359 80950 80840=
97760 32459 61606 10265 20234 30092 40101 57014 83231
  333 56000 57802 81815 82617 80860=
97796 32460 61610 10308 20244 30058 40106 56020 85132
  333 56000 85817 84362=
97810 32460 71207 10282 20229 30071 40104 57015 84232
  333 56200 57821 84819 84360 80850=
97876 32357 71107 10287 20227 30076 40108 56017 85842
  333 56000 57801 82809 83610 80860=
97900 NIL=
97980 32460 61710 10274 20208 30108 40112 57024 85842
  333 56000 82817 83620=####018000445####
SMCE01 FEFF 050600
AAXX 05064
64600 12260 80000 10208 20199 39482 40131 60064 8667/
  333 02069 20196 55027 59006 86705 88364=
64601 11965 83608 10192 20184 39015 48522 60244 70262 8807/
  333 0//65 20180 58001 88364=
64650 12357 70000 10222 20212 39722 40135 69914 84530
  333 02119 20215 55001 58004 84606 86365=
64605 NIL=
64610 NIL=
64654 NIL=
64655 NIL=
64656 NIL=
64659 NIL=
64660 NIL=
64662 NIL=
64665 NIL=####018002634####
SMID20 WIIX 050600
AAXX 05064
96001 32558 72412 10332 20228 39961 40107 58022 83232
  333 56500 57852 83820 80860=
96015 32560 42306 10310 20242 30099 40105 58021 82572
  333 56000 82620=
96033 32560 60608 10308 20245 30093 40099 57026 82576
  333 56000 82620=
96075 32460 60710 10322 20269 30091 40101 57023 83971
  333 56000 57902 57802 81915 82816 80965 80850=
96087 32460 61407 10316 20241 30074 40119 56020 82518
  333 56300 82614 85280=
96171 32458 71708 10332 20210 30072 40096 57028 85222
  333 56000 57802 85815 80856=
96207 32457 20904 10289 20174 39235 40140 57031 81131
  333 56000 81815=
96505 01457 50000 10287 20192 39054 40146 56035 69901 72162 83131
  333 56000 69907 83815=
96525 31456 60908 10336 20248 30076 40079 57031 70421 83171
  333 56000 83815=
96529 31440 73509 10342 20238 30071 40087 56027 70444 85821
  333 56000 83813=
96535 31458 61603 10336 20242 30077 40094 58029 70422 84101
  333 56000 84814 83082=
96557 31420 31907 10336 20208 30045 40092 57036 70421 81511
  333 56400 81611 83460=
96559 31450 20904 10339 20185 30052 40084 57039 70444 81110
  333 56300 81814=
96565 32457 30000 10328 20244 30047 40098 57038 82411
  333 56000 82615=
96595 31410 50000 10318 20228 30053 40096 57030 70444 85532
  333 56000 85613=
96607 32460 61505 10334 20217 30084 40096 57028 83221
  333 56000 83818=
96615 32957 31707 10328 20223 30091 40102 58033 80001
  333 56000 83082=
96695 32458 51605 10318 20197 30092 40095 56029 83211
  333 56300 57833 83814 80858=
96737 31450 63506 10321 20223 30068 40098 56025 70522 85221
  333 56000 57801 85817 83460 80860=
96739 32456 70306 10317 20238 30059 40112 57026 82522
  333 56000 82618 84460=
96741 32460 60408 10326 20225 30103 40106 57026 83521
  333 56300 83619 85460=
96745 32557 61709 10314 20226 30108 40113 57029 83521
  333 56000 83620 85460=
96751 31558 83202 10238 20199 39046 40101 57022 70522 86211
  333 56200 57821 84820 83670 80870=
96791 32560 31303 10342 20187 30052 40103 56032 81501
  333 56000 81620=
96797 32562 30505 10314 20186 30105 40109 57029 81501
  333 56000 81620=
96837 31959 10807 10335 20156 30093 40094 57038 70500 81001
  333 56000 81080=
96925 32460 51308 10294 20222 30108 40113 57019 84232
  333 56200 57822 84817 80860=
96933 32962 31208 10328 20178 30104 40109 56025 80001
  333 56000 83080=
96937 32962 21408 10326 20194 30107 40110 58025 80001
  333 56000=
96973 32562 21704 10294 20206 30110 40113 57022 81131
  333 56000 81820=
96987 32460 20000 10287 20209 30064 40115 56002 82501
  333 56000 82620=####018000161####
SMKR02 DKPY 050600
AAXX 05061
47101 NIL=
47105 NIL=
47108 NIL=
47115 NIL=
47133 NIL=
47138 NIL=
47159 NIL=
47165 NIL=
47168 NIL=
47184 NIL=####018000739####
SMKR01 DKPY 050600
AAXX 05061
47008 02970 80902 10216 20191 30087 40138 57018 69941 88050 333
69907=
47014 32565 70000 10303 20224 39741 40105 57014 87500=
47016 32470 70000 10264 20166 39290 40114 57023 86501=
47020 01565 60000 10252 20211 39735 40095 57013 69921 72582 86900 333
69927=
47025 32569 81803 10241 20217 30102 40129 57012 885//=
47035 11570 61804 10276 20200 30087 40095 57009 60041 70162 85502=
47041 01560 80000 10232 20220 30093 40118 57010 60021 76166 8802/ 333
69907=
47055 02570 80000 10219 20209 30080 40123 57016 60121 885// 333
60037=
47058 01560 81403 10267 20218 30059 40101 58015 69901 70262 884// 333
69907=
47069 02560 81403 10240 20224 30014 40107 58015 60021 885// 333
69907=####018000975####
SMTS01 DTTA 050600
AAXX 05064
60715 12560 52207 10229 20189 30119 40128 53001 60004 83800
  333 20226 83826 83640=
60723 13970 10000 10199 20182 39965 40148 53004 60004 81200
  333 20190 81826=
60725 12560 22206 10202 20178 39980 40146 53006 60004 82200
  333 20187 82820=
60735 12558 22302 10230 20172 30057 40136 53004 60004 82200
  333 20218 82823=
60745 05960 30706 10216 20178 39783 40140 53008 60004
  333 10290 20210 3/026 59024 5///4 60007 70000 91008 91113=
60748 06/// ///// 10212 20204 39746 40149 53007 60004
  333 10278 20200 3/024 59024 60007 70000 91000 91100=
60750 32560 33304 10238 20187 30101 40125 52006 60004 83800
  333 20226 82820=
60760 12960 00711 10255 20196 30028 40127 53009 60004
  333 10335 20251 3/025 59025 5///4 60007 70000 91014 91124=
60767 12560 20904 10232 20187 39996 40135 53007 60004 82200
  333 20217 82820=
60769 12560 50108 10260 20187 30122 40132 53006 60004 85800
  333 20241 82820 84626=####018000116####
SMMZ01 FQMA 050600
AAXX 05064
67283 35580 20000 10204 20171 40200 82200 333 20150 5///0 55/// 59010
555 10000=####018000138####
SMBD01 WBSB 050600 CCA
AAXX 05064
96315 11458 71509 10304 20258 40092 69921 79598 84978
333 83815 82916 84364 85278=
96323 NIL=
####018000330####
SMUY01 SUMU 050600
AAXX 05064
86330 NIL=
86360 NIL=
86460 NIL=
86490 32960 01403 11010 21027 30298 40322 53002 555 11017 20183 30342=
86530 NIL=
86545 NIL=
86565 32462 40000 10040 20017 30296 40320 50006 84400 555 10030 20178 30338=
86580 32565 51607 10069 20002 30291 40333 51005 85400 555 10040 20205 30337=
####018000322####
SMUY20 SUMU 050600
AAXX 05064
86350 NIL=
86370 NIL=
86430 NIL=
86440 NIL=
86450 NIL=
86500 NIL=
86532 NIL=
86560 NIL=
86575 NIL=
86585 32560 31301 10074 20002 30299 40321 52003 83500 555 10043 20191 30343=
86586 32570 61507 10066 21008 30281 40324 50005 86470 555 10035 20219 30330=
86595 NIL=
####018000182####
SMIY64 EUMS 050600 RRA
AAXX 05064
16171 36/// ///// 10146 20131 30081 40133 57002 333 20137 55000
20000 555 20154 3//16 4//// 5//// 1/136 21110 31111 411// 50011
61110 7////=####018000102####
SMNO02 ENMI 050600 RRB
AAXX 05061
01448 46/// /2901 10111 20080 30014 40024 58005 333 20108 91108=####018000194####
SMIY63 EUMS 050600 RRA
AAXX 05064
16334 36/// /3608 10256 20255 30008 40105 52006 333 20245 55005
20024 555 20245 3//10 40108 53602 60215 1/134 21111 31111 411//
51111 61111 7//// 3/137=####018000188####
SMIY64 EUMS 050600 RRB
AAXX 05064
16288 36/// ///// 1//// 2//// 30047 4//// 57002 333 2//// 55000
20000 555 2//// 3//82 4//// 5//// 62609 1/134 21111 31111 411//
50010 60010 7////=####018000190####
SMIY65 EUMS 050600
AAXX 05064
16129 36/// /3404 10196 20164 39559 48516 57003 333 20190 55027
20010 555 20185 3//// 43404 51700 63406 1/124 20111 31111 411//
51111 61101 7//// 3/133=####018000188####
SMIY65 EUMS 050600 RRA
AAXX 05064
16132 36/// /3309 10166 20092 30076 40134 54000 333 20157 55000
20017 555 20176 3//73 43309 51009 63314 1/134 21111 31111 411//
51111 61111 7////=####018000169####
SMIL02 BIRK 050600 RRA
AAXX 05064
04013 41265 80708 10095 20084 40047 57032 76162 82670 555 3//09=
04064 26/// /0510 10070 20061 40094 57023 333 10070 20070 69967=####018000558####
SMIN90 VABB 050600 RRA
AAXX 05064
43111 21/90 92512 10186 20186 38572 48452 76164
  333 59008 6019/=
43117 32597 72304 10286 20201 40026 85520
  333 59007=
43157 21496 82704 10242 20222 39419 40046 75065 8667/
  333 59007 6996/=
42921 21496 82905 10260 20229 40030 75042 8462/
  333 59004 6992/ 82712 83618 88458=
43110 21495 82908 10248 20239 40025 76266 8772/
  333 59002 6007/ 87712 88456=
43109 21494 82303 10256 20247 40072 76362 8677/
222// 20000
  333 58000 6031/=
43017 32597 52302 10290 20238 40018 83430
  333 59010=####018000749####
SMTG01 DXXX 050600
AAXX 05064
65352 12460 70000 10238 20236 3//// 4//// 60114 81572
  333 20231 5//// 81613 85363 87076=
65361 32455 70000 10232 20232 3//// 4//// 875//
  333 20220 5//// 87610=
65376 31403 72802 10230 20227 39670 40132 74642 875//
  333 20224 59006 87610=
65387 11458 72606 10255 20242 30104 40130 69914 70152 84502
  333 20251 59007 82610 83613 87073=
65351 12460 70000 10223 20223 3//// 4//// 60064 81532
  333 20215 5//// 81613 83362 87076=
65355 12258 70000 10215 20215 39607 40126 60064 81542
  333 20210 59023 81606 84360 87073=
65357 11410 70000 10225 20224 39737 40125 60184 74442 8367/
  333 2//// 59014 83710 87360=
65380 32960 72202 10248 20240 3//// 4//// 80002
  333 20241 5//// 87076=####018000225####
SMIL01 BIRK 050600 RRA
AAXX 05064
04048 26/// /1213 10090 20081 333 10091 20090 60027=
04063 41410 82800 10048 20046 40089 57027 74042 886// 555 3//03=
04077 26/// /1602 10014 20009 400100 57021 333 10016 20011 69907=####018001919####
SMCI02 BABJ 050600
AAXX 05061
56187 32559 71104 10255 20196 40070 57021 87/// 333 05104
20198=
56778 11561 71101 10197 20173 38094 57015 60091 72160 87///
333 05154 20177=
57265 32572 31402 10305 20169 39921 40073 57027 83/// 333
20208=
57461 32964 01103 10307 20181 39776 40066 57026 333 20223=
57494 32969 32901 10316 20189 30042 40070 57022 83/// 333
20233=
57516 11755 93201 10256 20223 39765 40060 57023 69981 76000
333 20220=
57687 32680 43404 10322 20188 39924 40060 57024 84/// 333
20224=
57816 32564 80201 10273 20169 38732 40041 57025 88/// 333
05100 20191=
58040 32965 20903 10296 20157 30078 40085 57017 82/// 333
20187=
58102 32577 31402 10291 20179 30035 40081 57022 83/// 333
20187=
58150 32575 70904 10263 20202 30087 40090 57015 87/// 333
20205=
58221 32666 71402 10274 20207 30051 40083 57020 87/// 333
20189=
58238 11419 83603 10236 20236 30040 40082 57019 69951 76060
88/// 333 20227=
58251 11557 80702 10238 20238 30081 40086 57017 60031 72160
88/// 333 20221=
58362 11975 60703 10265 20253 30060 40068 57024 60181 76060
86/// 333 20249=
58457 32560 70902 10313 20242 30009 40058 57031 87/// 333
20238=
58606 32580 40202 10310 20234 30001 40056 57027 84/// 333
20243=
58752 11570 60906 10308 20242 40044 57024 69901 70060 86///
333 20248=
58847 32680 60903 10323 20212 39934 40030 57027 86/// 333
20242=
59117 32580 60201 10326 20229 39896 40028 57024 86/// 333
20251=
59134 32580 70902 10296 20228 39872 40031 57023 87/// 333
20247=
59287 11980 70203 10306 20251 39944 40025 57026 60011 70060
87/// 333 20252=
59316 11580 71103 10301 20242 30027 40031 57024 69961 70060
87/// 333 20258=
59431 32566 70904 10304 20228 39857 40029 57019 87/// 333
20258=
59644 11569 70903 10311 20247 39999 40015 57019 69901 70060
87/// 333 20268=
59758 32480 70204 10281 20249 39932 40005 57018 87/// 333
20257=####018000108####
SMIN90 VOBG 050600
AAXX 05064
43226 21397 82702 10272 20249 30053 40082 70252 8662/
  333 58005 6994/=####018002092####
SMCI01 BABJ 050600
AAXX 05061
50468 31580 73603 10220 20176 39880 40074 54000 70060 87///
333 20174=
50953 32980 62004 10292 20174 39946 40083 57012 86/// 333
20179=
51076 32680 62202 10221 20089 39269 40095 57009 86/// 333
00153 20122=
51243 11880 71803 10220 20063 39598 40112 52002 69901 70060
87/// 333 00457 20175=
51288 32980 73206 10190 20040 38319 57004 87/// 333 00154
20125=
51463 32980 73403 10215 20087 39063 40098 57002 87/// 333
00455 20159=
51573 32780 71101 10363 20105 39952 49997 57015 87/// 333
05101 20289=
51709 32776 21102 10255 20105 38561 40025 57017 82/// 333
00000 20170=
52533 32780 00703 10296 20050 38449 49998 57012 333 05201
20141=
52652 32980 23603 10310 20031 38461 49987 57015 82/// 333
05101 20145=
52866 11580 20703 10222 20097 37562 57023 69901 70060 82///
333 05151 20100=
52983 11770 51101 10214 20141 38076 57024 60041 70060 85///
333 05153 20117=
53463 32580 21803 10280 20030 38821 40072 57018 82/// 333
05301 20125=
53513 32680 51602 10291 20077 38916 40046 57022 85/// 333
05200 20132=
53588 32477 62203 10156 20099 37803 57005 86/// 333 20106=
53772 32980 02903 10299 20094 39209 40067 57025 333 20121=
53915 32772 70704 10198 20164 38494 40076 57015 87/// 333
05204 20140=
54218 32979 01102 10284 20106 39332 40080 57015 333 20140=
54337 11680 62501 10275 20188 39984 40061 57016 69921 70060
86/// 333 20196=
54342 11580 81402 10228 20218 30017 40075 57007 60021 76060
88/// 333 20191=
54401 32968 51603 10292 20134 39204 40055 57021 85/// 333
20158=
54471 11580 22904 10250 20219 30061 40066 57008 60101 70060
82/// 333 20198=
54497 11580 41804 10266 20207 30074 40091 57010 69951 70060
84/// 333 20203=
54511 32968 72202 10309 20132 30030 40067 57016 87/// 333
20189=
54823 32980 12702 10302 20151 39888 40083 57021 81/// 333
20207=
56080 12580 23402 10201 20091 37148 57020 69911 82/// 333
05100 20071=
56096 32/80 90902 10291 20133 38869 40024 57025 333 05100
20220=
57083 32670 31603 10308 20144 39951 40079 57024 83/// 333
20176=
####018000099####
SMIN90 VOML 050600
AAXX 05064
43257 22494 72702 10230 20230 39355 40081 8//// 333 58005 6024/ =####018000796####
SMIR05 OIII 050600
AAXX 05061
40716 12665 10605 10232 20145 38892 40080 51006 60001 81100 333
30011 50781 70000 555 10178 29058=
40719 11360 82502 10218 20209 30147 40137 51008 60021 70265 8532/
333 32021 50191 70045 85707 81920 88457 555 10212 29094=
40721 12960 03102 10260 20110 39627 40144 52006 60001 333
30017 50791 70000 555 10173 29039=
40858 12960 00000 10360 20152 39990 49997 52009 60001 333 30027 51121 70000 555 10228 29029=
40872 11957 01601 10362 20293 30003 40007 52011 60001 70500 222// 00344 20301 333 30030 5///1 70000 555 10310 29068=
40877 12960 02204 10370 20139 39470 49971 52011 60001 333 30027
51411 70000 555 10224 29025=
40898 12560 21304 10322 20263 30012 40021 50005 60001 82100
222// 00285 20801 333 30028 50831 70000 82825 555 10279 29071=####018000108####
SMIN90 VOMM 050600
AAXX 05064
43377 21497 72905 10270 20256 30057 40098 76062 8572/
  333 58000 6003/=####018000114####
SMIN90 VOMP 050600
AAXX 05064
43185 31597 72704 10312 20243 30026 40029 70252 83530
  333 58005 83620 86360=####018000253####
SMSO02 AMMC 050600
AAXX 05063
91502 01498 81411 10269 20238 40081 55006 69961 71552 8587/
  333 56399 69947 82814 84629 88360=
91507 31498 81804 10280 20221 40070 55003 71522 8597/
  333 56399 82816 81918 83630 85360=
91541 NIL=
91546 NIL=####018000274####
SMIN90 VERC 050600
AAXX 05064
42701 31495 70904 10272 20238 39289 49991 70522 85430
  333 59006 84615 83825 85360=
42798 31596 60906 10310 20254 49981 70522 85430
  333 59006 84620 83825 86360=
42587 31996 20902 10320 20258 49995 70500 83030
  333 59003 83360=####018000096####
SMIN90 VOMM 050600
AAXX 05064
43303 32597 62705 10314 20217 39817 40052 82872
  333 58005=####018000694####
SMIN90 VEBS 050600
AAXX 05064
42971 31496 70502 10296 20274 49977 70522 85330
  333 57951 59009 85618 81930 86360=
42973 32596 60502 10316 20275 49982 83531
  333 59009=
42891 32596 83201 10278 20253 49994 8572/
  333 58000=
42886 31496 70000 10310 20260 49985 70522 85330
  333 57981 59004 84618 81930 86360=
42883 21596 60000 10294 20269 40086 70262 84430
  333 59002 6993/=
42881 21596 60501 10292 20284 49986 70562 83430
  333 59003 6001/=
42895 31496 70000 10306 20273 49980 70262 85430
  333 59009 84618 86360=
43049 21494 82702 10258 20249 49994 76196 8452/
  333 59002 6024/ 84617 88458=
42976 31596 51102 10208 20269 49987 70562 83431
  333 59004=####018000130####
SMIN90 VOBM 050600
AAXX 05064
43198 21396 82712 10230 20221 39237 40055 75065 8477/ 333 56699
59002 6995/ 84707 84612 86458=####018000116####
SMMZ01 FQMA 050600
AAXX 05064
67341 32570 31913 10234 20167 40206 52015 83200 333 20198 5///0 55/// 555
10000=####018000024####
SMSO03 AMMC 050600
NIL####018000131####
SMIN90 VOVZ 050600
AAXX 05064
43149 21496 82508 10264 20250 30006 40009 76066 8272/
333 5659/ 59003 6007/ 82710 83612 88458 =####018020705####
SMZA50 FAPR 050600
AAXX 05064
67215 32580 72208 10244 20210 40194 83252 333 20206 50196 55/// 59001
555 10000=
67283 35580 20000 10204 20171 40200 82200 333 20150 5///0 55/// 59010
555 10000=
67295 32980 00000 10184 20145 39419 48572 333 20140 50670 55083 59020
555 10000=
67297 32570 12904 10208 20172 40200 81230 333 20155 50340 55/// 59010
555 10000=
67301 32980 00506 10200 20026 3//// 48/// 333 20156 5///0 55/// 5////
555 10000=
67323 32580 10000 10216 20191 40202 52022 81100 333 20190 50380 55105
555 10000=
67327 11909 00206 10183 20181 40194 52020 69914 74244 333 20162 50570
55085 555 10000=
67341 32570 31913 10234 20167 40206 52015 83200 333 20198 5///0 55/// 555
10000=
67586 31965 00907 10200 20085 38832 48551 70500 333 20120 51021 55091
59009 555 10273 7//11=
68014 32989 02804 10170 21067 38623 48539 52008
           333 20105  555 10332 2////  91022=
68018 32989 00506 10204 20050 38925 48524 52007
      333 20175 555 10340 91018=
68024 31960 00408 10196 20026 38890 48522 51020 702//
      333 20151 30/// 50511 70000=
68026 31960 00503 10202 20059 39040 48/// 702// 8/000
      333 10339 20125 30/// 50611 70000=
68029 31960 00802 10213 20041 39048 48/// 52017 70500 8/000
      333 10322 20127 30/// 5///1 70000=
68054 31960 00205 10195 20008 39058 48556 51018 70200 8/000
      333 10304 20065 30/// 5///1 70000=
68098 12389 80105 10122 20099 30077 40187 53005 69924 88600
      333 20120 91007 555 10130 20002 91018=
68109 32989 01702 10119 21088 38329 4//// 52009
    333 2//// 9//// 555 1//// 91023=
68110 36/// /1103 10157 21084 38305 48528 53005
      333 20142 91004 555 10309 91022=
68112 32989 00000 10115 21100 38350 48537 53002
      333 2//// 91005 555 1//// 91023=
68116 36/// /3303 10142 21097 38581 48527 53003
      333 20097 91006 555 10341 91021=
68155 36/// /0704 10206 20011 39240 48565 52017
      333 20130 91007 555 10311 91021=
68163 36/// /0903 10203 20023 39073 48566 53010
      333 20074 91005 555 10306 91022=
68172 36/// /1405 10227 20007 39387 48569 53013
      333 20144 91008 555 10314 91020=
68174 31965 02403 10135 21001 38835 48552 53011 70400
      333 20099 91004 555 10270 91023=
68176 36/// /0802 10183 20014 39186 48563 53016
      333 20092 91004 555 10322 91022=
68182 36/// /3602 10178 20048 39412 48586 53024
      333 20133 91003 555 10324 91023=
68183 16/// /2104 10185 20036 39545 48620 53021 69924
      333 20132 91007 555 10322 20002 91026=
68184 36/// /1502 10169 20029 39120 48579 53027
      333 20166 91004 555 10290 91024=
68186 36/// /1903 10187 20046 39357 48594 53020
      333 20134 91007 555 10316 91024=
68187 36/// /1105 10190 20096 39684 48591 53022
      333 20110 91011 555 10335 91022=
68188 36/// /0000 10188 20057 39263 48583 53020
      333 20103 91002 555 10322 91024=
68189 36/// /1605 10180 20016 39058 48566 53015
      333 20172 91008 555 10290 91023=
68190 36/// /1802 10220 20064 39557 40274 52033
      333 20163 555 10344 91030=
68192 32970 02803 10193 20047 39568 48631 53022
      333 20121 91004 555 10326 91027=
68196 36/// /0902 10215 20043 39666 48586 53018
      333 20180 91003 555 10326 91020=
68212 36/// /1502 10175 21069 38932 48541 53010
      333 20161 91005 555 10337 91021=
68241 36/// /0605 10191 21035 39040 48558 53012
      333 20116 91010 555 10303 91022=
68242 32980 00506 10188 21032 38762 48541 53007
      333 20104 91010 555 10296 91021=
68248 36/// /1604 10141 20000 38997 48563 53008
      333 20087 91007 555 10303 91024=
68249 36/// /0000 10192 21000 38828 48570 53011
      333 20093 91002 555 10285 91025=
68250 36/// /0000 10139 21020 39025 48550 52013
      333 20071 91001 555 10312 91022=
68254 36/// /1702 10166 21018 38842 48566 53015
      333 20077 91003 555 10292 91024=
68255 36/// /1104 10171 20004 38904 48547 53011
      333 20102 91006 555 10297 91022=
68257 36/// /0000 10188 21004 38978 48556 52011
      333 20106 91002 555 10307 91022=
68258 36/// /2502 10128 20015 38901 48558 53008
      333 20063 91004 555 10306 91024=
68260 36/// /0303 10155 21005 38696 48573 53008
      333 20099 91006 555 10280 91026=
68263 32970 01304 10172 21003 38527 48550 52007
      333 20089 91006 555 10265 91024=
68264 36/// /0905 1//// 2//// 38550 4//// 53002
      333 2//// 91008 555 1//// 91024=
68267 11958 01006 10117 20051 38288 48564 52010 69944 70500
      333 20056 91009 555 10248 20004 91026=
68268 36/// /0000 10183 21019 38931 48568 52013
      333 20076 91003 555 10303 91024=
68269 36/// /0904 10174 20015 38607 48545 53003
      333 20120 91008 555 10290 91023=
68271 36/// /3503 10199 20019 38961 48563 53008
      333 20149 91006 555 10306 91023=
68272 36/// /2502 10160 20028 39135 48569 53010
      333 20110 91003 555 10308 91023=
68273 36/// /0704 10168 21003 38505 48559 53006
      333 20106 91006 555 10270 91025=
68274 36/// /0000 10129 20016 38677 48567 53009
      333 20057 91002 555 10285 91025=
68290 31970 00000 10175 20113 39241 48584 52015 70500
      333 20144 91002 555 10314 91024=
68300 36/// /1807 10128 20103 30020 40173 53012
      333 20121 91010 555 10243 91017=
68312 32889 10000 10187 21075 38976 48535 56020 81081
      333 20173 91003 555 10325 91019=
68322 32880 61706 10196 21127 39165 48534 52012 81070
      333 20186 91011 555 10352 91018=
68325 41960 10307 10187 21023 38770 48542 51010 702// 81001
      333 20144 30/// 5///1 81062=
68328 32960 01706 10163 2//// 48/// 52020 87080 333 20108=
68329 36/// /0704 10185 21068 39126 48551 52006
      333 20159 91006 555 10333 91020=
68331 36/// /1509 10166 21092 38868 48547 53002
      333 20131 91012 555 10292 91022=
68333 36/// /2002 10138 21069 38727 48545 53009
      333 20106 91006 555 10285 91023=
68335 36/// /2007 10135 21041 38954 48554 53007
      333 20086 91012 555 10311 91023=
68336 36/// /1702 10138 21048 38888 48552 53005
      333 20082 91005 555 10290 91023=
68338 36/// /1602 10159 21057 38811 48550 53008
      333 20075 91003 555 10315 91023=
68341 36/// /3107 10186 20003 38571 48568 53008
      333 20089 91012 555 10281 91026=
68342 36/// /0000 10161 21018 38549 48546 52011
      333 20067 91001 555 10269 91023=
68343 36/// /0202 10125 20009 38838 48552 53011
      333 20043 91004 555 10288 91023=
68345 36/// /0707 10136 21065 38709 48548 53011
      333 20073 91009 555 10271 91023=
68347 36/// /0000 10112 21044 38396 48226 51003
      333 20070 91003 555 10275 90986=
68348 36/// /0906 10117 21066 38797 48554 53009
      333 20050 91010 555 10281 91024=
68349 36/// /0206 10156 21022 38544 48537 52007
      333 20093 91010 555 10265 91022=
68350 36/// /0604 10119 21022 38704 48549 53007
      333 20052 91006 555 10283 91023=
68351 36/// /0000 10141 21031 38476 48557 53002
      333 20050 91003 555 10267 91025=
68352 36/// /0000 10184 21002 38394 48551 52005
      333 20081 91002 555 10272 91025=
68353 36/// /2003 10102 21020 38564 48543 55000
      333 20053 91005 555 10266 91023=
68355 36/// /1107 10106 20034 38618 48554 53006
      333 20058 91010 555 10264 91024=
68361 36/// /0000 10182 20000 38422 48545 53005
      333 20094 91001 555 10274 91024=
68362 36/// /2705 10092 21012 38497 48506 52013
      333 20020 91007 555 10261 91019=
68368 31960 00705 10165 21006 38359 48553 53005 70500 333 20111 555 10246 91025=
68375 36/// /1504 10109 20044 38390 48565 53007
      333 20053 91019 555 10259 91026=
68376 36/// /1105 10086 20060 38298 48567 53006
      333 20043 91007 555 10240 91026=
68397 36/// /2004 10229 20183 30121 40217 52011
      333 20198 91011 555 10323 91021=
68400 32/// /1807 10219 20158 30133 40207 52013
      333 20196 91014 555 10335 91020=
68403 36/// /2903 10107 20100 30174 40203 53006
      333 20098 91005 555 10177 91020=
68408 36/// /1306 10104 20093 30187 40196 53003
      333 20085 91009 555 10163 91019=
68411 36/// /2602 10190 20007 39972 48575 53010
      333 20163 91003 555 10355 91018=
68416 32984 01805 10142 21030 39085 48549 52011
      333 20120 91009 555 10292 91022=
68424 32882 42402 10178 21074 39231 48546 52010 81070
      333 20157 91004 555 10316 91019=
68425 36/// /0000 10179 21052 39462 48562 53006
      333 20146 91003 555 10342 91020=
68429 36/// /2404 10144 21095 38729 48545 53008
      333 20117 91006 555 10282 91023=
68438 32882 61406 10120 21079 38860 48544 52012 86070
      333 20070 91009 555 10292 91022=
68439 36/// /1408 10110 20031 38952 48556 52014
      333 20108 91013 555 10280 91024=
68442 32880 71804 10111 21049 38705 48553 53017 87070
      333 20026 91007 555 10260 91024=
68443 36/// /0902 10116 21067 38673 48574 53013
      333 20056 91006 555 10269 91026=
68447 36/// /1405 10095 21076 38776 48562 53018
      333 20016 91007 555 10279 91025=
68449 36/// /0000 10057 21050 38445 48575 52033
      333 20003 91002 555 10244 91027=
68454 32589 70000 10081 21041 38423 48/// 5//// 83520 333 20059 555
10228=
68461 32980 70000 10063 20029 38373 48566 53007 80008
      333 20000 91007 555 10239 91026=
68471 36/// /1503 10101 20078 38376 48561 53008
      333 20083 91006 555 10258 91026=
68478 32589 81302 10142 20084 38896 48544 52013 885//
      333 20123 91003 555 10273 91022=
68479 36/// /1305 10145 20099 39025 48577 53011
      333 20124 91007 555 10303 91025=
68481 36/// /1305 10199 20129 39854 40226 52011
      333 20168 91008 555 10324 91023=
68485 36/// /0000 10126 20081 38689 48577 53015
      333 20105 91002 555 10258 91027=
68487 36/// /1602 10144 20119 39071 48581 53015
      333 20117 91003 555 10285 91025=
68488 36/// /0000 10181 20103 39346 48589 52013
      333 20144 91002 555 10303 91024=
68490 36/// /0000 10189 20159 30139 48622 53007
      333 20173 91003 555 10257 91023=
68491 36/// /2103 10203 20167 30213 40222 52012
      333 20187 91005 555 10292 91022=
68492 36/// /2102 10214 20176 30168 48633 52012
      333 20198 91003 555 10278 91022=
68493 36/// /2202 10178 20109 39622 48598 52014
      333 20141 91004 555 10298 91024=
68494 16/// /3203 10187 20140 30100 40234 53015 60014
      333 20150 91004 555 10265 20012 91023=
68495 36/// /2603 10195 20167 30189 40231 52015
      333 20180 91005 555 10246 91023=
68497 36/// /2504 10172 20146 30186 40235 53011
      333 20146 91006 555 10250 91023=
68512 32882 11118 10156 20010 39059 48549 53003 81080
      333 20144 91030 555 10258 91021=
68513 36/// /1313 10107 20091 30091 40206 53002
      333 20105 91018 555 10199 91020=
68516 36/// /3503 10115 20089 39929 48568 53001
      333 20091 91007 555 10262 91022=
68523 36/// /1409 10140 20041 39156 48554 53007
      333 20134 91013 555 10280 91022=
68524 32986 81410 10129 20049 39121 48561 52012 8807/
      333 20127 91015 555 10288 91023=
68527 36/// /1307 10152 20021 39131 48559 56001
      333 20142 91012 555 10301 91022=
68538 32782 81212 10099 20045 38791 48566 53023 8357/
      333 20084 91019 555 10268 91025=
68541 36/// /1709 10110 20033 38693 48574 53016
      333 20049 91013 555 10271 91026=
68542 36/// /2603 10072 20021 38601 48565 53017
      333 20023 91006 555 10265 91026=
68543 36/// /1609 10096 20056 38809 48568 53016
      333 20085 91012 555 10272 91026=
68546 36/// /1706 10100 20052 38727 48569 53013
      333 20069 91011 555 10257 91026=
68549 36/// ///// 10057 20004 38668 48574 53015
      333 20010 555 10253 91027=
68558 36/// /0000 10064 21001 38288 48612 52013
      333 20004 91001 555 10217 91032=
68572 31324 80502 10103 20068 38471 48580 52016 70344 886//
      333 20085 91003 555 10267 91028=
68573 36/// /2606 10107 20091 38948 48583 53018
      333 20101 91008 555 10233 91027=
68575 36/// /2006 10137 20103 39180 48590 53016
      333 20127 91011 555 10247 91026=
68577 36/// /0000 10102 20061 38647 48593 53017
      333 20084 91002 555 10251 91029=
68579 16/// /1809 10143 20135 39658 48599 53020 60034
      333 20141 91012 555 10222 20030 60165 91025=
68581 16/// /0102 10142 20132 39465 48591 53017 60024
      333 20136 91003 555 10254 20026 69945 91025=
68582 16/// /1807 10149 20145 39406 48586 53016 60024
      333 20139 91012 555 10256 20028 69925 91025=
68583 16/// /2002 10176 20125 30126 40238 53018 60064
      333 20172 91007 555 10257 20060 69965 91023=
68585 16/// /2110 10185 20159 30215 40232 53015 69924
      333 20174 91023 555 10250 20002 69925 91023=
68587 16/// /2606 10167 20149 30239 40255 53020 60064
      333 20167 91010 555 10229 20068 60105 91025=
68588 16/// /3603 10161 20154 30129 40244 53016 60194
      333 20159 91006 555 10264 20198 69925 91024=
68589 36/// /2202 10101 20045 38312 48574 53015
      333 20082 91005 555 10246 91027=
68591 16/// /1908 10154 20147 30077 40259 53021 60064
      333 20153 91013 555 10225 20066 60585 91026=
68592 12270 82106 10164 20157 30119 40246 5//// 69944 885//
      333 20160 91009 555 10239 20004 91024=
68593 16/// /2203 10183 20166 30226 40242 53018 60124
      333 20177 91005 555 10263 20122 60125 91024=
68594 12270 82009 10173 20160 30128 40236 52015 69944 885//
      333 20171 555 10244 20004 91023=
68613 36/// /1706 10106 20078 30118 40233 53010
      333 20085 91007 555 10212 91023=
68614 32880 23003 10113 20087 30177 40228 52015 82080
      333 20091 91006 555 10267 91022=
68618 32880 30816 10113 20052 39114 48561 53006 81082
      333 20088 91021 555 10257 91024=
68619 32880 31607 10108 20059 39393 48556 52010 83080
      333 20095 91014 555 10244 91022=
68624 32/// /1110 10090 20044 38816 48566 52008
      333 20082 91018 555 10253 91025=
68633 36/// /1515 10097 20058 38576 48568 53008
      333 20082 91022 555 10257 91026=
68647 36/// /0702 10109 20079 39007 48593 53017
      333 20103 91007 555 10236 91028=
68649 36/// /1605 10085 20052 38471 48586 53015
      333 20055 91010 555 10232 91028=
68651 36/// /1606 10095 20072 38634 48593 53008
      333 20074 91009 555 10226 91029=
68668 11215 81807 10111 20107 39398 48594 53010 60034 75966 886//
      333 20107 91012 555 10223 20038 69925 91027=
68674 16/// /3003 10152 20145 30220 40251 53017 60754
      333 20151 91007 555 10236 20750 60225 91025=
68677 16/// /2509 10159 20135 30159 40266 53011 60424
      333 20147 91017 555 10242 20422 91026=
68695 36/// /1806 10125 20076 30199 48595 52010
      333 20101 91013 555 10219 91023=
68710 36/// /1302 10085 20059 30219 48574 53011
      333 20052 91003 555 10270 91023=
68711 36/// /1202 10112 20073 30110 40232 53007
      333 20099 91003 555 10261 91023=
68712 32970 21515 10131 20082 30159 40234 52008 82060
      333 20113 91021 555 10164 91023=
68713 36/// /2104 10147 20063 30123 48615 52016
      333 20127 91007 555 10218 91025=
68714 36/// /1908 10121 20070 30192 48586 52009
      333 20105 91011 555 10214 91022=
68715 36/// /0000 10088 20069 30116 48573 52013
      333 20066 91002 555 10214 91023=
68716 16/// /1205 10116 20065 30023 48585 52013 69924
      333 20073 91009 555 10212 20002 91023=
68717 36/// /0503 10092 20073 30082 48567 52017
      333 20064 91005 555 10239 91022=
68718 32589 81203 10130 20089 30034 48633 52012 885//
      333 20126 91009 555 10202 91028=
68719 36/// /0606 10093 20045 39169 48591 52023
      333 20053 91010 555 10219 91028=
68722 32480 81009 10073 20047 38619 48572 52011 885//
      333 20053 91014 555 10211 91027=
68723 36/// /1205 10116 20065 39505 48602 53013
      333 20107 91008 555 10214 91027=
68727 36/// /0808 10104 20071 39226 48587 53011
      333 20103 91013 555 10240 91027=
68737 31308 81707 10107 20091 39349 48593 52016 76122 886//
      333 20105 91013 555 10241 91027=
68744 36/// /1513 10096 20070 39197 48586 53014
      333 20096 91019 555 10231 91027=
68747 16/// /1607 10112 20104 39742 48612 53017 69944
      333 20112 91010 555 10240 20004 69925 91028=
68752 16/// /1811 10101 20099 39581 48602 52023 60014
      333 20100 91015 555 10114 20010 69925 91028=
68809 36/// /1104 10123 20068 30090 48589 53008
      333 20098 91007 555 10207 91023=
68810 36/// /3307 10143 20071 30034 48605 52016
      333 20121 91012 555 10226 91024=
68811 36/// /1407 10129 20080 30233 40241 52010
      333 20100 91011 555 10199 91024=
68815 36/// /3003 10101 20060 39725 48598 52022
      333 20052 91005 555 10223 91027=
68816 32681 11515 10140 20081 30185 40241 55010 81500
 333 20131 91020 555 10193 91024=
68817 36/// /1621 10154 20067 30223 40236 52010
      333 20142 91039 555 10183 91023=
68819 36/// /1611 10146 20065 30108 48593 53001
      333 20141 91037 555 10186 91022=
68820 36/// /1708 10147 20075 30236 48623 52008
      333 20137 91018 555 10189 91025=
68821 36/// /1408 10133 20086 30037 48631 52016
      333 20118 91013 555 10224 91028=
68822 16/// /1511 10118 20059 39969 48599 52010 69944
      333 20116 91027 555 10199 20004 91025=
68823 36/// /0000 10124 20060 39645 48611 53006
      333 20072 91002 555 10255 91027=
68825 36/// /0804 10114 20077 39651 48614 53017
      333 20110 91009 555 10216 91028=
68827 12670 71402 10138 20082 39898 48634 5//// 69984 875//
      333 20135 91003 555 10138 20008 69985 91029=
68828 11470 83503 10120 20099 30050 40289 53011 60054 70262 885// 333 20115 91004 555 10192 20045 91029=
68829 16/// /0000 10107 20099 39972 40292 53008 60134
      333 20102 91005 555 10193 20138 69965 91028=
68832 32570 60803 10112 20071 39310 48607 52013 85300
      333 20087 91005 555 10215 91029=
68833 16/// /1104 10107 20096 39619 48617 53012 69944
      333 20104 91006 555 10196 20004 91029=
68835 16/// /0000 10125 20114 30187 40303 53016 60024
      333 20121 91002 555 10205 20026 69925 91030=
68837 16/// /2004 10132 20111 30234 40291 53015 60024
      333 20124 91006 555 10210 20028 91029=
68840 36/// /1609 10110 20092 39683 48616 53016
      333 20109 91012 555 10222 91029=
68841 16/// /2802 10124 20119 30121 48637 53018 60014
      333 20119 91003 555 10235 20012 69925 91029=
68842 11670 81607 10139 20096 30219 40288 52001 60074 76062 885// 333 20123 91010 555 10194 20072 91028=
68843 16/// /2903 10120 20109 30181 40283 53018 60084
      333 20118 91006 555 10214 20080 69945 91028=
68844 16/// /1607 10136 20094 30222 40295 53016 60064
      333 20123 91010 555 10194 20060 69925 91029=
68848 16/// /1804 10146 20098 30279 48660 53013 60044
      333 20135 91009 555 10205 20042 69945 91029=
68849 36/// /1710 10096 20093 39526 48600 53015
      333 20092 91015 555 10186 91028=
68858 11138 82311 10134 20131 30124 40284 53026 60064 76266 885// 333 20131 555 10225 20062 91028=
68911 36/// /1223 10141 20083 30243 40251 53005
      333 20138 91036 555 10207 91025=
68912 32374 21417 10140 20043 30247 40256 52007 81101
      333 20130 91029 555 10182 91025=
68916 36/// /1031 10118 20084 39982 40258 52004
      333 20113 91043 555 10171 91025=
68918 16/// /1013 10131 20095 30260 40277 52007 69924
      333 20112 91019 555 10185 20002 91027=
68920 12470 11508 10152 20106 30273 40286 52010 69924 81800
      333 20144 91014 555 10184 20002 91028=
68921 16/// /1013 10149 20105 30288 40292 53007 69924
      333 20141 91018 555 10190 20002 91029=
68922 16/// /1004 10138 20076 30110 48645 52012 69964
      333 20125 91008 555 10171 20006 91029=
68923 16/// /1003 10130 20100 30109 48645 53007 69964
      333 20112 91005 555 10194 20006 91029=
68924 36/// /1806 10110 20087 30268 48632 53005
      333 20021 91009 555 10183 91028=
68925 16/// /0907 10109 20077 39921 48609 52007 69924
      333 20099 91014 555 10173 20002 91027=
68926 16/// /0000 10124 20099 30122 40307 52015 60014
      333 20119 91001 555 10175 20014 91030=
68927 16/// /1106 10142 20084 30166 40291 53011 69944
      333 20116 91009 555 10199 20004 91029=
68928 16/// /0502 10133 20117 30118 40282 53010 60034
      333 20132 91010 555 10178 20030 91028=
68931 16/// /0806 10128 20120 30137 40305 53009 60254
      333 20120 91009 555 10178 20250 91030=
68933 16/// /0606 10132 20125 30297 40305 52017 60364
      333 20129 91009 555 10186 20362 69945 91030=
68935 16/// /0503 10125 20105 30227 40293 53011 60234
      333 20122 91006 555 10186 20230 69925 91029=
68939 16/// /1914 10155 2//// 30285 40295 53014 60024
      333 20136 91018 555 10176 20028 91029=####018000110####
SMIN90 VEBS 050600
AAXX 05063
43053 31496 82304 10308 20269 49978 70262 8467/
222// 20701
  333 59009=####018000104####
SMAA01 EFKL 050600
AAXX 05061
89014 46/// ///// 1//// 2//// 90600
333 1//// 2//// 3//// 555 7////=####018000082####
SMAL51 EUMS 050600 RRB
AAXX 05064
60664 36/// /0000 10276 20073
  333 20268=####018000082####
SMAL54 EUMS 050600 RRA
AAXX 20064
60621 36/// /3509 10259 20083
  333 20259=####018000922####
SMHV01 DFFD 050600
AAXX 05064
65501 32960 72602 10260 20231 39801 40110 81032
  333 02500 20258
50611 55077 59004 81360 87076=
65502 12960 82202 10235 20217 39727 40105 60164 8807/
  333 01559
20234 50671 55087 59013 88363=
65503 NIL=
65505 32965 72204 10226 20225 39780 40118 82032
  333 02400 20225
50404 55072 59007 82363 86076=
AAXX 05063
65507 12960 72404 10235 20223 39767 40114 60044 8707/
  333 02159
20235 50251 55012 59008 87363=
AAXX 05064
65510 12460 70000 10220 20220 39602 40117 60594 81532
  333 01759 20217 5///1 55054 59008 81616 86363=
65516 12460 70000 10235 20228 39811 40117 60034 81672
  333 02359
20230 50334 55056 59010 81713 87363=
65518 12960 72202 10227 20220 39746 40108 60014 84032
  333 02159
20226 50241 55057 59005 84363 84076=
65522 12565 70000 10230 20223 39795 40127 60024 81572
  333 02259
20227 50351 55067 59006 81620 83363 85076=####018000082####
SMAL51 EUMS 050600 RRA
AAXX 20064
60612 36/// /0000 10299 20050
  333 20292=####018000493####
SMGG10 UGGG 050600
AAXX 05061
37395 32999 60904 10230 20164 39974 40105 53001 86030
  333 20190=
37409 32598 50912 10156 20132 38752 48486 53004 83540
  333 20130 95032=
37496 36/// /1904 10252 20182 30099 40104 51006 60002
  333 20221=
37514 12699 30000 10190 20126 39019 40110 52011 69990 83500
  333 20133 95040=
37545 32599 81804 10211 20159 39651 40145 52007 883//
  555 20173 7000/=
37621 32598 80000 10191 20129 39545 40156 52017 69900 70382 88500
  333 20177=####018000078####
SMAL56 EUMS 050600
AAXX 05064
60692 36/// /0000 10305 20101
  333 20303=####018000574####
SMBJ01 DBBB 050600
AAXX 05064
65306 12958 70000 10225 20219 39795 40130 60384 85072
  333 02198 20210 50124 55054 59017 85363 83076=
65319 12960 71204 10214 20205 39637 40114 60134 86032
  333 02056 20208 50114 55034 59019 86361 83076=
65330 31330 82206 10235 20225 39683 40125 71022 885//
  333 02100 20220 50154 55073 59009 88608=
65335 12358 81802 10238 20222 39902 40132 69904 885//
  333 02359 20230 50084 55017 59004 88608=
65344 12360 82412 10259 20234 30124 40135 60044 8787/
  333 02469 20250 50434 55084  59002  85610 83813 87360 94919 95834=####018001725####
SMLY01 HLMC 050600
AAXX 05064
62002 32960 40000 10233 20163 39438 48537 53005 84537
  333 20220 50924 55/// 84360=
62007 32960 52603 10250 20201 30131 40135 53005 85030
  333 20234 5//// 55/// 85360=
62008 32960 41008 10224 20113 39353 48525 51004 84200
  333 20224 50814 55/// 84820=
62009 NIL=
62010 NIL=
62011 32560 50000 10204 20129 39321 48/// 5//// 85500
  333 20189 5//// 55/// 85630=
62012 32560 22508 10240 20199 30098 40127 52002 82100
  333 20233 5//// 55/// 82825=
62014 32560 30000 10230 20199 3//// 4//// 5//// 83200
  333 20210 5//// 55/// 83825=
62016 32558 22606 10238 20210 30086 40121 56003 82500
  333 2//// 50714 55107 82625=
62018 NIL=
62019 12560 23310 10250 20220 3//// 4//// 5//// 60034 82200
  333 20245 50384 55/// 82825=
62053 31558 30000 10250 20213 39960 40115 52008 71000 83500
  333 20235 50524 55107 83620=
62054 32560 43608 10235 20205 39832 4//// 5//// 84200
  333 20175 50624 55/// 84630=
62055 NIL=
62056 NIL=
62059 NIL=
62062 32960 00000 10252 20203 40088 52002
  333 20225 50334 55108=
62103 32970 02108 10250 20070 39726 4//// 5////
  333 20245 5//// 55117=
62120 32970 01306 10224 20184 39550 48/// 5////
  333 20160 50994 55///=
62124 NIL=
62131 32970 00000 10220 20166 39839 40140 5////
  333 20210 50864 55115=
62161 32970 03005 10255 20210 30049 53010
  333 20240 51104 55///=
62176 32970 00610 10260 20163 30091 40090 51010
  333 20240 51504 55///=
62200 32960 00000 10242 20137 3//// 4//// 5////
  333 20234 51304 55114=
62212 NIL=
62225 NIL=
62259 32970 03608 10275 20190 40118 58001
  333 2//// 51904 55///=
62271 32970 00000 10312 20065 39652 40130 5////
  333 20266 5//// 55///=####018000084####
SMMG01 EUMS 050600
AAXX 05061
67074 36/// /2504 10233 20201 30203
  333 20198=####018000078####
SMAL52 EUMS 050600
AAXX 05064
60667 36/// /0000 10306 21286
  333 20282=####018000130####
SMCD01 FTTJ 050600 RRA
AAXX 05063
64700 32960 51806 10260 20235 39768 40103 80002
  333 0//00 20250 50731 55068 58000 85075=####018000126####
SMCD01 FTTJ 050600
AAXX 05063
64700 32960 51806 10260 20235 39768 40103 80002
  333 0//00 20250 50731 55068 58000 85075=####018000413####
SMLV10 UMRR 050600
AAXX 05061
26313 43/// /1705 10157 2//// 30092 40097 5//// 333 91007=
26346 43/// /1802 10125 20103 39912 40393 5//// 333 91004=
26406 43/// /1604 10168 20126 30088 40098 5//// 333 91008=
26416 43/// /1803 10158 20113 39980 40113 57008 333 91006=
26422 NIL=
26424 43/// /1804 10153 20119 30073 40175 5//// 333 91006=
26544 43/// /1502 10158 20143 30044 40161 57002 333 91003=
####018000475####
SMAU40 AMMC 050600
AAXX 05064
94210 46/// /2708 10255 30121 40127=
94289 46/// /2208 10248 30141 40148=
94307 46/// /2611 10247 20133 30089 40123=
94379 46/// ///// 10229 30143 40153=
94934 46/// /0505 10163 20110 30115 40139=
94974 46/// /1811 10114 20065 30088 40112=
95283 46/// /0708 10267 20131 30147 40154=
95288 46/// /1807 1//// 30133 40148=
95675 46/// /2607=
95756 46/// /1210=
95872 46/// /1309=
95961 46/// /1410 10116 20063 30085 40127=####018000086####
SMRW01 HRYR 050600
AAXX 05064
64387 NIL=
64380 NIL=
64381 NIL=
64383 NIL=
####018000385####
SMBZ36 SBBR 050600 RRA
AAXX 05064
82599 32570 31605 10225 20204 30098 40158 83200 333 58000 60001=
82824 21558 32003 10254 20224 30023 40124 72196 84200 333 58007 60011=
82899 21458 81603 10222 20212 30156 4//// 71586 85130 333 60021=
83248 32470 31206 10246 20225 30160 40182 83200 333 58004 60001=
83746 31358 82705 10204 20184 30214 40225 57005 71022 885// 333 60001=
####018000447####
SMKA02 PTTP 050600
AAXX 05064
91353 11474 81806 10300 20256 30085 40086 5//// 60131 70282 83208 
333 564/9 70127 83818 86280 555 90506
91350 11474 82706 10278 20259 30080 40081 5//// 60041 70282 882// 
333 56699 70043 88817 555 90506
91425 11474 82106 10278 20261 30092 40093 5//// 60101 70282 882// 
333 56599 70104 88817 555 90506
91434 11474 82206 10283 20253 30075 40076 5//// 60071 70282 882// 
333 56499 70069 88817 90506
####018000119####
SMGY01 SYCJ 050600
AAXX 05060
81002 11460 32302 10235 20232 40128 60001 70511 81202 333 31/// 58012
 81817 83080=
####018000093####
SMAA12 RJTD 041800 RRA
OOX2 MOBIL 04181 99740 30430 54791 33532 46/// /2709 10000 36282=
####018000079####
SMAA01 EDZW 050600
AAXX 05064
89047 46/// /1801 11393 21432 39806 49937=
####018000079####
SMAA01 EDZW 050600
AAXX 05064
89011 46/// /1215 11228 21276 39087 49827=
####018000091####
SMAA01 EDZW 050600
AAXX 05064
89002 42499 61111 11304 21340 39746 49808 57001 83520=
####018000093####
SMAA12 RJTD 041200 RRA
OOX2 MOBIL 04121 99740 30430 54791 33532 46/// /2712 10000 36300=
####018000079####
SMAA01 EDZW 050600
AAXX 05064
89003 46/// /1213 11244 21272 38947 49809=
####018000093####
SMAA12 RJTD 040600 RRA
OOX2 MOBIL 04061 99740 30430 54791 33532 46/// /2714 10000 36316=
####018000093####
SMAA12 RJTD 050000 RRA
OOX2 MOBIL 05001 99740 30430 54791 33532 46/// /2713 10000 36256=
####018000120####
SMCN24 CWAO 050600 RRA
AAXX 05064
71404 46/// ///// 10128 20123 39819 40082 58020 6///1 
333 10153 20096 7////=
####018000136####
SMCN03 CWAO 050600 RRA
AAXX 05064
71472 16/// /1004 10144 20120 30190 40207 51004 60001 
333 10152 20128 70002 555 33221 4010/=
####018000216####
SMCN25 CWAO 050600 RRA
AAXX 05064
71501 16/// /1402 10071 20063 30138 40141 51014 60001 
333 10103 20039 70000 555 32418 4022/=
71507 16/// /2104 10109 20106 69961 
333 10191 20100 70054 555 33320 40220=
####018000298####
SMCN20 CWAO 050600 RRA
AAXX 05064
71015 46/// ///// 10175 6///1 
333 7////=
71016 46/// ///// 10109 6///1 
333 7////=
71018 16/// /3405 10001 21014 30057 40143 53007 60001 
333 10048 21001 70000 555 30318 4013/=
71047 17/// ///// 10113 20109 69981 7//4/ 
333 10237 20100 70008=
####018000136####
SMCN21 CWAO 050600 RRA
AAXX 05064
71141 16/// /3213 11009 21013 30137 40163 53009 60001 
333 10008 21010 70000 555 33217 4005/=
####018000084####
SICN25 CWAO 050300 RRI
AAXX 05034
71507 26/// /2403 10121 20112 
333 69967=
####018000176####
SMCN23 CWAO 050600 RRA
AAXX 05064
71334 46/// /3501 10007 20000 39871 6///1 
333 7////=
71346 16/// /2105 10123 20068 60001 
333 10286 20114 70008 555 32825 40211=
####018000118####
SMCN22 CWAO 050600 RRA
AAXX 05064
71237 16/// /3401 10136 20119 60001 
333 10267 20094 70000 555 32721 40210=
####018000372####
SMCN26 CWAO 050600 RRA
AAXX 05064
71615 17/// /2909 10054 20049 30065 40103 53007 60011 7//4/ 
333 10081 20028 70012=
71629 16/// /2503 10026 20012 30131 40144 53011 60001 
333 10045 21014 70000=
71641 16/// /0702 10041 20027 39816 40100 53006 60001 
333 10080 20035 70008=
71643 16/// /2303 10027 20025 30061 40104 53007 69921 
333 10073 20026 70039=
####018000124####
SMCN27 CWAO 050600 RRA
AAXX 05064
71742 16/// /1814 10176 20161 39953 40133 57027 60001 
333 7//// 555 31819 4006/=
####018000336####
SMCN34 CWAO 050600 RRA
AAXX 05064
71476 16/// ///// 10130 20119 30199 40211 52005 60001 
333 10164 20130 70000=
71484 16/// /0109 10124 20115 30190 40208 50000 60001 
333 10145 20122 70010=
71491 16/// /0000 30041 51008 69931 
333 7////=
71492 16/// /0904 10046 20021 39479 40156 53006 60001 
333 10100 21003 70000=
####018000130####
SMCN33 CWAO 050600 RRA
AAXX 05064
71387 16/// /3002 10081 39752 40118 53016 60001 
333 10165 20064 70272 555 33220 4021/=
####018000234####
SMCN28 CWAO 050600 RRA
AAXX 05064
71829 17/// /3010 10093 20059 39913 40071 53038 60031 7//4/ 
333 10149 20072 70375 555 32726 4003/=
71837 46/// ///// 10161 6///1 
333 7////=
71839 46/// ///// 10127 6///1 
333 7////=
####018000198####
SMCN35 CWAO 050600 RRA
AAXX 05064
71553 17/// /0712 10134 20132 39486 40122 58007 60031 7//4/ 
333 10226 20081 70030 555 30829 4001/=
71578 16/// /2608 60001 
333 70517 555 32628 40201=
####018000218####
SMCN31 CWAO 050600 RRA
AAXX 05064
71164 46/// /1303 10104 20086 30079 40158 51007 6///1 
333 10143 20030 7////=
71196 16/// /0000 10048 20045 39994 40191 53003 60001 
333 10174 20044 70005 555 33024 4018/=
####018000208####
SMCN39 CWAO 050600 RRA
AAXX 05064
71977 17/// /2601 10070 20068 39479 40172 52010 60061 7//4/ 
333 10137 20048 70061=
71978 46/// /2302 10104 20085 39849 40152 53012 6///1 
333 10146 20077 7////=
####018000166####
SMCN38 CWAO 050600 RRA
AAXX 05064
71874 16/// /0000 10011 21011 30162 40168 52005 60001 
333 10095 21025 70002=
71885 46/// ///// 10114 6///1 
333 7////=
####018000469####
SNIN02 DEMS 050600
OOXX
  BBD 05064 99190 10728 06592 ////2 26/// ///// 10228 2//// 3//// 4//// 5//// 6//// 7//// 8//// 9////   333 55/// ///// 58/// 6002/   555 6//// =
  MLX 05064 99189 10728 06582 ////2 26/// ///// 10236 2//// 3//// 4//// 5//// 6//// 7//// 8//// 9////   333 55/// ///// 58/// 6001/   555 6//// =
  BYR 05064 99193 10728 06592 ////2 26/// ///// 10245 2//// 3//// 4//// 5//// 6//// 7//// 8//// 9////   333 55/// ///// 58/// 6696/   555 6//// =####018000086####
SNAA19 LFVW 050500 RRB
AAXX 05054
89659 46/// /3117 11430 29057 37485 4//// 5////=####018000112####
SNAA19 LFVW 050400 RRB
AAXX 05044
89811 46/// /1604 11297 29069 38094 4//// 5//// 90430
  333 90700 91105=####018001188####
SMKR21 DKPY 050600
AAXX 05061
47003 01258 80000 10203 20182 30129 40133 57013 69911 76166 8802/ 333 69917=
47005 32470 71803 10208 20116 38602 4//// 57010 87500=
47022 32470 81802 10222 20160 38841 4//// 57003 86502=
47028 32570 61804 10282 20203 39997 40086 57017 86900=
47031 02570 81802 10200 20168 38924 4//// 58006 69911 884// 333 69907=
47037 32970 71804 10262 20214 39957 40071 52005 87090=
47039 01558 80000 10246 20228 39928 40104 57010 60071 76062 8802/ 333 60077=
47046 01560 82301 10251 20224 30100 40121 57015 60031 72062 855// 333 60037=
47050 32565 81804 10258 20221 30051 40082 57016 885//=
47052 12565 71401 10248 20211 39793 40107 57016 60021 87500=
47060 01561 80901 10271 20249 30047 40101 57017 69921 70362 884// 333 69907=
47061 12670 80000 10235 20222 30082 40122 57012 60021 885//=
47065 12570 81402 10259 20228 30048 40109 57010 69911 884//=
47067 01530 80000 10248 20233 3//// 4//// 5//// 60021 76166 8802/ 333 69997=
47068 32560 81402 10260 20218 30072 40105 58014 885//=
47070 01560 81404 10231 20210 30041 40123 58010 60031 71798 885// 333 60037=
47075 01550 80000 10248 20228 39712 40105 56015 60021 76066 8802/ 333 60027=####018000227####
SMCD01 FTTJ 050600
AAXX 05063
64709 33960 52204 10231 20216 3//// 4//// 82032
  333 0//00 20214 50204 55/// 5//// 82364 83075=
64756 33960 70000 10260 2//// 39511 4//// 80002
  333 0//00 20215 5//// 55/// 58006 87075=####018001234####
SMOM10 OOMS 050600
AAXX 05064
41240 NIL=
41242 36/// /0104 10355 20273 310000 40024
333 0E030 20298 55300 25022 59003 =
41244 36/// /1708 10387 20158 39596 49983
333 0E036 20311 59003 =
41245 36/// /0000 10347 20285 39973 40008
333 0E031 20305 55310 20460 59001 =
41247 36/// /0103 10357 20238 39972 40005
333 0E031 20304 59000 =
41251 32962 40209 10285 20030 38000 48968 80001 333 20233
58001 84075=
41252 31558 51704 10368 20169 39652 49997 70500 85830 333 20321
3/051 59007 82625 84360=
41253 36/// /3405 10373 20156 39655 49993
333 0E033 20305 55300 20794 59003 =
41255 36/// /1702 10355 20171 39510 49989
333 0E036 20296 59006 =
41256 31558 19904 10313 20291 39994 40011 70500 81500 333 20294 58001 55407 55408 55507 55508 81730=
41265 31958 50802 10367 20153 39447 49992 70511 83031 333 20294 59006 83360 85070=
41268 32960 32509 10346 20237 39956 49971 80001 90616 333 20294
3/030 5//// 83070=
41287 NIL=
41291 32960 72119 10300 20231 39880 40010 90545 333 20228 59010=
41301 NIL=
41308 36/// /2215 10349 21341 39860 40004
333 0E026 20262 58000 =
41316 01456 89907 10272 20251 30027 40058 69921 70552 886// 333 20256 58009 55407 55408 55507 55508 70002 82710 85714 88620=####018000162####
SMNV01 NVVV 050000 RRA
AAXX 05004
91551 =
91554 =
91557 =
91565 =
91568 31598 12615 10238 20148 40132 58003 70121 81100
333 20/// 565// 58037 81825=####018000080####
SMAA01 LFVW 050600 RRA
AAXX 0506/
89314 46/// ///// 11214 38068 4//// 5////=####018000215####
SNAA01 LFVW 050500 RRC
AAXX 0505/
89866 46/// ///// 11180 39553 4//// 5////=
89828 46/// ///// 11601 36343 4//// 5////=
89314 46/// ///// 11216 38060 4//// 5////=
89314 46/// ///// 11219 38063 4//// 5////=####018007425####
SNIN01 DEMS 050600
OOXX
  PRL 05064 99308 10780 13708 12502 26/// /2307 10255 20214 38607 48980 5//// 6//// 7//// 8//// 9////   333 55/// ///// 59014 6000/   555 6//// =
  MBL 05064 99179 10736 06573 13872 26/// /3600 10195 20193 38568 48176 5//// 6//// 7//// 8//// 9////   333 55/// ///// 58008 6018/   555 6//// =
  RPG 05064 99303 10789 13708 06702 26/// /2403 10344 20264 39220 49928 5//// 6//// 7//// 8//// 9////   333 55/// ///// 59013 6001/   555 6//// =
  BPN 05064 99282 10771 10187 02202 26/// /1301 10321 20321 30000 40000 5//// 6//// 7//// 8//// 9////   333 55/// ///// 59000 6000/   555 6//// =
  KNL 05064 99294 10765 10196 02532 26/// /2704 10600 20524 39743 49998 5//// 6//// 7//// 8//// 9////   333 55/// ///// 59006 6000/   555 6//// =
  THN 05064 99191 10729 06592 00072 26/// /1904 10292 20292 30018 40026 5//// 6//// 7//// 8//// 9////   333 55/// ///// 58020 6000/   555 6//// =
  SAT 05064 99176 10740 06574 06742 26/// /2602 10240 20240 39300 40045 5//// 6//// 7//// 8//// 9////   333 55/// ///// 58009 6001/   555 6//// =
  NNB 05064 99213 10742 10114 02032 26/// /3402 10299 20281 39765 49989 5//// 6//// 7//// 8//// 9////   333 55/// ///// 58009 6000/   555 6//// =
  AMG 05064 99190 10747 06594 06492 26/// /2302 10268 20268 39317 40025 5//// 6//// 7//// 8//// 9////   333 55/// ///// 58007 6000/   555 6//// =
  HNG 05064 99197 10771 06597 04772 26/// /2405 10272 20232 39496 40022 5//// 6//// 7//// 8//// 9////   333 55/// ///// 58002 6000/   555 6//// =
  CHO 05064 99212 10756 10115 02062 26/// /2403 10291 20257 39801 40030 5//// 6//// 7//// 8//// 9////   333 55/// ///// 58014 6000/   555 6//// =
  KLP 05064 99166 10742 06564 05912 26/// /2303 10246 20228 39397 40051 5//// 6//// 7//// 8//// 9////   333 55/// ///// 58006 6001/   555 6//// =
  ELA 05064 99154 10739 06553 00652 26/// /2507 10266 20224 30003 40076 5//// 6//// 7//// 8//// 9////   333 55/// ///// 58004 6001/   555 6//// =
  KJT 05064 99189 10730 06583 00582 26/// /2004 10264 21010 39970 40035 5//// 6//// 7//// 8//// 9////   333 55/// ///// 58017 6007/   555 6//// =
  DUL 05064 99209 10748 10104 02782 26/// /2002 10304 20266 39728 40036 5//// 6//// 7//// 8//// 9////   333 55/// ///// 58013 6000/   555 6//// =
  MLG 05064 99205 10736 10103 04382 26/// /3600 10294 20281 39535 40016 5//// 6//// 7//// 8//// 9////   333 55/// ///// 58012 6000/   555 6//// =
  HUR 05064 99127 10778 06527 08832 26/// /2807 10250 20219 39095 48716 5//// 6//// 7//// 8//// 9////   333 55/// ///// 58003 6000/   555 6//// =
  PAY 05064 99123 10782 06528 04682 26/// /2206 10295 20225 39534 40046 5//// 6//// 7//// 8//// 9////   333 55/// ///// 59002 6000/   555 6//// =
  PKL 05064 99101 10775 06507 02902 26/// /0702 10291 20224 39733 40054 5//// 6//// 7//// 8//// 9////   333 55/// ///// 58004 6000/   555 6//// =
  NEY 05064 99116 10795 06519 00572 26/// /2508 10338 21010 30013 40076 5//// 6//// 7//// 8//// 9////   333 55/// ///// 58004 6000/   555 6//// =
  PBR 05064 99112 10788 06518 01212 26/// /2208 10330 20330 39940 40074 5//// 6//// 7//// 8//// 9////   333 55/// ///// 58006 6000/   555 6//// =
  EPT 05064 99132 10803 06430 00112 26/// /2206 10332 20270 30035 40047 5//// 6//// 7//// 8//// 9////   333 55/// ///// 58007 6000/   555 6//// =
  MVM 05064 99131 10802 06430 00072 26/// /2108 10327 20275 30043 40051 5//// 6//// 7//// 8//// 9////   333 55/// ///// 58006 6000/   555 6//// =
  PCR 05064 99084 10773 02987 00772 26/// /2602 10282 20246 30015 40102 5//// 6//// 7//// 8//// 9////   333 55/// ///// 58003 6003/   555 6//// =
  DNR 05064 99299 10779 10197 02642 26/// /1506 10305 21090 30182 40488 5//// 6//// 7//// 8//// 9////   333 55/// ///// 59000 6000/   555 6//// =
  ROR 05064 99298 10779 10197 02662 26/// /1403 10336 20299 39731 40022 5//// 6//// 7//// 8//// 9////   333 55/// ///// 59006 6000/   555 6//// =
  RIP 05064 99212 10816 10011 02872 26/// /3600 10276 20276 39679 49997 5//// 6//// 7//// 8//// 9////   333 55/// ///// 58004 6000/   555 6//// =
  IDE 05064 99226 10758 10125 05662 26/// /2602 10251 20251 39396 40021 5//// 6//// 7//// 8//// 9////   333 55/// ///// 58008 6000/   555 6//// =
  JBL 05064 99232 10799 10139 03902 26/// /3600 10304 20304 30000 40000 5//// 6//// 7//// 8//// 9////   333 55/// ///// 59000 6000/   555 6//// =
  JUB 05064 99227 10745 10124 03342 26/// /3600 10265 20265 39659 40031 5//// 6//// 7//// 8//// 9////   333 55/// ///// 58008 6001/   555 6//// =
  SHO 05064 99231 10770 10137 05012 26/// /2202 10293 20249 39453 40001 5//// 6//// 7//// 8//// 9////   333 55/// ///// 58005 6001/   555 6//// =
  SAN 05064 99176 10780 06578 05252 26/// /3600 11400 21400 30000 40000 5//// 6//// 7//// 8//// 9////   333 55/// ///// 58/// 6000/   555 6//// =
  VUY 05064 99163 10808 06460 00152 26/// /2305 10307 20253 30021 40038 5//// 6//// 7//// 8//// 9////   333 55/// ///// 58003 6000/   555 6//// =
  CTP 05064 99178 10823 06472 07702 26/// /3004 10235 20228 39182 40028 5//// 6//// 7//// 8//// 9////   333 55/// ///// 59001 6001/   555 6//// =
  RJD 05064 99173 10783 06578 05252 26/// /2709 10274 20274 30000 40000 5//// 6//// 7//// 8//// 9////   333 55/// ///// 59000 6000/   555 6//// =
  LAM 05064 99163 10804 06460 00382 26/// /2713 10331 20259 39972 40014 5//// 6//// 7//// 8//// 9////   333 55/// ///// 58004 6000/   555 6//// =
  KFR 05064 99311 10772 13717 26422 26/// /0703 10144 21020 37392 47318 5//// 6//// 7//// 8//// 9////   333 55/// ///// 59004 6001/   555 6//// =
  MAS 05064 99304 10780 13708 18602 26/// /1402 10213 20203 37999 48521 5//// 6//// 7//// 8//// 9////   333 55/// ///// 59008 6000/   555 6//// =
  MND 05064 99314 10765 13716 13112 26/// /3600 10258 20258 39197 48158 5//// 6//// 7//// 8//// 9////   333 55/// ///// 59025 6000/   555 6//// =
  NAT 05064 99102 10782 06508 02612 26/// /3600 10332 20208 39773 40059 5//// 6//// 7//// 8//// 9////   333 55/// ///// 58003 6000/   555 6//// =
  KCP 05064 99128 10797 06529 00842 26/// /2303 10332 20270 39928 40021 5//// 6//// 7//// 8//// 9////   333 55/// ///// 58001 6000/   555 6//// =
  MEE 05064 99129 10801 06420 00172 26/// /1904 10327 20226 30039 40057 5//// 6//// 7//// 8//// 9////   333 55/// ///// 58004 6000/   555 6//// =
  THU 05064 99107 10788 06508 00752 26/// /2707 10332 20230 39982 40065 5//// 6//// 7//// 8//// 9////   333 55/// ///// 58006 6000/   555 6//// =
  TVN 05064 99122 10790 06529 01672 26/// /2204 10316 20245 39861 40046 5//// 6//// 7//// 8//// 9////   333 55/// ///// 58005 6000/   555 6//// =
  MRM 05064 99154 10737 06553 00612 26/// /2602 10269 20269 39976 40044 5//// 6//// 7//// 8//// 9////   333 55/// ///// 58008 6000/   555 6//// =
  TNI 05064 99309 10778 13707 09372 26/// /0401 10288 20248 39032 48732 5//// 6//// 7//// 8//// 9////   333 55/// ///// 59026 6000/   555 6//// =
  MZF 05064 99261 10853 10065 00592 26/// /0905 10337 20296 39951 40016 5//// 6//// 7//// 8//// 9////   333 55/// ///// 58004 6000/   555 6//// =
  RTN 05064 99169 10733 06563 00922 26/// /2905 10240 21281 39955 40060 5//// 6//// 7//// 8//// 9////   333 55/// ///// 58004 6008/   555 6//// =
  HYD 05064 99174 10784 06578 05292 26/// /2608 10277 20231 39434 40015 5//// 6//// 7//// 8//// 9////   333 55/// ///// 58004 6000/   555 6//// =
  KNP 05064 99264 10803 10060 01272 26/// /3600 10318 20295 39868 40009 5//// 6//// 7//// 8//// 9////   333 55/// ///// 58004 6000/   555 6//// =####018000857####
SIPK21 OPKC 050300
AAXX 05034
41515 22697 20000 10202 20114 38498 48462 82500 333
      20168 56900 58004 60007 70000 82650=
41560 22697 30503 10200 20136 38212 48428 82430 333
      20170 59008 60007 70000=
41571 21695 31310 10300 20259 39470 40021 70511 82430 333
      20275 56990 58010 60007 70000=
41594 NIL=
41685 32997 00000 10305 20168 38831 48438 333
      20265 58003 70000=
41710 22997 03102 10290 21022 39250 49981 333
      20265 59012 60007 70000=
41718 21996 00000 10310 20269 39891 49989 70400 333
      20293 59007 60007 70000=
41739 22996 00000 10285 20110 38955 48438 333
      20250 59008 60007 70000=
41744 22996 30000 10245 20059 38721 48454 83030 333
      20210 56090 59002 60007 70000 83360=
41749 21996 31306 10305 20256 39962 49994 70500 83030 333
      20285 56090 58000 60007 70000 83360=####018000080####
SNAA17 LFVW 050500 RRA
AAXX 05054
89577 46/// /0701 11701 35960 4//// 5////=####018000231####
SMCD01 FTTJ 050600 RRB
AAXX 05063
64709 33960 52204 10231 20216 3//// 4//// 82032
  333 0//00 20214 50204 55/// 5//// 82364 83075=
64756 33960 70000 10260 2//// 39511 4//// 80002
  333 0//00 20215 5//// 55/// 58006 87075=####018000577####
SMKR22 DKPY 050600
AAXX 05061
47090 NIL=
47095 NIL=
47097 NIL=
47098 NIL=
47099 NIL=
47100 NIL=
47102 NIL=
47104 NIL=
47106 NIL=
47112 NIL=
47114 NIL=
47119 NIL=
47121 NIL=
47127 NIL=
47129 NIL=
47130 NIL=
47131 NIL=
47135 NIL=
47136 NIL=
47137 NIL=
47140 NIL=
47143 NIL=
47145 NIL=
47146 NIL=
47150 NIL=
47152 NIL=
47154 NIL=
47155 NIL=
47156 NIL=
47157 NIL=
47162 NIL=
47169 NIL=
47170 NIL=
47171 NIL=
47172 NIL=
47173 NIL=
47174 NIL=
47175 NIL=
47185 NIL=
47188 NIL=
47189 NIL=
47192 NIL=####018001272####
SMUZ10 UTTW 050600
AAXX 05061
38141 32998 03305 10188 20023 30001 40152 52028 333 20104=
38149 42998 03405 10214 20090 30070 40142 52004 333 20131=
38178 42998 22203 10220 20041 39839 40106 52003 82100 333 20128=
38262 32998 03304 10214 20041 30067 40145 52008 333 20125=
38264 42998 23205 10214 20032 30054 40142 52012 82030 333 20122=
38396 42997 51802 10252 20055 30019 40135 52006 85030 333 20138=
38403 42997 52701 10250 20082 30015 40128 52009 85080 333 20165=
38413 42998 72905 10242 20023 39874 40146 52020 87030 333 20152=
38457 32997 22102 10247 20064 39560 40106 52010 82040 333 20156=
38462 42699 41805 10206 20025 38737 48494 52001 82951 333 20087=
38565 32998 00000 10236 20048 3//// 4//// 5//// 333 20146=
38579 32999 03403 10255 20152 39719 40107 52009 333 20128=
38583 32997 22902 10259 20109 39814 40113 52007 80001 333 20118=
38611 12997 72002 10257 20126 39568 40096 57005 69902 87060 333
20186=
38618 12997 43301 10247 20159 39438 40075 57004 69900 80001 333
20177=
38683 42697 10203 10264 20074 39869 40125 52007 81100 333 20154=
38696 32999 02302 10246 20065 39309 40106 52009 333 20117=
38812 42997 00102 10274 20080 39695 40114 52016 333 20136=
38927 32960 02705 10284 20062 39752 40099 50004 333 20176=####018003743####
SMUS70 KWBC 050600
AAXX 05064
72594 35162 81604 10144 20128 30113 40138 50003 90553 333 10161
20117 555 90506=
72791 15966 00000 10144 20128 30152 40156 50004 69901 90555 333
10200 20144 555 90506=
72384 35966 00506 10306 20100 39921 40094 51013 90554 333 10378
20256 555 90506=
72677 32966 23508 10256 20011 38925 40129 53022 90553 333 10372
20161 555 90506=
72683 35966 02906 10172 20028 38742 40139 51009 90553 333 10333
20072 555 90506=
72681 32966 01315 10250 20050 39143 40122 53012 90553 333 10356
20183 91022 555 90506=
72570 35966 00000 10156 20078 38168 40180 53016 90553 333 10300
20094 555 90506=
72314 32766 80507 10261 20206 39877 40129 58002 90552 333 10289
20200 555 90506=
72605 35966 03113 10156 20089 30039 40161 51024 90551 333 10211
20156 91024 555 90506=
72405 12966 80305 10261 20222 30134 40157 51015 69951 90552 333
10306 20222 555 90506=
72387 35966 00710 10339 20056 39002 40091 51015 90553 333 10394
20233 555 90506=
72486 35966 6//03 10211 20056 38141 40132 53015 90553 333 10311
20100 555 90506=
72693 32966 03505 10178 20089 39999 40135 51005 90554 333 10283
20106 555 90506=
72389 32966 03207 10311 20144 39977 40097 51016 90553 333 10389
20233 555 90506=
72779 NIL=
72375 15966 43503 10144 20094 37944 40172 53009 69951 90557 333
10222 20094 555 90506=
72376 35966 00805 10233 20011 38356 40164 51016 90553 333 10344
20233 555 90506=
72785 32966 00000 10189 20033 39314 40154 53007 90553 333 10278
20150 555 90506=
72768 35966 01003 10194 20067 39330 40125 51021 90553 333 10317
20139 555 90506=
72776 32966 01403 10161 21006 38900 40146 51015 90553 333 10317
20111 555 90506=
72772 32966 00000 10194 20022 38833 40161 51012 90553 333 10328
20150 555 90506=
72777 35966 01604 10139 20050 39243 40141 53019 90553 333 10306
20139 555 90506=
72370 35866 22414 10283 20106 38998 40099 51012 90551 333 10306
20233 555 90506=
72302 35566 80711 10272 20228 3//// 40108 58015 90553 333 10272
20239 555 90506=
72374 17964 81008 10244 20128 38559 40152 53026 69901 761// 90556
333 10306 20200 555 90506=
72767 35966 00000 10172 20122 39436 40103 51018 90552 333 10317
20083 555 90506=
72386 32966 62003 10344 20094 39384 40093 51009 90556 333 10422
20300 555 90506=
72295 32966 23004 10233 20161 30063 40113 51015 90553 333 10278
20222 555 90506=
72297 32966 03304 10256 20194 30099 40111 51013 90553 333 10322
20233 555 90506=
0 32966 02503 10244 20222 30084 40178 51004 90553 333 10317 20211
555 90506=
72783 35966 01503 10217 20056 39633 40139 51011 90556 333 10317
20200 555 90506=
72334 32966 03605 10278 20233 30066 40165 50001 90554 333 10322
20228 555 90506=
72597 35966 00000 10239 20111 39655 40109 51015 90553 555 90506=
72475 15966 02207 10244 20089 3//// 40138 58005 69901 90552 333
10317 20156 555 90506=
72773 35964 00000 10156 20028 39060 40161 53015 90553 333 10306
20139 555 90506=
72792 35966 00204 10167 20122 30096 40165 53006 90554 333 10239
20100 555 90506=
72487 NIL=
72688 35966 01405 10194 20061 39606 40132 51009 90553 333 10306
20161 555 90506=
72698 32966 02906 10211 20139 30130 40137 51005 90553 333 10272
20183 555 90506=
72371 15966 00000 10272 20094 38720 40128 51009 69901 90553 333
10339 20233 555 90506=
72408 12966 80316 10228 20150 30140 40160 51016 69951 90554 333
10261 20206 555 90506=
72278 32966 42716 10367 20144 39708 40080 51025 90551 333 10439
20317 555 90506=
72578 35966 02604 10233 20072 38659 40138 53004 90553 333 10333
20117 555 90506=
72591 35966 00000 10261 20122 39980 40100 53015 90554 333 10350
20194 555 90506=
72488 12866 40000 10194 20139 38683 40148 51010 60011 90555 555
90506=
####018003722####
SMUS70 KWBC 050600 RRA
AAXX 05064
72290 32766 43003 10239 20217 30100 40116 51018 90551 333 10267
20228 555 90506=
72492 35966 03007 10261 20100 30089 40102 51014 90555 333 10372
20183 555 90506=
72383 35966 02206 10244 20083 38649 40140 51009 90553 333 10317
20222 555 90506=
72793 32966 00209 10189 20128 30006 40172 52003 90553 333 10244
20150 555 90506=
72494 32266 62811 10167 20139 30097 40130 51014 90556 333 10194
20144 555 90506=
72572 32966 40308 10272 20111 38745 40141 53034 90554 333 10356
20211 555 90506=
72694 35966 03404 10189 20117 30064 40135 51007 90556 333 10272
20139 555 90506=
72394 37358 23003 10156 20128 30040 40129 50007 704// 90551 333
10211 20144 555 90506=
72274 32966 00000 10311 20133 39257 40111 51024 90553 333 10400
20244 555 90506=
72797 35966 03503 10128 20117 30104 40169 57003 90553 333 10194
20128 555 90506=
72583 15966 01806 10189 20139 38720 40160 55017 60031 90556 333
10344 20128 555 90506=
72781 35966 02805 10150 20083 39765 40144 53014 90553 333 10300
20111 555 90506=
72280 NIL=
70219 12966 61711 10111 20083 30097 40154 54000 69931 90553 333
10139 20100 555 90506=
70267 15766 82403 10100 20089 39733 40205 51022 60031 90553 333
10167 20094 555 90506=
70174 32666 21503 10089 20056 39928 40171 53012 90553 333 10172
20089 555 90506=
70316 35466 81424 10122 20100 30117 40151 58000 90553 333 10156
20067 91030 555 90506=
70454 15366 81906 10122 20117 30015 40021 55001 60021 90556 333
10133 20117 555 90506=
70321 35766 41907 10128 20106 30151 40192 53001 90556 333 10144
20100 555 90506=
70350 32966 02805 10100 20072 30168 40210 53004 90553 333 10156
20100 555 90506=
70261 32866 60000 10128 20078 30015 40186 53013 90553 333 10167
20078 555 90506=
70271 15666 83105 10100 20083 39635 40212 53015 69931 90553 333
10178 20083 555 90506=
0 35966 00704 10089 20050 30180 40210 53006 90553 333 10150 20067
555 90506=
70340 35966 00000 10100 20089 30147 40207 53004 90553 333 10167
20072 555 90506=
70381 32666 60903 10106 20100 30203 40219 53007 90553 333 10161
20106 555 90506=
70326 32866 81805 10133 20100 30174 40185 53002 90554 333 10167
20067 555 90506=
70231 15766 61504 10106 20083 30055 40182 53006 69901 90553 333
10150 20106 555 90506=
70343 35966 00000 10128 20106 30196 40205 53006 90551 333 10150
20117 555 90506=
70273 32666 61603 10139 20089 30138 40198 53013 90553 333 10189
20128 555 90506=
70232 35866 80000 10128 20083 30131 40163 53006 90556 333 10150
20094 555 90506=
70260 35966 00000 10111 20106 30077 40211 51004 90553 333 10172
20111 555 90506=
70200 12466 81914 10106 20083 30066 40072 53009 69901 90553 333
10122 20100 555 90506=
70133 11766 81517 10133 20094 30085 40093 51003 69981 761// 90553
333 10156 20128 555 90506=
70333 35966 01606 10117 20089 30158 40195 53000 90556 333 10156
20083 555 90506=
70414 NIL=
70251 35966 00000 10100 20083 30062 40196 53013 90553 333 10178
20100 555 90506=
70361 37956 00000 10100 20089 30202 40214 53009 710// 90553 333
10156 20067 555 90506=
70194 35966 00000 10106 20050 39997 40181 53009 90556 333 10183
20094 555 90506=
91217 NIL=
91212 12466 23106 10272 20250 39990 40072 58009 60031 90554 333
10306 20261 555 90506=
91165 32466 40516 10283 20233 30125 40159 53012 90553 333 10322
20272 555 90506=
91182 32566 40613 10283 20211 30144 40150 53016 90553 333 10333
20267 91020 555 90506=
91190 12566 40512 10272 20217 30134 40153 51017 69901 90554 333
10328 20256 555 90506=
91285 32566 60000 10261 20222 30144 90613 555 90506=
91376 NIL=
91245 15959 01009 10303 20242 30083 40094 55002 69901 90558 333
10326 20282 555 90506=
####018003728####
SMUS71 KWBC 050600
AAXX 05064
72659 35966 01713 10194 20150 39660 40127 56013 90553 333 10233
20056 555 90506=
72548 35966 00000 10111 20094 39891 40206 58001 90554 333 10211
20106 555 90506=
72462 35966 03003 10144 20044 37799 40206 51008 90552 333 10289
20100 555 90506=
72639 35966 00000 10056 20044 39962 40215 51006 90554 333 10167
20056 555 90506=
72566 35966 00808 10200 20172 38801 40118 58000 90553 333 10322
20161 555 90506=
72480 35966 00205 10217 20094 38765 40136 53013 90556 333 10339
20150 555 90506=
72764 35966 01309 10200 20156 39513 40093 56008 90552 333 10261
20072 555 90506=
72428 32966 00105 10161 20139 39898 40188 51008 90551 333 10228
20161 555 90506=
72458 35966 01714 10233 20194 39655 40168 58004 90555 333 10261
20200 91020 555 90506=
72445 35966 00603 10178 20150 39883 40199 51001 90554 333 10256
20172 555 90506=
72569 35966 02407 10178 20011 38394 40129 51010 90553 333 10333
20144 555 90506=
72421 32966 00409 10200 20144 39869 40178 50003 90552 333 10244
20200 555 90506=
72564 35966 02708 10183 20067 38168 40138 51003 90553 333 10272
20139 555 90506=
72429 32966 00105 10156 20133 39836 40194 50005 90556 333 10233
20156 555 90506=
72547 35966 00000 10111 20100 39828 40216 55002 90553 333 10178
20106 555 90506=
72451 35966 01710 10228 20150 39282 40166 50002 90552 333 10328
20183 555 90506=
72565 32966 22115 10228 20072 38386 40131 58003 90553 333 10278
20161 555 90506=
72745 32966 02503 10133 20094 39682 40198 53006 90555 333 10189
20094 555 90506=
72546 32966 01505 10156 20122 39851 40199 56005 90554 333 10233
20133 555 90506=
72537 32766 63604 10150 20122 39969 40201 52003 90553 333 10211
20144 555 90506=
72432 35966 00000 10189 20150 30049 40186 53004 90554 333 10261
20183 555 90506=
72753 32966 01409 10172 20128 39813 40141 58014 90553 555 90506=
72637 35666 82903 10156 20111 39928 40204 53002 90553 333 10211
20150 555 90506=
72651 35966 01709 10183 20139 39667 40173 58006 90556 333 10233
20100 555 90506=
72533 32966 00000 10117 20111 39910 40204 55000 90554 333 10244
20117 555 90506=
72476 35966 01306 10267 20072 38581 40139 51009 90553 333 10339
20217 555 90506=
72465 35/// 38912 58006 90553 555 90506=
72645 35966 02403 10106 20089 39967 40215 52002 90553 333 10167
20100 555 90506=
72552 35966 01407 10189 20161 39524 40174 58008 90553 333 10239
20133 555 90506=
72635 35966 00000 10117 20089 39927 40211 50001 90553 333 10206
20117 555 90506=
72654 35966 01709 10189 20156 39688 40144 58009 90555 333 10239
20100 555 90506=
72638 37912 00000 10050 20044 39799 40222 53003 710// 90553 333
10161 20050 555 90506=
72425 32966 00403 10200 20156 39870 40165 51002 90551 333 10272
20189 555 90506=
72450 32966 01607 10239 20189 39710 40178 50002 90553 333 10306
20228 555 90506=
0 35966 00000 10078 20061 39788 40207 53006 90554 333 10178 20067
555 90506=
72438 32966 00308 10167 20122 39910 40195 51002 90554 333 10233
20167 555 90506=
72747 15966 00000 10117 20094 39749 40179 50002 69901 90555 333
10178 20094 555 90506=
72539 32966 03404 10117 20094 39898 40211 53001 90553 333 10200
20100 555 90506=
72562 35966 01405 10183 20167 39192 40151 58008 90553 333 10256
20117 555 90506=
72422 32966 00306 10200 20150 39826 40171 50000 90554 333 10283
20200 555 90506=
72551 32966 01607 10200 20150 39758 40181 56005 90554 333 10244
20122 555 90506=
72446 32966 01207 10200 20161 39822 40193 50001 90553 333 10244
20189 555 90506=
72640 32566 60000 10156 20111 39970 40215 51001 90552 333 10194
20156 555 90506=
72636 35966 00000 10111 20078 39987 40216 50002 90555 333 10211
20106 555 90506=
####018002167####
SMUS71 KWBC 050600 RRA
AAXX 05064
72544 35966 00000 10122 20106 39992 40211 55001 90552 333 10206
20122 555 90506=
72641 32664 80000 10111 20106 39905 40217 51001 90553 333 10172
20106 555 90506=
72658 32966 01505 10150 20117 39877 40192 57007 90553 333 10211
20144 555 90506=
72556 35966 01306 10172 20144 39631 40177 56004 90556 333 10239
20089 555 90506=
72550 32966 01405 10189 20144 39818 40185 58004 90552 333 10244
20139 555 90506=
72530 32666 80504 10167 20111 39973 40211 50000 90551 333 10200
20150 555 90506=
72435 35966 00403 10206 20172 30044 40180 51007 90553 333 10289
20200 555 90506=
72532 35966 00603 10156 20128 39964 40207 50001 90554 333 10217
20150 555 90506=
72464 35966 02805 10206 20089 38618 40156 50001 90553 333 10306
20189 555 90506=
72662 35966 01506 10217 20167 39034 40112 52002 90552 333 10300
20100 555 90506=
72592 12966 00000 10256 20111 39923 40100 53020 69901 90553 333
10367 20172 555 90506=
72543 32966 01503 10128 20117 39958 40222 51002 90554 333 10183
20128 555 90506=
72672 35966 02910 10206 20028 38355 40139 51011 90553 333 10317
20144 555 90506=
72644 35966 01607 10117 20094 39729 40207 58006 90554 333 10194
20094 555 90506=
72535 35966 03504 10106 20100 39933 40215 52002 90554 333 10194
20106 555 90506=
72423 32966 20107 10206 20156 30004 40174 50002 90556 333 10278
20206 555 90506=
72440 32966 00604 10233 20206 39742 40187 52004 90552 333 10289
20200 555 90506=
72666 35966 03210 10194 20072 38802 40125 53015 90553 333 10356
20094 555 90506=
0 12966 00000 10150 20139 39989 40204 50002 69901 90552 333 10228
20150 555 90506=
0 35966 00803 10117 20106 39815 40197 55005 90553 333 10194 20078
555 90506=
72434 32966 00104 10200 20156 39998 40192 53002 90551 333 10267
20200 555 90506=
72557 35866 41307 10161 20144 39785 40181 58008 90552 333 10239
20100 555 90506=
72536 32666 83503 10167 20117 39948 40197 50000 90552 333 10244
20167 555 90506=
72456 32966 00000 10200 20172 39877 40187 56001 90553 333 10261
20194 555 90506=
72567 35966 01909 10206 20150 39249 40139 58003 90552 333 10283
20100 555 90506=
####018003557####
SMUS72 KWBC 050600
AAXX 05064
72517 32966 00204 10189 20139 30032 40168 51014 90551 333 10267
20183 555 90506=
72407 12966 03304 10233 20211 30110 40151 53007 69951 90554 333
10272 20172 555 90506=
72311 35966 00105 10256 20183 39842 40122 58000 90551 333 10294
20211 555 90506=
72518 32666 20104 10150 20122 30075 40181 51014 90551 333 10211
20150 555 90506=
72315 35966 01003 10222 20167 39390 40140 55002 90554 333 10267
20172 555 90506=
72513 32966 00106 10167 20117 39843 40181 53010 90554 333 10244
20167 555 90506=
72508 32966 23309 10161 20128 30093 40163 51014 90551 333 10211
20150 555 90506=
72504 35966 03606 10189 20139 30157 40165 51017 90552 333 10250
20189 555 90506=
72515 35466 23503 10122 20106 39613 40187 50004 90553 333 10194
20117 555 90506=
72412 35966 00304 10200 20167 39301 40150 53001 90551 333 10256
20161 555 90506=
72509 32966 02808 10200 20144 30141 40149 51017 90554 333 10267
20183 555 90506=
72617 15566 83503 10156 20000 30056 40180 51013 69901 90554 333
10211 20156 555 90506=
72528 32666 23605 10156 20106 39924 40193 50002 90554 333 10239
20156 555 90506=
72406 12866 60105 10261 20156 30084 40153 50013 69901 90554 333
10311 20200 555 90506=
72310 32966 80309 10261 20189 30014 40096 58014 90556 333 10300
20233 555 90506=
72521 32966 00405 10128 20117 39752 40195 50004 90551 333 10228
20128 555 90506=
72712 15966 03008 10111 20083 39881 40111 53027 69951 90554 333
10183 20100 555 90506=
72524 32666 20000 10133 20117 39924 40203 51001 90551 333 10244
20133 555 90506=
72414 32666 40203 10222 20156 39805 40161 55000 90554 333 10283
20172 555 90506=
72417 37959 00000 10172 20156 39482 40179 53006 710// 90551 333
10239 20139 555 90506=
72526 35566 61703 10139 20111 39931 40196 53001 90551 333 10250
20139 555 90506=
72502 32566 60113 10217 20156 30154 40162 51019 90551 333 10294
20194 555 90506=
72317 32766 80000 10239 20228 39822 40136 50001 90554 333 10272
20194 555 90506=
72312 35966 00405 10239 20194 39803 40128 58001 90553 333 10278
20206 555 90506=
0 15964 01513 10278 20239 30138 40140 55007 69981 90551 333 10283
20267 91022 555 90506=
72323 35966 03506 10261 20222 39931 40148 58000 90553 333 10317
20189 555 90506=
72403 32866 60307 10250 20161 30051 40159 51019 90552 333 10306
20200 555 90506=
72514 35966 00000 10156 20128 39989 40181 53011 90554 333 10228
20150 555 90506=
74486 32966 60212 10211 20178 30151 40162 51020 90551 333 10250
20194 555 90506=
72503 32966 40212 10217 20156 30149 40160 51019 90551 333 10294
20211 555 90506=
72308 32966 01804 10256 20233 30132 40147 53002 90551 333 10289
20217 555 90506=
72520 32966 00303 10150 20117 39769 40195 55001 90551 333 10217
20150 555 90506=
72507 35966 02705 10183 20150 30139 40159 51019 90551 333 10233
20167 555 90506=
72606 35966 02909 10161 20106 30130 40147 53031 90551 333 10222
20161 555 90506=
72306 32966 80000 10233 20228 39990 40139 50001 90551 333 10283
20211 555 90506=
72401 32866 61303 10244 20222 30089 40152 53010 90554 333 10283
20206 555 90506=
72411 32966 00000 10244 20200 39737 40151 53008 90554 333 10300
20183 555 90506=
72529 32966 00000 10122 20106 39980 40196 51002 90554 333 10239
20122 555 90506=
72519 32666 40204 10128 20117 30037 40186 50005 90554 333 10233
20128 555 90506=
72402 35964 02106 10261 20244 30128 40142 50002 90554 333 10267
20222 555 90506=
72525 32966 00205 10133 20111 39772 40195 50003 90551 333 10228
20117 555 90506=
####018003677####
SMUS73 KWBC 050600
AAXX 05064
72220 35966 02905 10278 20244 30115 40120 56010 90553 555 90506=
72266 32966 01105 10250 20156 39558 40173 50002 90552 333 10333
20211 555 90506=
72365 32966 0//04 10244 20044 38443 40167 51012 90552 333 10317
20217 555 90506=
72256 35966 00105 10244 20167 39995 40168 51004 90551 333 10350
20217 555 90506=
72218 35966 03610 10272 20194 30042 40091 58010 90553 333 10300
20217 555 90506=
72363 32966 01808 10194 20117 38977 40176 51004 90553 333 10311
20178 555 90506=
72219 32966 63610 10272 20172 39766 40124 58002 90552 333 10333
20239 555 90506=
72254 35966 0//03 10283 20189 39953 40163 53009 90551 333 10356
20239 555 90506=
72327 32966 00107 10244 20178 39925 40166 50006 90553 333 10322
20200 555 90506=
72241 35966 00000 10250 20244 30153 40160 58004 90553 333 10317
20244 555 90506=
72250 35966 01208 10289 20272 30129 40133 51011 90553 333 10300
20267 555 90506=
72360 35966 02406 10200 20089 38546 40170 51005 90555 333 10294
20172 555 90506=
72324 35966 03104 10256 20222 39898 40139 56004 90553 333 10328
20206 555 90506=
72208 17440 80218 10239 20239 30021 40037 56027 60331 763// 90556
333 10261 20233 91036 96010 555 90506=
72251 11466 80913 10278 20256 30129 40146 50003 69901 795// 90551
333 10294 20256 91020 555 90506=
72212 35966 02604 10259 20233 30093 90555 555 90506=
72259 32766 20000 10283 20183 39968 40166 50000 90553 333 10339
20250 555 90506=
72261 35966 01203 10289 20178 39801 40155 53015 90553 333 10350
20244 555 90506=
72270 32966 00604 10267 20072 38856 40144 51011 90551 333 10328
20233 555 90506=
72201 35966 02705 10289 20250 30146 40151 58003 90553 333 10300
20267 555 90506=
72344 35966 00000 10244 20244 30018 40181 51006 90553 333 10322
20222 555 90506=
72243 32966 00000 10250 20217 30122 40164 51000 90553 333 10333
20250 555 90506=
72235 35966 00000 10222 20200 30059 40160 58003 90554 333 10317
20206 555 90506=
72206 12866 82717 10272 20211 30052 40060 50000 69901 90556 333
10289 20228 91023 555 90506=
74740 35966 00000 10228 20161 39580 40158 52006 90551 333 10339
20194 555 90506=
72267 32966 21304 10222 20122 39085 40176 51005 90553 333 10317
20183 555 90506=
72240 35966 00000 10256 20239 30158 40171 58004 90553 555 90506=
72265 35966 01005 10250 20133 39205 40166 51005 90553 333 10328
20211 555 90506=
72217 35966 02705 10228 20206 39981 40105 58003 90553 333 10300
20194 555 90506=
72205 32966 82411 10267 20239 30073 40108 53005 90553 333 10289
20233 555 90506=
72234 35966 00000 10228 20206 30055 40157 50001 90558 333 10311
20211 555 90506=
72226 35966 02907 10250 20206 30066 40137 50001 90553 333 10328
20211 555 90506=
72202 32966 62507 10283 20244 30132 40142 58002 90553 333 10311
20267 555 90506=
72223 35966 03205 10250 20217 30075 40151 58002 90556 333 10306
20233 555 90506=
72231 32966 00000 10278 20239 30149 40160 58003 90553 333 10333
20244 555 90506=
72353 32966 01407 10222 20211 39737 40182 50004 90552 333 10300
20206 555 90506=
72203 32966 22307 10267 20239 30128 40136 50002 90553 333 10300
20244 555 90506=
72320 35966 00000 10239 20200 39915 40133 56000 90553 333 10317
20200 555 90506=
72268 35966 01904 10228 20072 38954 40160 51010 90551 333 10339
20206 555 90506=
72253 32966 61208 10272 20217 39889 40159 51013 90551 333 10344
20250 555 90506=
72207 17466 63520 10233 20228 30013 40030 58014 60101 761// 90553
333 10267 20233 91031 555 90506=
72248 32966 00000 10256 20200 30076 40167 50002 90556 333 10339
20217 555 90506=
72263 35966 01104 10239 20144 39517 40172 51004 90551 555 90506=
####018000876####
SMUS73 KWBC 050600 RRA
AAXX 05064
72351 35966 01003 10239 20189 39823 40175 50003 90552 333 10328
20211 555 90506=
72271 35966 02303 10267 20061 38587 40150 51018 90553 333 10328
20222 555 90506=
72214 35966 00000 10250 20217 30095 40112 58002 90553 333 10322
20233 555 90506=
72211 32966 22611 10289 20261 30112 40123 50000 90553 555 90506=
72356 32966 00000 10239 20222 39935 40174 51004 90553 333 10306
20217 555 90506=
72332 35966 00103 10244 20217 30036 40157 90553 333 10328 20206
555 90506=
72326 32966 00000 10233 20206 39791 40137 56003 90553 333 10300
20194 555 90506=
72255 35966 00705 10261 20239 30125 40159 50005 90551 333 10328
20250 555 90506=
78543 15566 60603 10272 20244 30072 40154 57014 69951 90553 333
10294 20267 555 90506=
78526 12566 40000 10272 20239 30136 40157 56014 60021 90556 333
10289 20267 555 90506=
####018004066####
SMSN01 ESWI 050600
AAXX 05061
02019 NIL=
02081 NIL=
02095 07058 91001 10053 20051 39852 40053 58002 69932 72487
  333 21022 69905 70003 86/01 90710 91102=
02101 47/61 /1304 10063 20043 39455 49997 57025 761// 8//// 333
10068 20014 89/30=
02119 07/79 /1201 10048 20023 39660 40042 58010 69952 76160
  333 10048 21002 60005 70005 90710 91102=
02124 07558 81002 10057 20050 39512 40030 57015 60022 76260
  333 10081 20021 60025 70020 84/30 88/39 90710 91104=
02126 NIL=
02151 36/// ///// 1//// 2//// 3//// 4//// 5//// 6///2
  333 1//// 2//// 6///5 7//// 910// 90710 911// 90710 912//=
02186 35983 51401 10097 20088 30022 40046 58010 60002
  333 10111 20045 60005 79999 85/61 91002 90710 91102 90710 91201=
02197 NIL=
02207 07599 82602 10065 20058 39269 49952 56009 60072 70086
  333 10088 20065 60005 70070 88/27 90710 91105=
02219 07/68 /1005 10069 20064 39303 49952 57030 60112 76166
  333 10088 20062 69975 70110 90710 91110=
02226 47/81 /1405 10103 20093 39498 49936 56022 761// 8//// 333
10115 20080 87/09 88/13=
02243 07/60 /1104 10097 20082 39704 49965 58037 60072 76266
  333 10098 20075 60025 70074 90710 91110=
02269 07256 81315 10140 20129 60022 76165
  333 10144 20124 69975 70023 84/04 88/12 90710 91119=
02287 07665 81403 10114 20098 30016 40026 58025 69902 76186
  333 10139 20113 69905 70006 86/40 87/50 88/57 90710 91110=
02297 07699 81607 10116 20095 39990 40034 58021 69992 70082
  333 10121 20077 60005 70030 81/48 88/56 90710 91111=
02308 07/99 /0000 10070 20041 39115 49953 55001 60162 70086
  333 10072 20062 60005 70171 90710 91103=
02327 07/99 /1602 10108 20100 39530 49948 58006 60092 70086
  333 10113 20082 60005 70089 90710 91104=
02355 07140 81807 10104 20101 39962 49974 57024 60102 76186
  333 10113 20081 69985 70104 86/03 87/14 88/19 90710 91112=
02366 47/62 /1406 10125 20124 39966 49972 56030 762// 8//// 333
10131 20099 86/07 87/09 88/56=
02407 07/80 /1904 10122 20086 39614 49968 52002 60172 78286
  333 10133 60005 70185 90710 91107=
02418 45/81 /2005 10122 20109 39870 49997 55000 8//// 333 10147
20114 81/13=
02435 45/83 /2003 10129 20113 39804 49984 55003 8//// 333 10135
20108 82/17 83/21=
02440 07/82 /1903 10134 20123 60112 72366
  333 10134 20098 69915 70114 90710 91108=
02452 07473 72303 10118 20109 60142 70086
  333 10126 20114 60005 70217 87/10 90710 91109=
02456 07371 81802 10139 20137 39960 40000 58013 60002 72386
  333 10148 20123 60005 70000 87/09 88/12=
02469 07/80 /2002 10146 20134 60052 70086
  333 10164 20121 60005 70050 90710 91105=
02498 07159 82009 10157 20149 30005 40021 55018 60052 76286
  333 10175 20144 60055 70049 81/03 83/14 86/56 88/58 90710 91119=
02518 465// 3//07 10150 20107
  333 10168 20142 81/29 83/48 90710 91110=
02520 12581 12005 10119 20114 39956 40021 53005 60032 81800
  333 10147 20109 32/// 60005 70078 81820 91006 90710 91106 90710
91205=
02550 45/80 /2304 10123 20114 39775 40041 52011 8//// 333 10149
20115 81/13=
02562 01484 72204 10134 20118 39921 40032 53003 60022 78086 86500
  333 10165 20131 31/// 69925 70025 81615 83640 86657 91006 90710
91106 90710 91205=
02563 07682 22105 10144 20132 30008 40029 57003 69962 70086
  333 10155 20138 60005 70006 82/47 90710 91108=
02565 07568 82304 10150 20124 39931 40046 53002 69952 70086
  333 10154 20132 60005 70006 86/20 87/57 90710 91107=
02589 07475 72206 10178 20160 30016 40036 55009 60022 72386
  333 10185 20140 60005 70016 81/14 85/28 87/56 90710 91115=
02590 17482 82206 10164 20145 39992 40051 53005 69962 70086
  333 10184 20154 60005 70006 82/18 84/59 88/66 91008 90710 91111
90710 91208=
02618 07/61 /2102 10133 20125 39894 40053 52010 60242 70086
  333 10145 20119 60005 70253 90710 91105=
02664 11481 12504 10146 20139 30001 40070 53012 60012 70181 81502
  333 10180 20146 30/// 60005 70014 81611 91006 90710 91107 90710
91204=
02679 07899 72308 10180 20143 30020 40063 51010 69902 70082
  333 10194 20169 60005 79999 84/58 85/60 87/65 90710 91111=
####018000513####
SMSN02 ESWI 050600
AAXX 05061
02464 47/78 /2003 10150 20141 39999 40016 55010 722// 8//// 333
10167 20135 86/59=
02500 05981 02508 10139 20076 39958 49999 52007 60012
  333 10163 20135 60005 70193 90710 91113=
02513 05/82 /2304 10149 20117 30034 40038 52005 60092
  333 10165 20142 60005 70276 90710 91107=
02615 07981 02610 10156 20105 30080 40084 52007 69952 70010
  333 10187 20150 60005 70006 90710 91114=
02635 05/78 /2605 10152 20107 69902
  333 10179 20137 60005 70007 90710 91109=
####018000134####
SMNO01 ENMI 050600 CCB
AAXX 05061
01317 11470 83306 10100 20077 39987 40030 52015 6//// 72582 888//
      333 20090 32/// 91111=####018000252####
SMJD50 OJAM 050600
AAXX 05064
40260 32960 02507 10232 20115 39326 40065 52007 333 20190 30017=
40265 31540 53206 10220 20173 39336 40096 52008 70522 85100 333 20166
30013 85825=
40310 32960 00000 10220 20064 38920 48488 54003 333 20155 30013=####018000330####
SMZM02 NSAP 050600
AAXX 05061
91737 16/// /0303 10244 20246 39752 40019 52014 60005
  333 55300 20004 58012=
91735 4//// ///// 48///=
91736 4//// ///// 48///=
91738 4//// ///// 48///=
91739 4//// ///// 48///=
91740 4//// ///// 48///=
91741 4//// ///// 48///=
91742 4//// ///// 48///=
91743 4//// ///// 48///=####018000442####
SMKA02 PTTP 050600
AAXX 05064
91353 11474 81806 10300 20256 30085 40086 5//// 60131 70282 83208
333 564/9 70127 83818 86280 555 90506
91350 11474 82706 10278 20259 30080 40081 5//// 60041 70282 882//
333 56699 70043 88817 555 90506
91425 11474 82106 10278 20261 30092 40093 5//// 60101 70282 882//
333 56599 70104 88817 555 90506
91434 11474 82206 10283 20253 30075 40076 5//// 60071 70282 882//
333 56499 70069 88817 90506=####018000142####
SMSN01 ESWI 050600 RRB
AAXX 05061
02126 07965 00902 10077 20070 39672 40002 58026 60022 76186
  333 10077 20021 60025 70022 90710 91105=####018000136####
SMSN01 ESWI 050600 RRD
AAXX 05061
02019 05/99 /0201 10041 20035 39422 40038 58008 69912
  333 10068 20012 60005 70012 90710 91103=####018000136####
SMSN01 ESWI 050600 RRA
AAXX 05061
02197 05966 01601 10089 20087 30036 40054 58007 60002
  333 10089 20024 60005 70008 90710 91102=####018000204####
SMGG40 UGGG 050600
AAXX 05061
37279 36/// /2002 10246 20185 39970 40157 51008 60002
  333 20174=
37308 36/// /1006 10229 20126 39500 4//// 5//// 6///2
  333 2//// 4/001 91006 91106=
37531 NIL=####018001597####
SMTR10 UTAA 050600
AAXX 05061
38388 72998 02903 10250 20056 30078 40144 52009
      333 20125 6////=
38392 72997 23506 10248 20089 30035 40131 53013 82030
      333 20155 6////=
38507 72998 20302 10248 20077 30062 40158 52011 80001
      333 20160 6//// 91005
      555 50238=
38511 72998 00000 10223 20053 30021 40154 52010
      333 20119 6////=
38545 72998 30000 10262 20098 39965 40127 52007 82063
      333 20124 6////=
38647 72998 00101 10250 20127 30105 40144 52008
      333 20190 6////=
38656 72998 03203 10258 20078 30046 40149 52010
      333 20164 6////=
38687 72997 20903 10273 20076 39913 40131 52008 82030
      333 20176 6////=
38750 72997 00502 10263 20205 30171 40144 52007
      333 20184 6////=
38763 72998 00000 10248 20074 30057 40156 52004
      333 20184 6////=
38774 72998 03401 10239 20118 39977 40161 52008
      333 20201 6////=
38799 72997 22002 10284 20117 39921 40135 52008 82030
      333 20153 6////=
38806 72997 02902 10284 20106 39882 40123 52008
      333 20139 6////=
38880 02997 03303 10245 20077 39909 40148 52008 60002
      333 20194 6////=
38886 72997 02702 10270 20105 39927 40139 52006
      333 20171 6////=
38895 72996 00000 10280 20122 39866 40134 52007
      333 20171 6////=
38911 72998 03602 10284 20142 39844 40116 52010
      333 20151 6////=
38915 72997 20000 10312 20071 39813 40108 52006 80001
      333 20171 6////=
38974 72998 03401 10273 20114 39814 40124 52005
      333 20186 6////=
38987 72996 03501 10250 20090 39426 40120 58001
      333 20137 6////=####018000108####
SMIN90 VOMM 050600
AAXX 05064
43147 21597 62302 10284 20243 39976 49997 70252 83432
  333 59019 6992/=####018000136####
SMSN01 ESWI 050600 RRC
AAXX 05061
02081 07/77 /1001 10023 20014 39648 40052 57003 60002 70010
  333 21006 60005 70000 90710 91102=####018000090####
SIAA12 RJTD 040900 RRA
OOX2 MOBIL 04091 99740 30430 54791 33532 46/// /2712 10000 36310=####018000090####
SIAA12 RJTD 042100 RRA
OOX2 MOBIL 04211 99740 30430 54791 33532 46/// /2813 10000 36267=####018000090####
SIAA12 RJTD 040300 RRA
OOX2 MOBIL 04031 99740 30430 54791 33532 46/// /2714 10000 36326=####018000090####
SIAA12 RJTD 041500 RRA
OOX2 MOBIL 04151 99740 30430 54791 33532 46/// /2813 10000 36289=####018000140####
SMNO24 ENMI 050600 RRB
AAXX 05061
01329 11389 82705 10106 20077 39954 40014 53008 60032 70282 885//
      333 20093 32/// 70249 91111=####018000096####
SMNO25 ENMI 050600 RRB
AAXX 05061
01156 16/// /0602 10089 20081 60042 333 20085 70097 91106=####018000205####
SMZA50 FAPR 050600 RRA
AAXX 05064
67237 32570 12104 10207 20168 40209 81100 333 20171 50500 55083 59002
555 10000=
67241 32580 61604 10235 20197 40178 86200 333 20187 5///0 55/// 58001
555 10000=####018000114####
SMUR11 UKMS 050600 CCA
AAXX 05061
33415 31996 00000 10112 20090 39794 40185 57001 71040 333
20058 555 10011=####018000102####
SMNO26 ENMI 050600 RRC
AAXX 05061
01476 46/// /2507 10113 20089 39998 40004 52002 333 20108 91110=####018000074####
SMNO24 ENMI 050000 CCB
AAXX 05001
01344 16/// ///// 10061 20054 6////=####018000084####
SMNO24 ENMI 050600 CCB
AAXX 05061
01344 16/// ///// 10058 20049 6//// 333 20057=####018001408####
SMJP01 RJTD 050600
AAXX 05064
47401 12/70 72212 10227 20181 30134 40148 55012 60001 81102=
47412 12/70 71407 10249 20161 30131 40161 56012 60001 81136=
47420 15/70 /1814 10200 20172 30154 40186 58012 60001=
47426 15/70 /1407 10215 20169 30139 40184 58013 60001=
47582 11/75 71207 10258 20187 30135 40160 58016 69901 70262 8457/=
47590 12/70 81407 10245 20200 30127 40178 56012 60001 8787/=
47600 15/70 /0505 10290 20205 30142 40150 56010 60001=
47648 15/70 /0307 10263 20236 30145 40177 56010 60001=
47662 12/65 71803 10283 20239 30141 40169 56015 60001 8227/=
47678 15/70 /0706 10292 20248 39984 40155 57013 60001=
47740 15/64 /0804 10294 20250 30098 40130 58012 60001=
47778 17/70 /0607 10277 20257 30075 40154 56011 60011 72360=
47807 12/70 73207 10329 20244 30087 40104 58016 60001 86333=
47827 12/81 61209 10325 20251 30065 40100 58018 60001 81232=
47843 15/70 /0806 10295 20244 30075 40105 58015 60001=
47893 11/70 71404 10295 20253 30142 40148 56010 60171 72582 84232=
47909 11/70 71208 10307 20258 30063 40072 58014 69901 72582 87202=
47918 11460 83220 10271 20255 39910 49927 55007 60101 78082 8627/=
47936 11/50 81326 10252 20240 39958 40015 57025 60121 78182 882//=
47945 11/70 71412 10295 20263 30053 40076 57013 69901 72582 82202=
47971 17/70 /0406 10284 20252 30106 40115 56011 69901 72360=
47991 16/// /0925 10291 20257 30082 40092 55002 69901=
####018000131####
SMFI01 EFKL 050600 RRD
AAXX 05061
02769 37483 71405 10115 20106 39924 40038 57030 70085 83/// 90600
333 10115 20032 3/101=
####018001942####
SMJP02 RJTD 050600
AAXX 05064
47407 12/84 72408 10250 20151 39998 40158 56017 60001 81236=
47409 12/82 71607 10244 20151 30108 40158 57018 60001 81132=
47418 12/82 61709 10198 20165 30137 40184 58014 60001 81202=
47421 15/70 /1512 10220 20167 30125 40166 58009 60001=
47430 12/70 71608 10250 20187 30117 40168 56013 60001 81232=
47570 15/70 /3005 10293 20215 39915 40154 56018 60001=
47575 11/80 73506 10251 20202 30160 40165 56012 69901 70282 8127/=
47584 11/60 81903 10223 20199 39998 40177 56010 69901 78086 882//=
47604 12/81 71202 10307 20223 30143 40149 56015 60001 81232=
47605 12/80 72907 10323 20212 30105 40143 56008 60001 83302=
47610 15/70 /2604 10298 20207 39677 40139 56013 60001=
47624 15/68 /1304 10275 20203 30041 40170 56013 60001=
47629 15/70 /0904 10266 20214 30140 40176 57011 60001=
47636 11/65 71609 10286 20235 30097 40161 58009 69901 70282 8327/=
47651 11/50 81603 10259 20236 30144 40165 58007 60141 79182 8727/=
47655 15/70 /1009 10293 20225 30110 40167 56008 60001=
47675 15/70 /2205 10295 20230 30080 40165 56014 60001=
47741 11/82 70103 10258 20240 30103 40129 55006 60061 71798 87963=
47746 12/81 71910 10333 20227 30112 40130 56016 60001 81232=
47750 17/62 /0709 10296 20256 30133 40138 56014 69901 76160=
47765 12/80 61910 10315 20202 30067 40127 56014 60001 81832=
47772 11/10 82307 10248 20236 30055 40150 55003 60231 79782 889//=
47800 15/70 /1502 10301 20254 30109 40114 58016 60001=
47815 11/80 71710 10303 20242 30105 40120 58020 60011 70282 82271=
47817 12/80 50703 10328 20237 30060 40100 58018 60001 82301=
47830 11/60 70609 10275 20250 30105 40122 56017 60011 78082 872//=
47887 11/70 70402 10299 20229 30091 40130 56014 69901 70282 84232=
47891 12/80 71007 10318 20228 30119 40131 56016 60001 82232=
47895 11475 71607 10290 20248 30138 40145 56013 69951 70282 85272=
47927 11/20 82639 10274 20262 39414 49458 55152 61031 78088 883//=
####018002002####
SMCI03 BABJ 050600
AAXX 05061
50136 32680 21101 10206 20126 39593 40100 57005 82/// 333
20141=
50745 32/69 92005 10296 20196 39880 40048 57010 333 20206=
50774 32980 52705 10294 20152 39773 40077 57009 85/// 333
20148=
50788 32580 41805 10279 20189 30008 40086 57009 84/// 333
20178=
51133 32680 22502 10228 20078 39505 40119 57007 82/// 333
00006 20129=
51431 11780 01403 10226 20094 39369 40119 57011 69951 70060
333 00452 20147=
51747 31928 33607 10283 20086 40015 57013 70700 83/// 333
00154 20154=
52203 32976 02701 10351 20055 39186 49986 57008 333 05203
20161=
52418 32975 50401 10326 20117 38768 49977 57018 85/// 333
05101 20144=
52681 32680 01102 10300 20095 38560 49993 57018 333 05201
20187=
53564 32580 32704 10277 20065 38940 40076 57022 83/// 333
05200 20085=
53614 32663 60402 10268 20142 38839 40044 57019 86/// 333
05200 20157=
53646 32980 71605 10260 20027 38813 40067 57016 87/// 333
05200 20133=
53798 32964 41402 10315 20137 39856 40065 57023 84/// 333
20186=
53845 32680 72002 10255 20134 38792 40077 57019 87/// 333
05202 20116=
53959 32980 41601 10309 20118 39639 40063 57026 84/// 333
20185=
54094 32680 52204 10256 20180 39762 40115 57010 85/// 333
20135=
54102 32680 73404 10310 20031 38964 40049 57016 87/// 333
20141=
54161 32579 51403 10268 20189 39813 40085 57013 85/// 333
20186=
54292 11679 80705 10220 20184 39824 40125 57013 69901 72160
88/// 333 20182=
54374 32580 62201 10283 20178 39653 40086 57020 86/// 333
20156=
54423 32573 23202 10315 20072 39583 40058 57021 82/// 333
20166=
54618 32968 42702 10307 20159 30062 40078 57018 84/// 333
20201=
54843 32772 51102 10309 20145 30055 40081 57021 85/// 333
20187=
54909 32671 02501 10301 20172 40084 57023 333 20171=
56029 32680 30702 10206 20046 36484 57023 83/// 333 05102
20065=
57127 32978 61602 10272 20188 39504 40077 57023 86/// 333
20205=
57131 32962 70902 10291 20182 40066 57021 87/// 333 20200=
####018000122####
SMVD14 LFPW 050600
BBXX
DDSB2 05063 99144 70807 41/// /0614 10290 20256 40127 57008 70200
8////
22284 00270 2////=####018000187####
SMOM10 OOMS 050600 RRA
AAXX 05064
41287 36/// /1105 10302 20230 39978 40017
333 0E026 20242 59010 =
41301 36/// /2305 10334 20185 39847 40006
333 0E030 20272 55300 25022 59004 =####018000136####
SMCG01 FCBB 050600 RRA
AAXX 05063
64406 31440 80000 10212 20203 39/// 40/// 710// 885//
  333 0//00 20205 50334 55/// 5//// 88610=####018000086####
SNAA20 LIIB 050500 RRB
AAXX 05054
89659 46/// /3117 11430 29057 37485 4//// 5////=####018000799####
SMIR05 OIII 050600
AAXX 05061
40716 12665 10605 10232 20145 38892 40080 51006 60001 81100 333
30011 50781 70000 555 10178 29058=
40719 11360 82502 10218 20209 30147 40137 51008 60021 70265 8532/
333 32021 50191 70045 85707 81920 88457 555 10212 29094=
40721 12960 03102 10260 20110 39627 40144 52006 60001 333
30017 50791 70000 555 10173 29039=
40858 12960 00000 10360 20152 39990 49997 52009 60001 333 30027 51121 70000 555 10228 29029=
40872 11957 01601 10362 20293 30003 40007 52011 60001 70500 222// 00344 20301 333 30030 5///1 7000
0 555 10310 29068=
40877 12960 02204 10370 20139 39470 49971 52011 60001 333 30027
51411 70000 555 10224 29025=
40898 12560 21304 10322 20263 30012 40021 50005 60001 82100
222// 00285 20801 333 30028 50831 70000 82825 555 10279 29071=####018001657####
SMPO01 LPMG 050600
AAXX 05061
08501 12/// /1104 10213 20213 30252 40287 57010 69942
  333 20205 30020 55056 21743 90760 91007 91109=
08509 11350 70904 10196 20187 30218 40283 57007 60042 75065 872//
  333 20196 5028/ 55066 85707 85818=
08512 32470 30704 10194 20172 30181 40272 57002 83800
  333 20194 30019 55095 22355 82818 90760 91108=
08515 12584 30707 10214 20174 30150 40257 57002 69922 83800
  333 20204 30019 5051/ 55027 21199 81822 83650 90760 91112=
08533 16/// /9906 10175 20164 30121 40149 60002
  333 20173=
08541 32/// /1601 10151 20146 30043 40160 54000
  333 20151 30012 55114 22397=
08545 16/// /0405 10196 20095 30114 40196 53013 60002
  333 20177 55/// 22332=
08548 32/// /0609 10211 20093 39961 40159 57003
  333 20147 30015 55116 22458 90760 91016 91116=
08554 32/// /0802 10231 20161 30139 40148 52002
  333 20215 30023 55095 22361=
08558 32/// /3601 10143 20097 39867 40158 54000
  333 20139 30010 55082 22222=
08560 16/// /0610 10158 20085 39456 40198 53009 60002
  333 20156=
08567 32/// /3601 10144 20082 39579 40236 52011
  333 20144 30012 55097 22262=
08570 32/// /0206 10192 20066 39728 40173 52019
  333 20190 30018 55000 20060 90760 91009 91113=
08575 32/// /0101 10123 20074 39444 40250 52012
  333 20123 31009 55114 22433=
08579 16/// /3603 10181 20135 30036 40159 52002 60002
  333 20180 55/// 22338=
08504 12/// /3602 10204 20185 30233 40273 57007 69982
  333 20194 30018 55075 22118 90760 91105=
08507 32/// /0000 10199 21025 30259 40289 57004
  333 20199 31019 55085 22059=
08510 16/// /0402 10188 20174 48/// 60022
  333 20183 30138 55/// 21349=####018020702####
SMZA50 FAPR 050600
AAXX 05064
67215 32580 72208 10244 20210 40194 83252 333 20206 50196 55/// 59001
555 10000=
67283 35580 20000 10204 20171 40200 82200 333 20150 5///0 55/// 59010
555 10000=
67295 32980 00000 10184 20145 39419 48572 333 20140 50670 55083 59020
555 10000=
67297 32570 12904 10208 20172 40200 81230 333 20155 50340 55/// 59010
555 10000=
67301 32980 00506 10200 20026 3//// 48/// 333 20156 5///0 55/// 5////
555 10000=
67323 32580 10000 10216 20191 40202 52022 81100 333 20190 50380 55105
555 10000=
67327 11909 00206 10183 20181 40194 52020 69914 74244 333 20162 50570
55085 555 10000=
67341 32570 31913 10234 20167 40206 52015 83200 333 20198 5///0 55/// 555
10000=
67586 31965 00907 10200 20085 38832 48551 70500 333 20120 51021 55091
59009 555 10273 7//11=
68014 32989 02804 10170 21067 38623 48539 52008
           333 20105  555 10332 2////  91022=
68018 32989 00506 10204 20050 38925 48524 52007
      333 20175 555 10340 91018=
68024 31960 00408 10196 20026 38890 48522 51020 702//
      333 20151 30/// 50511 70000=
68026 31960 00503 10202 20059 39040 48/// 702// 8/000
      333 10339 20125 30/// 50611 70000=
68029 31960 00802 10213 20041 39048 48/// 52017 70500 8/000
      333 10322 20127 30/// 5///1 70000=
68054 31960 00205 10195 20008 39058 48556 51018 70200 8/000
      333 10304 20065 30/// 5///1 70000=
68098 12389 80105 10122 20099 30077 40187 53005 69924 88600
      333 20120 91007 555 10130 20002 91018=
68109 32989 01702 10119 21088 38329 4//// 52009
    333 2//// 9//// 555 1//// 91023=
68110 36/// /1103 10157 21084 38305 48528 53005
      333 20142 91004 555 10309 91022=
68112 32989 00000 10115 21100 38350 48537 53002
      333 2//// 91005 555 1//// 91023=
68116 36/// /3303 10142 21097 38581 48527 53003
      333 20097 91006 555 10341 91021=
68155 36/// /0704 10206 20011 39240 48565 52017
      333 20130 91007 555 10311 91021=
68163 36/// /0903 10203 20023 39073 48566 53010
      333 20074 91005 555 10306 91022=
68172 36/// /1405 10227 20007 39387 48569 53013
      333 20144 91008 555 10314 91020=
68174 31965 02403 10135 21001 38835 48552 53011 70400
      333 20099 91004 555 10270 91023=
68176 36/// /0802 10183 20014 39186 48563 53016
      333 20092 91004 555 10322 91022=
68182 36/// /3602 10178 20048 39412 48586 53024
      333 20133 91003 555 10324 91023=
68183 16/// /2104 10185 20036 39545 48620 53021 69924
      333 20132 91007 555 10322 20002 91026=
68184 36/// /1502 10169 20029 39120 48579 53027
      333 20166 91004 555 10290 91024=
68186 36/// /1903 10187 20046 39357 48594 53020
      333 20134 91007 555 10316 91024=
68187 36/// /1105 10190 20096 39684 48591 53022
      333 20110 91011 555 10335 91022=
68188 36/// /0000 10188 20057 39263 48583 53020
      333 20103 91002 555 10322 91024=
68189 36/// /1605 10180 20016 39058 48566 53015
      333 20172 91008 555 10290 91023=
68190 36/// /1802 10220 20064 39557 40274 52033
      333 20163 555 10344 91030=
68192 32970 02803 10193 20047 39568 48631 53022
      333 20121 91004 555 10326 91027=
68196 36/// /0902 10215 20043 39666 48586 53018
      333 20180 91003 555 10326 91020=
68212 36/// /1502 10175 21069 38932 48541 53010
      333 20161 91005 555 10337 91021=
68241 36/// /0605 10191 21035 39040 48558 53012
      333 20116 91010 555 10303 91022=
68242 32980 00506 10188 21032 38762 48541 53007
      333 20104 91010 555 10296 91021=
68248 36/// /1604 10141 20000 38997 48563 53008
      333 20087 91007 555 10303 91024=
68249 36/// /0000 10192 21000 38828 48570 53011
      333 20093 91002 555 10285 91025=
68250 36/// /0000 10139 21020 39025 48550 52013
      333 20071 91001 555 10312 91022=
68254 36/// /1702 10166 21018 38842 48566 53015
      333 20077 91003 555 10292 91024=
68255 36/// /1104 10171 20004 38904 48547 53011
      333 20102 91006 555 10297 91022=
68257 36/// /0000 10188 21004 38978 48556 52011
      333 20106 91002 555 10307 91022=
68258 36/// /2502 10128 20015 38901 48558 53008
      333 20063 91004 555 10306 91024=
68260 36/// /0303 10155 21005 38696 48573 53008
      333 20099 91006 555 10280 91026=
68263 32970 01304 10172 21003 38527 48550 52007
      333 20089 91006 555 10265 91024=
68264 36/// /0905 1//// 2//// 38550 4//// 53002
      333 2//// 91008 555 1//// 91024=
68267 11958 01006 10117 20051 38288 48564 52010 69944 70500
      333 20056 91009 555 10248 20004 91026=
68268 36/// /0000 10183 21019 38931 48568 52013
      333 20076 91003 555 10303 91024=
68269 36/// /0904 10174 20015 38607 48545 53003
      333 20120 91008 555 10290 91023=
68271 36/// /3503 10199 20019 38961 48563 53008
      333 20149 91006 555 10306 91023=
68272 36/// /2502 10160 20028 39135 48569 53010
      333 20110 91003 555 10308 91023=
68273 36/// /0704 10168 21003 38505 48559 53006
      333 20106 91006 555 10270 91025=
68274 36/// /0000 10129 20016 38677 48567 53009
      333 20057 91002 555 10285 91025=
68290 31970 00000 10175 20113 39241 48584 52015 70500
      333 20144 91002 555 10314 91024=
68300 36/// /1807 10128 20103 30020 40173 53012
      333 20121 91010 555 10243 91017=
68312 32889 10000 10187 21075 38976 48535 56020 81081
      333 20173 91003 555 10325 91019=
68322 32880 61706 10196 21127 39165 48534 52012 81070
      333 20186 91011 555 10352 91018=
68325 41960 10307 10187 21023 38770 48542 51010 702// 81001
      333 20144 30/// 5///1 81062=
68328 32960 01706 10163 2//// 48/// 52020 87080 333 20108=
68329 36/// /0704 10185 21068 39126 48551 52006
      333 20159 91006 555 10333 91020=
68331 36/// /1509 10166 21092 38868 48547 53002
      333 20131 91012 555 10292 91022=
68333 36/// /2002 10138 21069 38727 48545 53009
      333 20106 91006 555 10285 91023=
68335 36/// /2007 10135 21041 38954 48554 53007
      333 20086 91012 555 10311 91023=
68336 36/// /1702 10138 21048 38888 48552 53005
      333 20082 91005 555 10290 91023=
68338 36/// /1602 10159 21057 38811 48550 53008
      333 20075 91003 555 10315 91023=
68341 36/// /3107 10186 20003 38571 48568 53008
      333 20089 91012 555 10281 91026=
68342 36/// /0000 10161 21018 38549 48546 52011
      333 20067 91001 555 10269 91023=
68343 36/// /0202 10125 20009 38838 48552 53011
      333 20043 91004 555 10288 91023=
68345 36/// /0707 10136 21065 38709 48548 53011
      333 20073 91009 555 10271 91023=
68347 36/// /0000 10112 21044 38396 48226 51003
      333 20070 91003 555 10275 90986=
68348 36/// /0906 10117 21066 38797 48554 53009
      333 20050 91010 555 10281 91024=
68349 36/// /0206 10156 21022 38544 48537 52007
      333 20093 91010 555 10265 91022=
68350 36/// /0604 10119 21022 38704 48549 53007
      333 20052 91006 555 10283 91023=
68351 36/// /0000 10141 21031 38476 48557 53002
      333 20050 91003 555 10267 91025=
68352 36/// /0000 10184 21002 38394 48551 52005
      333 20081 91002 555 10272 91025=
68353 36/// /2003 10102 21020 38564 48543 55000
      333 20053 91005 555 10266 91023=
68355 36/// /1107 10106 20034 38618 48554 53006
      333 20058 91010 555 10264 91024=
68361 36/// /0000 10182 20000 38422 48545 53005
      333 20094 91001 555 10274 91024=
68362 36/// /2705 10092 21012 38497 48506 52013
      333 20020 91007 555 10261 91019=
68368 31960 00705 10165 21006 38359 48553 53005 70500 333 20111 555 10246 91025=
68375 36/// /1504 10109 20044 38390 48565 53007
      333 20053 91019 555 10259 91026=
68376 36/// /1105 10086 20060 38298 48567 53006
      333 20043 91007 555 10240 91026=
68397 36/// /2004 10229 20183 30121 40217 52011
      333 20198 91011 555 10323 91021=
68400 32/// /1807 10219 20158 30133 40207 52013
      333 20196 91014 555 10335 91020=
68403 36/// /2903 10107 20100 30174 40203 53006
      333 20098 91005 555 10177 91020=
68408 36/// /1306 10104 20093 30187 40196 53003
      333 20085 91009 555 10163 91019=
68411 36/// /2602 10190 20007 39972 48575 53010
      333 20163 91003 555 10355 91018=
68416 32984 01805 10142 21030 39085 48549 52011
      333 20120 91009 555 10292 91022=
68424 32882 42402 10178 21074 39231 48546 52010 81070
      333 20157 91004 555 10316 91019=
68425 36/// /0000 10179 21052 39462 48562 53006
      333 20146 91003 555 10342 91020=
68429 36/// /2404 10144 21095 38729 48545 53008
      333 20117 91006 555 10282 91023=
68438 32882 61406 10120 21079 38860 48544 52012 86070
      333 20070 91009 555 10292 91022=
68439 36/// /1408 10110 20031 38952 48556 52014
      333 20108 91013 555 10280 91024=
68442 32880 71804 10111 21049 38705 48553 53017 87070
      333 20026 91007 555 10260 91024=
68443 36/// /0902 10116 21067 38673 48574 53013
      333 20056 91006 555 10269 91026=
68447 36/// /1405 10095 21076 38776 48562 53018
      333 20016 91007 555 10279 91025=
68449 36/// /0000 10057 21050 38445 48575 52033
      333 20003 91002 555 10244 91027=
68454 32589 70000 10081 21041 38423 48/// 5//// 83520 333 20059 555
10228=
68461 32980 70000 10063 20029 38373 48566 53007 80008
      333 20000 91007 555 10239 91026=
68471 36/// /1503 10101 20078 38376 48561 53008
      333 20083 91006 555 10258 91026=
68478 32589 81302 10142 20084 38896 48544 52013 885//
      333 20123 91003 555 10273 91022=
68479 36/// /1305 10145 20099 39025 48577 53011
      333 20124 91007 555 10303 91025=
68481 36/// /1305 10199 20129 39854 40226 52011
      333 20168 91008 555 10324 91023=
68485 36/// /0000 10126 20081 38689 48577 53015
      333 20105 91002 555 10258 91027=
68487 36/// /1602 10144 20119 39071 48581 53015
      333 20117 91003 555 10285 91025=
68488 36/// /0000 10181 20103 39346 48589 52013
      333 20144 91002 555 10303 91024=
68490 36/// /0000 10189 20159 30139 48622 53007
      333 20173 91003 555 10257 91023=
68491 36/// /2103 10203 20167 30213 40222 52012
      333 20187 91005 555 10292 91022=
68492 36/// /2102 10214 20176 30168 48633 52012
      333 20198 91003 555 10278 91022=
68493 36/// /2202 10178 20109 39622 48598 52014
      333 20141 91004 555 10298 91024=
68494 16/// /3203 10187 20140 30100 40234 53015 60014
      333 20150 91004 555 10265 20012 91023=
68495 36/// /2603 10195 20167 30189 40231 52015
      333 20180 91005 555 10246 91023=
68497 36/// /2504 10172 20146 30186 40235 53011
      333 20146 91006 555 10250 91023=
68512 32882 11118 10156 20010 39059 48549 53003 81080
      333 20144 91030 555 10258 91021=
68513 36/// /1313 10107 20091 30091 40206 53002
      333 20105 91018 555 10199 91020=
68516 36/// /3503 10115 20089 39929 48568 53001
      333 20091 91007 555 10262 91022=
68523 36/// /1409 10140 20041 39156 48554 53007
      333 20134 91013 555 10280 91022=
68524 32986 81410 10129 20049 39121 48561 52012 8807/
      333 20127 91015 555 10288 91023=
68527 36/// /1307 10152 20021 39131 48559 56001
      333 20142 91012 555 10301 91022=
68538 32782 81212 10099 20045 38791 48566 53023 8357/
      333 20084 91019 555 10268 91025=
68541 36/// /1709 10110 20033 38693 48574 53016
      333 20049 91013 555 10271 91026=
68542 36/// /2603 10072 20021 38601 48565 53017
      333 20023 91006 555 10265 91026=
68543 36/// /1609 10096 20056 38809 48568 53016
      333 20085 91012 555 10272 91026=
68546 36/// /1706 10100 20052 38727 48569 53013
      333 20069 91011 555 10257 91026=
68549 36/// ///// 10057 20004 38668 48574 53015
      333 20010 555 10253 91027=
68558 36/// /0000 10064 21001 38288 48612 52013
      333 20004 91001 555 10217 91032=
68572 31324 80502 10103 20068 38471 48580 52016 70344 886//
      333 20085 91003 555 10267 91028=
68573 36/// /2606 10107 20091 38948 48583 53018
      333 20101 91008 555 10233 91027=
68575 36/// /2006 10137 20103 39180 48590 53016
      333 20127 91011 555 10247 91026=
68577 36/// /0000 10102 20061 38647 48593 53017
      333 20084 91002 555 10251 91029=
68579 16/// /1809 10143 20135 39658 48599 53020 60034
      333 20141 91012 555 10222 20030 60165 91025=
68581 16/// /0102 10142 20132 39465 48591 53017 60024
      333 20136 91003 555 10254 20026 69945 91025=
68582 16/// /1807 10149 20145 39406 48586 53016 60024
      333 20139 91012 555 10256 20028 69925 91025=
68583 16/// /2002 10176 20125 30126 40238 53018 60064
      333 20172 91007 555 10257 20060 69965 91023=
68585 16/// /2110 10185 20159 30215 40232 53015 69924
      333 20174 91023 555 10250 20002 69925 91023=
68587 16/// /2606 10167 20149 30239 40255 53020 60064
      333 20167 91010 555 10229 20068 60105 91025=
68588 16/// /3603 10161 20154 30129 40244 53016 60194
      333 20159 91006 555 10264 20198 69925 91024=
68589 36/// /2202 10101 20045 38312 48574 53015
      333 20082 91005 555 10246 91027=
68591 16/// /1908 10154 20147 30077 40259 53021 60064
      333 20153 91013 555 10225 20066 60585 91026=
68592 12270 82106 10164 20157 30119 40246 5//// 69944 885//
      333 20160 91009 555 10239 20004 91024=
68593 16/// /2203 10183 20166 30226 40242 53018 60124
      333 20177 91005 555 10263 20122 60125 91024=
68594 12270 82009 10173 20160 30128 40236 52015 69944 885//
      333 20171 555 10244 20004 91023=
68613 36/// /1706 10106 20078 30118 40233 53010
      333 20085 91007 555 10212 91023=
68614 32880 23003 10113 20087 30177 40228 52015 82080
      333 20091 91006 555 10267 91022=
68618 32880 30816 10113 20052 39114 48561 53006 81082
      333 20088 91021 555 10257 91024=
68619 32880 31607 10108 20059 39393 48556 52010 83080
      333 20095 91014 555 10244 91022=
68624 32/// /1110 10090 20044 38816 48566 52008
      333 20082 91018 555 10253 91025=
68633 36/// /1515 10097 20058 38576 48568 53008
      333 20082 91022 555 10257 91026=
68647 36/// /0702 10109 20079 39007 48593 53017
      333 20103 91007 555 10236 91028=
68649 36/// /1605 10085 20052 38471 48586 53015
      333 20055 91010 555 10232 91028=
68651 36/// /1606 10095 20072 38634 48593 53008
      333 20074 91009 555 10226 91029=
68668 11215 81807 10111 20107 39398 48594 53010 60034 75966 886//
      333 20107 91012 555 10223 20038 69925 91027=
68674 16/// /3003 10152 20145 30220 40251 53017 60754
      333 20151 91007 555 10236 20750 60225 91025=
68677 16/// /2509 10159 20135 30159 40266 53011 60424
      333 20147 91017 555 10242 20422 91026=
68695 36/// /1806 10125 20076 30199 48595 52010
      333 20101 91013 555 10219 91023=
68710 36/// /1302 10085 20059 30219 48574 53011
      333 20052 91003 555 10270 91023=
68711 36/// /1202 10112 20073 30110 40232 53007
      333 20099 91003 555 10261 91023=68712 32970 21515 10131 20082 30159 40234 52008 82060
      333 20113 91021 555 10164 91023=
68713 36/// /2104 10147 20063 30123 48615 52016
      333 20127 91007 555 10218 91025=
68714 36/// /1908 10121 20070 30192 48586 52009
      333 20105 91011 555 10214 91022=
68715 36/// /0000 10088 20069 30116 48573 52013
      333 20066 91002 555 10214 91023=
68716 16/// /1205 10116 20065 30023 48585 52013 69924
      333 20073 91009 555 10212 20002 91023=
68717 36/// /0503 10092 20073 30082 48567 52017
      333 20064 91005 555 10239 91022=
68718 32589 81203 10130 20089 30034 48633 52012 885//
      333 20126 91009 555 10202 91028=
68719 36/// /0606 10093 20045 39169 48591 52023
      333 20053 91010 555 10219 91028=
68722 32480 81009 10073 20047 38619 48572 52011 885//
      333 20053 91014 555 10211 91027=
68723 36/// /1205 10116 20065 39505 48602 53013
      333 20107 91008 555 10214 91027=
68727 36/// /0808 10104 20071 39226 48587 53011
      333 20103 91013 555 10240 91027=
68737 31308 81707 10107 20091 39349 48593 52016 76122 886//
      333 20105 91013 555 10241 91027=
68744 36/// /1513 10096 20070 39197 48586 53014
      333 20096 91019 555 10231 91027=
68747 16/// /1607 10112 20104 39742 48612 53017 69944
      333 20112 91010 555 10240 20004 69925 91028=
68752 16/// /1811 10101 20099 39581 48602 52023 60014
      333 20100 91015 555 10114 20010 69925 91028=
68809 36/// /1104 10123 20068 30090 48589 53008
      333 20098 91007 555 10207 91023=
68810 36/// /3307 10143 20071 30034 48605 52016
      333 20121 91012 555 10226 91024=
68811 36/// /1407 10129 20080 30233 40241 52010
      333 20100 91011 555 10199 91024=
68815 36/// /3003 10101 20060 39725 48598 52022
      333 20052 91005 555 10223 91027=
68816 32681 11515 10140 20081 30185 40241 55010 81500
 333 20131 91020 555 10193 91024=
68817 36/// /1621 10154 20067 30223 40236 52010
      333 20142 91039 555 10183 91023=
68819 36/// /1611 10146 20065 30108 48593 53001
      333 20141 91037 555 10186 91022=
68820 36/// /1708 10147 20075 30236 48623 52008
      333 20137 91018 555 10189 91025=
68821 36/// /1408 10133 20086 30037 48631 52016
      333 20118 91013 555 10224 91028=
68822 16/// /1511 10118 20059 39969 48599 52010 69944
      333 20116 91027 555 10199 20004 91025=
68823 36/// /0000 10124 20060 39645 48611 53006
      333 20072 91002 555 10255 91027=
68825 36/// /0804 10114 20077 39651 48614 53017
      333 20110 91009 555 10216 91028=
68827 12670 71402 10138 20082 39898 48634 5//// 69984 875//
      333 20135 91003 555 10138 20008 69985 91029=
68828 11470 83503 10120 20099 30050 40289 53011 60054 70262 885// 333 20115 91004 555 10192 20045 91029=
68829 16/// /0000 10107 20099 39972 40292 53008 60134
      333 20102 91005 555 10193 20138 69965 91028=
68832 32570 60803 10112 20071 39310 48607 52013 85300
      333 20087 91005 555 10215 91029=
68833 16/// /1104 10107 20096 39619 48617 53012 69944
      333 20104 91006 555 10196 20004 91029=
68835 16/// /0000 10125 20114 30187 40303 53016 60024
      333 20121 91002 555 10205 20026 69925 91030=
68837 16/// /2004 10132 20111 30234 40291 53015 60024
      333 20124 91006 555 10210 20028 91029=
68840 36/// /1609 10110 20092 39683 48616 53016
      333 20109 91012 555 10222 91029=
68841 16/// /2802 10124 20119 30121 48637 53018 60014
      333 20119 91003 555 10235 20012 69925 91029=
68842 11670 81607 10139 20096 30219 40288 52001 60074 76062 885// 333 20123 91010 555 10194 20072 91028=
68843 16/// /2903 10120 20109 30181 40283 53018 60084
      333 20118 91006 555 10214 20080 69945 91028=
68844 16/// /1607 10136 20094 30222 40295 53016 60064
      333 20123 91010 555 10194 20060 69925 91029=
68848 16/// /1804 10146 20098 30279 48660 53013 60044
      333 20135 91009 555 10205 20042 69945 91029=
68849 36/// /1710 10096 20093 39526 48600 53015
      333 20092 91015 555 10186 91028=
68858 11138 82311 10134 20131 30124 40284 53026 60064 76266 885// 333 20131 555 10225 20062 91028=
68911 36/// /1223 10141 20083 30243 40251 53005
      333 20138 91036 555 10207 91025=
68912 32374 21417 10140 20043 30247 40256 52007 81101
      333 20130 91029 555 10182 91025=
68916 36/// /1031 10118 20084 39982 40258 52004
      333 20113 91043 555 10171 91025=
68918 16/// /1013 10131 20095 30260 40277 52007 69924
      333 20112 91019 555 10185 20002 91027=
68920 12470 11508 10152 20106 30273 40286 52010 69924 81800
      333 20144 91014 555 10184 20002 91028=
68921 16/// /1013 10149 20105 30288 40292 53007 69924
      333 20141 91018 555 10190 20002 91029=
68922 16/// /1004 10138 20076 30110 48645 52012 69964
      333 20125 91008 555 10171 20006 91029=
68923 16/// /1003 10130 20100 30109 48645 53007 69964
      333 20112 91005 555 10194 20006 91029=
68924 36/// /1806 10110 20087 30268 48632 53005
      333 20021 91009 555 10183 91028=
68925 16/// /0907 10109 20077 39921 48609 52007 69924
      333 20099 91014 555 10173 20002 91027=
68926 16/// /0000 10124 20099 30122 40307 52015 60014
      333 20119 91001 555 10175 20014 91030=
68927 16/// /1106 10142 20084 30166 40291 53011 69944
      333 20116 91009 555 10199 20004 91029=
68928 16/// /0502 10133 20117 30118 40282 53010 60034
      333 20132 91010 555 10178 20030 91028=
68931 16/// /0806 10128 20120 30137 40305 53009 60254
      333 20120 91009 555 10178 20250 91030=
68933 16/// /0606 10132 20125 30297 40305 52017 60364
      333 20129 91009 555 10186 20362 69945 91030=
68935 16/// /0503 10125 20105 30227 40293 53011 60234
      333 20122 91006 555 10186 20230 69925 91029=
68939 16/// /1914 10155 2//// 30285 40295 53014 60024
      333 20136 91018 555 10176 20028 91029=####018000086####
SICI26 BABJ 050300 CCC
AAXX 05031
56739 32574 70201 10217 20171 38293 52009 87///=####018000129####
SMTH42 VTBB 050600 RRF
AAXX 05064
48387 01412 82708 10222 20213 39128 40078 57008 69991 76064 8577/
 333 58023 69945 70119=####018000105####
SMTH42 VTBB 050600 RRE
AAXX 05064
48304 32565 70000 10320 20237 39590 40034 57026 83876
 333 59007=####018001021####
SMAG01 SABM 050600
AAXX 05064
87046 31558 80000 10110 20062 39205 48568 57008 70422 885// 333
56099 88630=
87047 31562 83602 10089 20062 38867 48571 58009 71522 71522 8657/
333 56779 86620 88360 90083 90518=
87097 NIL=
87121 31950 82502 10079 20060 39738 40274 57020 70422 885// 333
56599 88640=
87129 32660 80000 10094 20018 30028 40270 57019 8357/ 333 56479
83640 88360=
87148 32970 81606 10127 20025 30161 40272 57009 8807/
333 56089 88360=
87155 32965 71408 10121 20013 30202 40265 58007 87070 333 56060
87360 94030=
87162 32970 81615 10136 20038 30172 40243 58004 8807/ 333 56069
88360=
87166 32960 81611 10111 20023 30192 40266 58003 8807/ 333 56079
88360=
87178 32970 21108 10104 20014 30101 40251 58001 82070 333 56060
82360=
87217 NIL=
87222 32670 83615 10114 21012 39697 40241 57033 885// 333 88640=
87270 32965 81112 10108 20222 30224 40289 58011 8807/ 333 56079
88360=
87289 NIL=
87311 32965 03605 10056 21053 39514 40218 57015=
87320 NIL=
87328 NIL=
####018000255####
SMAG01 SABM 050600 RRA
AAXX 05063
87007 32980 50000 10071 21019 36726 47126 51001 83078
333 56077 83360 85270=
87022 32960 80000 10150 20069 39719 40236 8807/ 333 88360=
87257 32965 80905 10106 21002 30174 40281 57008 8807/ 333 56079
88360=
####018001367####
SMAK01 KWBC 050600 RRA
AAXX 05064
70133 11766 81517 10133 20094 30085 40093 51003 69981 761// 90553
333 10156 20128 555 90506=
70174 32666 21503 10089 20056 39928 40171 53012 90553 333 10172
20089 555 90506=
70200 12466 81914 10106 20083 30066 40072 53009 69901 90553 333
10122 20100 555 90506=
70219 12966 61711 10111 20083 30097 40154 54000 69931 90553 333
10139 20100 555 90506=
70231 15766 61504 10106 20083 30055 40182 53006 69901 90553 333
10150 20106 555 90506=
70261 32866 60000 10128 20078 30015 40186 53013 90553 333 10167
20078 555 90506=
70267 15766 82403 10100 20089 39733 40205 51022 60031 90553 333
10167 20094 555 90506=
70271 15666 83105 10100 20083 39635 40212 53015 69931 90553 333
10178 20083 555 90506=
70273 32666 61603 10139 20089 30138 40198 53013 90553 333 10189
20128 555 90506=
70316 35466 81424 10122 20100 30117 40151 58000 90553 333 10156
20067 91030 555 90506=
70326 32866 81805 10133 20100 30174 40185 53002 90554 333 10167
20067 555 90506=
70340 35966 00000 10100 20089 30147 40207 53004 90553 333 10167
20072 555 90506=
70350 32966 02805 10100 20072 30168 40210 53004 90553 333 10156
20100 555 90506=
70361 37956 00000 10100 20089 30202 40214 53009 710// 90553 333
10156 20067 555 90506=
70381 32666 60903 10106 20100 30203 40219 53007 90553 333 10161
20106 555 90506=
####018000123####
SMAK20 KWBC 050600 RRA
AAXX 05064
70251 35966 00000 10100 20083 30062 40196 53013 90553 333 10178
20100 555 90506=
####018000730####
SMAK31 KWBC 050600 RRA
AAXX 05064
70194 35966 00000 10106 20050 39997 40181 53009 90556 333 10183
20094 555 90506=
70232 35866 80000 10128 20083 30131 40163 53006 90556 333 10150
20094 555 90506=
70267 15766 82403 10100 20089 39733 40205 51022 60031 90553 333
10167 20094 555 90506=
70271 15666 83105 10100 20083 39635 40212 53015 69931 90553 333
10178 20083 555 90506=
70321 35766 41907 10128 20106 30151 40192 53001 90556 333 10144
20100 555 90506=
70333 35966 01606 10117 20089 30158 40195 53000 90556 333 10156
20083 555 90506=
70340 35966 00000 10100 20089 30147 40207 53004 90553 333 10167
20072 555 90506=
70343 35966 00000 10128 20106 30196 40205 53006 90551 333 10150
20117 555 90506=
####018000220####
SMCA01 KWBC 050600 RRA
AAXX 05064
78526 12566 40000 10272 20239 30136 40157 56014 60021 90556 333
10289 20267 555 90506=
78543 15566 60603 10272 20244 30072 40154 57014 69951 90553 333
10294 20267 555 90506=
####018001162####
SMUS70 KWBC 050600 RRB
AAXX 05064
072791 NIL=
72384 NIL=
72677 NIL=
72683 NIL=
72681 NIL=
72570 NIL=
72314 NIL=
72605 NIL=
72405 NIL=
72387 NIL=
72486 NIL=
72693 NIL=
72389 NIL=
72779 NIL=
72375 NIL=
072785 NIL=
72768 NIL=
72775 NIL=
72772 NIL=
72777 NIL=
72370 NIL=
072374 NIL=
72767 NIL=
72386 NIL=
72295 NIL=
72297 NIL=
072783 NIL=
72334 NIL=
72597 NIL=
072773 NIL=
72792 NIL=
72487 NIL=
72688 NIL=
72698 NIL=
72371 NIL=
72408 NIL=
72278 NIL=
72578 NIL=
72591 NIL=
72488 NIL=
72290 NIL=
72492 NIL=
72383 NIL=
72793 NIL=
72494 NIL=
72572 NIL=
72694 NIL=
72394 NIL=
72274 NIL=
72797 NIL=
72583 NIL=
72781 NIL=
72280 NIL=
70219 NIL=
70267 NIL=
70026 NIL=
70174 NIL=
70316 NIL=
70454 NIL=
70321 NIL=
70350 NIL=
70261 NIL=
70271 NIL=
070340 NIL=
70381 NIL=
70326 NIL=
70231 NIL=
70343 NIL=
70273 NIL=
70232 NIL=
70260 NIL=
70200 NIL=
70133 NIL=
70333 NIL=
70414 NIL=
70251 NIL=
70361 NIL=
70194 NIL=
91217 NIL=
91212 NIL=
91165 NIL=
91182 NIL=
91190 NIL=
91285 NIL=
91376 NIL=
91245 NIL=
####018000653####
SMPA01 KWBC 050600 RRA
AAXX 05064
91165 32466 40516 10283 20233 30125 40159 53012 90553 333 10322
20272 555 90506=
91182 32566 40613 10283 20211 30144 40150 53016 90553 333 10333
20267 91020 555 90506=
91190 12566 40512 10272 20217 30134 40153 51017 69901 90554 333
10328 20256 555 90506=
91212 12466 23106 10272 20250 39990 40072 58009 60031 90554 333
10306 20261 555 90506=
91285 32566 60000 10261 20222 30144 90613 555 90506=
91425 11474 82106 10278 20261 30092 40093 5//// 60101 70282 882//
333 56599 70104 88817 555 90506=
91434 11474 82206 10283 20253 30075 40076 5//// 60071 70282 882//
333 56499 70069 88817 90506=
####018003734####
SMSW04 KWBC 050600
AAXX 05064
06609 06/// /2405 10063 20032 38046 48523 53000 60002 333 20066
54/15 55127 55300 20122 60005 70000 90760 91116=
06619 06/// /0408 10104 20074 38824 48517 52000 60002 333 20089
3/008 54/15 55115 55300 20047 60005 70000 90760 91121=
06631 06/// /1502 10125 20107 39541 40188 52011 60002 333 20094
3/006 55121 55300 20162 60005 70000 90760 91104=
06635 02585 31203 10112 20099 39618 40191 52011 60002 333 20098
30007 54/15 55123 55300 20130 60005 70000 83627 90760 91104=
06637 01764 71001 10148 20139 39493 40173 51005 60002 71000 333
20137 31012 546// 55106 55300 20126 60005 70000 87656 90760 91105=
06644 16/// /3601 10123 20122 39654 40188 53013 60005 333 20099
54/05 55114 55300 20166 70000 90760 91107=
06660 06/// 43204 10141 20087 39535 40181 52014 60002 333 20138
3/012 54/15 55122 55300 20184 60005 70000 90760 91110=
06664 06/// /2903 10143 20097 39662 40182 53014 60002 333 20107
3/007 54/05 55123 55300 20245 60005 70000 90760 91106=
06666 06/// /0902 10129 20110 39781 40186 53012 60002 333 20098
3/006 54/05 55120 55300 20205 60005 70000 90760 91103=
06674 16/// /3104 10131 20127 39665 40185 53014 60005 333 20125
54/15 55111 55300 20155 70000 90760 91110=
06686 06/// /1001 10154 20139 39590 40166 52005 60002 333 20148
3/014 55300 20014 60005 70000 90760 91107=
06689 06/// /3004 10108 20066 38901 48517 52006 60002 333 20114
3/008 54/15 55128 55300 20238 60005 70000 90760 91115=
06702 06/// /3216 10063 20063 38352 48527 52004 60012 333 20056
54/15 55127 55300 20036 60015 70008 90760 91122=
06704 16/// /3206 10148 20092 39393 48522 52010 60005 333 20103
54/15 55122 55300 20097 70000 90760 91115=
06709 46/// /3205 10183 20126 39741 40174 53012 333 20149 54/05
90760 91108=
06711 06/// /0104 10164 20092 39646 40175 52010 60002 333 20149
55120 55300 20191 60005 70000 90760 91115=
06727 06/// /3601 10117 20107 39431 48502 53005 60002 333 20090
3/006 55120 55300 20104 60005 70000 90760 91103=
06730 41589 13006 11003 21166 36599 47101 56008 70240 81031 333
21036 43/// 54615 55107 55300 20068 81331 90760 91120 444 86354=
06739 46/// /0801 10027 20018 37185 47105 57004 333 20020 54/15
55120 55300 20259 90760 91108=
06744 06/// /3608 10072 20059 38060 48522 55000 60002 333 20071
54/15 55102 55300 20047 60005 70000 90760 91119=
06749 46/// /1402 10011 20011 36977 47103 57004 333 20008 54/15
55121 55300 20115 90760 91108=
06751 06/// /3606 10110 20033 38109 48501 55001 60002 333 20102
3/008 54/15 55089 55300 20158 60005 70000 90760 91117=
06754 46/// /3309 10085 20053 37826 48501 56002 333 20081 54/15
55067 55300 20130 90760 91112=
06759 06/// /3101 10108 20108 38336 48499 57001 60002 333 20107
54/15 55047 55300 20148 60005 70000 90760 91103=
06777 16/// /3203 10113 20112 38399 48501 57001 60005 333 20107
54/15 55022 55300 20176 70000 90760 91110=
06778 16/// /1701 10037 20031 38041 48516 57002 60005 333 20024
55105 55300 20115 70000 90760 91106=
06786 06/// /2003 10159 20132 39519 40160 52002 60002 333 20146
3/013 54/05 55096 55300 20054 60005 70000 90760 91107=
06787 16/// /0000 10125 20108 39048 48510 55001 60005 333 20094
54/05 55300 20047 90760 91103=
06791 06/// /1506 10034 21024 36830 47102 58006 60002 333 20031
54/15 55130 55300 20349 60005 70000 90760 91116=
06794 02974 00602 10098 20090 38939 48496 55001 69912 80000 333
20086 30006 54/15 55080 55300 20061 69915 70001 90760 91105=
06798 06/// /2503 10091 20068 38711 48508 50000 60002 333 20076
3/006 54/15 55111 55300 20158 60005 70000 90760 91106=
06604 06/// /3412 10160 20097 39614 40176 52011 60002 333 20156
3/010 54/15 55124 55300 20101 60005 70000 90760 91125=
####018003658####
SMSW04 KWBC 050600 RRA
AAXX 05064
06608 02680 83505 10093 20088 38903 48520 52006 69912 333 20091
30007 54/15 55121 55300 20072 69915 70000 88748 90760 91117=
06612 06/// /2503 10107 20092 39037 48526 52009 69932 333 20086
3/005 55116 55300 20032 69935 70003 90760 91109=
06617 16/// /3103 10101 20093 39002 48526 52008 60025 333 20020
3/001 54/08 55117 55300 20011 70021 90760 91109=
06621 06/// /2702 10152 20107 39658 40171 52010 60002 333 20116
3/009 54/05 55088 55300 20223 60005 70000 90760 91109=
06624 06/// /2302 10113 20094 39695 40192 52014 60002 333 20080
3/005 54/05 55121 55300 20162 60005 70000 90760 91107=
06628 06/// /2804 10107 20081 39003 48521 52008 60002 333 20107
3/006 54/15 55124 55300 20140 60005 70000 90760 91112=
06636 06/// /0901 10121 20109 39623 40188 52012 60002 333 20110
3/008 55118 55300 20205 60005 70000 90760 91103=
06638 06/// /1201 10110 20109 39329 48515 52009 60002 333 20095
3/007 54/15 55118 55300 20191 60005 70000 90760 91104=
06641 16/// /3600 10120 20110 39786 40194 52014 60005 333 20100
55120 55300 20086 70000 90760 91104=
06643 06/// /2301 10119 20111 39688 40188 52012 60002 333 20101
3/007 55106 55300 20119 60005 70000 90760 91104=
06645 06/// /2704 10135 20098 39478 48521 53013 60002 333 20131
3/010 54/15 55120 55300 20173 60005 70000 90760 91112=
06648 16/// /1401 10114 20113 39576 40190 53012 60005 333 20105
54/15 55122 55300 20158 70000 90760 91103=
06650 06/// /3102 10147 20106 39650 40181 53013 60002 333 20137
3/012 54/15 55119 55300 20130 60005 70000 90760 91106=
06651 16/// /0701 10103 20088 39328 48512 52009 60005 333 20101
54/15 55113 55300 20083 70000 90760 91108=
06657 16/// /2801 10141 20139 39629 40179 53010 60005 333 20131
54/15 55107 55300 20112 70000 90760 91104=
06659 06/// /2406 10064 20030 37919 48518 55000 60002 333 20060
54/15 55130 55300 20205 60005 70000 90760 91115=
06672 02770 80103 10164 20136 39657 40166 53006 60002 333 20139
30011 54/05 55090 55300 20083 60005 70000 88450 90760 91108=
06678 16/// /2501 10118 20118 39634 40185 52010 60005 333 20114
54/15 55103 55300 20144 70000 90760 91106=
06682 02/80 80400 10131 20122 39088 48518 53008 60002 333 20132
31010 54/15 55087 55300 20007 60005 70000 90760 91104=
06687 46/// /3402 39677 48/// 52008 333 90760 91111=
06690 16/// /2605 10160 20128 39708 40172 53011 60005 333 20142
54/15 55119 55300 20058 70000 90760 91113=
06705 06/// /3506 10166 20096 39647 40179 52015 60002 333 20128
3/008 55123 55300 20140 60005 70000 90760 91124=
06715 16/// /0104 10143 20094 39613 40175 53007 60005 333 20139
54/15 55083 55300 20058 70000 90760 91113=
06723 46/// /2606 37328 48/// 57004 333 90760 91115=
06731 16/// /2901 10121 20109 39522 40188 52011 60005 333 20099
55117 55300 20241 70000 90760 91106=
06740 46/// /2909 11008 21008 37007 47102 57004 333 21005 54/15
55111 55300 20112 90760 91117=
06750 06/// /3609 10052 20051 37740 48511 55002 60002 333 20049
54/15 55114 55300 20108 60005 90760 91114=
06756 06/// /0102 10148 20137 39482 40146 51002 60002 333 20137
3/012 55085 55300 20083 60005 70000 90760 91106=
06784 06/// /0107 10105 20085 38414 48511 55002 60002 333 20080
3/005 54/05 55105 55300 20065 60005 70000 90760 91112=
06792 06/// /0401 10058 20051 38297 48511 50000 60002 333 20030
3/100 54/05 55095 55300 20176 60005 70000 90760 91103=
06602 06/// /1400 10117 20109 39680 40200 51013 60002 333 20093
3/007 54/05 55124 55300 20040 60005 70000 90760 91105=
06605 06/// /3316 10068 20068 38422 48520 52002 60002 333 20066
54/15 55129 55300 20058 60005 70000 90760 91125=
####018003693####
SMSW04 KWBC 050600 RRB
AAXX 05064
06618 16/// /1804 10142 20131 39674 40186 52012 60005 333 20101
55122 55300 20094 70000 90760 91110=
06625 06/// /1902 10118 20113 39434 48516 52011 60002 333 20101
3/008 54/15 55123 55300 20187 60005 70000 90760 91108=
06627 06/// /3501 10088 20076 39020 48518 53002 60002 333 20077
3/005 54/15 55107 55300 20133 60005 70000 90760 91104=
06633 01758 61603 10142 20104 39729 40184 53012 60002 71022 333
20111 30007 54605 55118 55300 20205 60005 70000 86650 90760 91106=
06639 06/// /3103 10099 20058 38619 48521 52004 60002 333 20092
3/006 54/15 55121 55300 20270 60005 70000 90760 91116=
06646 06/// /0701 10121 20105 39799 40187 53012 60002 333 20100
3/006 54/05 55120 55300 20176 60005 70000 90760 91103=
06656 16/// /0701 39514 48/// 52006 60005 333 70000 90760 91105=
06671 46/// /2603 39711 48/// 51012 333 90760 91106=
06675 06/// /3401 10128 20111 39141 48518 53006 60002 333 20108
3/008 54/05 55120 55300 20180 60005 70000 90760 91103=
06676 46/// /2704 48/// 333 90760 91108=
06683 46/// /0702 39701 48/// 53012 333 90760 91110=
06685 06/// /3104 10164 20112 39572 40169 52012 60002 333 20150
3/013 54/05 55085 55300 20036 60005 70000 90760 91113=
06695 06/// /0708 10111 20076 38582 48519 53002 60002 333 20092
3/007 54/05 55100 55300 20050 60005 70000 90760 91117=
06708 16/// /0209 10123 20090 39236 48520 52012 60005 333 20108
54/15 55119 55300 20140 70000 90760 91112=
06714 46/// /2104 11006 21011 37122 47103 57003 333 21007 54/15
55120 55300 20162 90760 91120=
06724 06/// /0301 10093 20059 38594 48516 55000 60002 333 20082
3/004 54/15 55115 55300 20097 60005 70000 90760 91104=
06725 06/// /0402 10066 20058 38476 48516 57002 60002 333 20058
3/003 54/15 55090 55300 20076 60005 70000 90760 91104=
06733 16/// /2102 10099 20087 39244 48513 52004 69915 333 20071
54/05 55097 55300 20122 70005 90760 91106=
06735 06/// /2502 10104 20068 38700 48520 51004 60002 333 20095
3/006 54/15 55098 55300 20065 60005 70000 90760 91106=
06747 46/// /2901 10035 20035 37189 47103 57003 333 20026 54/15
55103 55300 20054 90760 91105=
06752 16/// /0401 10153 20141 39653 40143 57002 60005 333 20147
54/15 55067 55300 20076 70000 90760 91104=
06762 06/// /1202 10179 20156 39900 40139 52000 60002 333 20148
3/013 54/05 55107 55300 20234 60005 70000 90760 91105=
06770 02975 00202 10182 20152 39790 40139 53000 60002 8/000 333
20173 30016 55069 55300 20112 60005 70000 90760 91105=
06779 06/// /0803 10057 20047 38201 48511 52001 60002 333 20050
3/002 54/15 55109 55300 20097 60005 70000 90760 91106=
06780 06/// /3403 10032 20032 37383 47104 57003 60002 333 20037
54/15 55122 55300 20079 60005 70000 90760 91113=
06785 06/// /0803 10091 20067 38133 48511 55001 60002 333 20090
3/007 54/15 55110 55300 20036 60005 70000 90760 91105=
06793 16/// /3609 10101 20080 38444 48514 53000 60005 333 20099
54/15 55093 55300 20083 70000 90760 91116=
06796 06/// /2203 10106 20076 38620 48504 57003 60012 333 20097
3/007 54/15 55101 55300 20119 60015 70000 90760 91113=
06799 46/// /3101 10062 20044 37650 47104 57002 333 20058 54/15
55117 55300 20173 90760 91106=
06601 02480 73003 10153 20117 39816 40189 52015 60002 333 20123
30008 54/05 55123 55300 20032 60005 70000 81619 87633 90760 91110=
06606 16/// /2806 10164 20104 39678 40178 52012 60005 333 20114
54/05 55117 55300 20126 70000 90760 91127=
06610 06/// /1301 10129 20109 39613 40187 53012 60002 333 20099
3/007 54/15 55125 55300 20162 60005 70000 90760 91109=
06616 06/// /2504 10124 20114 39503 40200 52013 69952 333 20123
3/008 54/15 55120 55300 20058 69925 70005 90760 91114=
####018000238####
SMPA20 KWBC 050600 RRA
AAXX 05064
91245 15959 01009 10303 20242 30083 40094 55002 69901 90558 333
10326 20282 555 90506=
91353 11474 81806 10300 20256 30085 40086 5//// 60131 70282 83208
333 564/9 70127 83818 86280 555 90506=
####018003638####
SMSW04 KWBC 050600 RRC
AAXX 05064
06620 06/// /2808 10129 20091 39668 40185 53014 60002 333 20114
3/006 55114 55300 20133 60005 70000 90760 91111=
06623 06/// /3504 10137 20092 39350 48516 51009 60002 333 20131
54/15 55119 55300 20238 60005 70000 90760 91111=
06626 06/// /2607 10160 20103 39734 40179 52011 60002 333 20105
3/008 54/05 55121 55300 20198 60005 70000 90760 91112=
06632 16/// /1503 10152 20110 39680 40180 52010 60005 333 20096
54/05 55119 55300 20176 70000 90760 91108=
06670 02868 53103 10128 20104 39682 40185 53015 60002 85071 333
20095 31006 54/15 55123 55300 20191 60005 70000 82358 84359 90760
91107=
06680 01/00 92201 10030 20019 37548 47101 55001 60002 74711 89///
333 20026 30/// 54615 55124 55300 20054 60005 70000 90760 91123=
06700 02682 40103 10149 20106 39702 40184 52015 60002 81570 333
20105 30008 54/05 55117 55300 20115 60005 70000 81635 83357 90760
91108=
06720 06/// /2301 10132 20104 39609 40173 52006 60002 333 20124
3/007 54/15 55114 55300 20108 60005 70000 90760 91104=
06760 01662 71402 10181 20158 39704 40135 55000 60002 71011 875//
333 20174 30014 546// 55089 55300 20166 60005 70000 87634 90760
91103=
06990 01856 83502 10157 20140 39635 40167 52008 60002 71022 885//
333 20155 30014 546// 55102 55300 20040 60005 70000 88657 90760
91108=
06647 06/// ///// 10139 20110 39791 40187 53011 60002 333 20095
54/05 55123 55300 20176 60005 70000=
06655 06/// /2504 10133 20098 39006 48521 51007 60002 333 20127
3/010 54/15 55094 55300 20065 60005 70000 90760 91110=
06669 46/// /29// 10113 20085 39215 48515 52012 333 20115 54/16
55125 55300 20126 90760 91118=
06673 06/// /3005 10152 20106 39612 40177 53013 60002 333 20143
3/012 55121 55300 20248 60005 70000 90760 91110=
06679 06/// /2101 10138 20107 39551 40178 52011 60002 333 20101
3/007 54/05 55118 55300 20266 60005 70000 90760 91106=
06681 06/// /3301 10131 20096 39285 48514 53007 60002 333 20136
3/010 54/15 55125 55300 20108 60005 70000 90760 91111=
06688 46/// /3610 10044 20037 37553 47097 57004 333 20041 54/15
55125 55300 20025 90760 91118=
06693 06/// /2500 10111 20110 39456 48505 52008 60002 333 20104
3/008 54/15 55110 55300 20126 60005 70000 90760 91104=
06706 46/// /3103 48/// 333 90760 91111=
06712 02978 31802 10118 20105 39729 40182 52008 60002 333 20104
30008 54/15 55109 55300 20086 60005 70000 83360 90760 91107=
06717 01/01 90914 10035 20029 37552 47100 57005 60002 745// 333
20035 31/// 54615 55093 55300 20029 60005 70000 90760 91118=
06722 06/// /0801 10088 20046 38188 48518 55000 60002 333 20081
3/006 55097 55300 20097 60005 70000 90760 91106=
06728 02/65 6//// 10103 20065 38408 48515 52001 60002 333 20097
30007 54/15 55090 55300 20101 60005 70000=
06734 06/// /0503 10145 20117 39506 40174 52008 60002 333 20139
3/011 54/15 55106 55300 20079 60005 70000 90760 91113=
06745 02679 72201 10109 20096 38672 48514 52002 60002 333 20104
30009 54/15 55100 55300 20022 60005 70000 87638 90760 91104=
06748 06/// /0802 10101 20078 38373 48514 52001 60002 333 20096
3/006 55083 55300 20032 60005 70000 90760 91105=
06753 06/// /2810 10158 20083 39030 48502 55001 60002 333 20106
3/006 54/05 55111 55300 20104 60005 70000 90760 91117=
06758 06/// /0103 10146 20140 39765 40145 52002 60002 333 20138
3/012 54/15 55072 55300 20072 60005 70000 90760 91107=
06771 06/// /2301 10162 20154 39730 40140 52000 60002 333 20140
3/012 54/05 55055 55300 20166 60005 70000 90760 91103=
06782 06/// /3501 10124 20114 38825 48512 55001 60012 333 20123
3/010 54/15 55108 55300 20018 69975 70013 90760 91102=
####018003732####
SMFI01 KWBC 050600
AAXX 05061
02725 46/// /1502 10095 20089 90600 333 10117 20040 3/000 555
7960/ 0/002=
02727 46/// /1905 10140 20140 39994 40091 57010 90600 333 10151
20104 3//// 555 60140 700// 0/306=
02732 46/// /1804 10127 20115 39997 40097 57002 90600 333 10150
20110 3//// 555 792// 0/205=
02733 46/// /1503 10146 20129 30064 40121 54001 90600 333 10157
20061 3//// 555 790// 0/003=
02734 36/// /1703 10133 20132 30031 40123 52001 90600 333 10145
20055 3/002 555 7994/ 0/003=
02735 46/// /1305 10107 20102 90600 333 10121 20028 3/101 555
7970/ 0/105=
02736 46/// /1603 10139 20128 39975 40108 58002 90600 333 10148
20116 3//// 555 793// 0/603=
02738 37982 41503 10105 20100 39895 40080 58011 700// 84/// 90600
333 10130 20049 3/002 555 60102 7975/ 83460 0/003=
02752 46/// /1513 10122 2//// 39995 40020 57036 90600 333 10137
20110 3//// 555 7//// 0/013=
02753 37383 71304 10116 20107 39899 40048 57025 70000 87/// 90600
333 10116 20051 3/100 555 7943/ 80270 0/205=
02761 47758 81310 10147 20139 39997 40031 57026 78186 87/// 90600
333 10148 20120 3//// 555 795// 0/312=
02763 37499 7//// 10138 20115 39965 40066 58022 700// 81/// 90600
333 10139 20055 3/002 555 7860/=
02765 46/// /1606 10130 20117 90600 333 10159 20111 3//// 555
792// 0/007=
02772 46/// /1705 10144 20115 30014 40110 54001 90600 333 10162
20130 3//// 555 783// 0/205=
02778 37980 4//// 10143 20120 30021 40116 54001 70000 80/// 90600
333 10154 20119 3/004 555 7860/=
02780 46/// /1207 10114 20102 30015 40019 57037 90600 333 10144
20096 3//// 555 792// 0/007=
02781 46/// /1312 10129 2//// 30007 40011 57036 90600 333 10142
20123 3//// 555 7//// 0/213=
02787 37970 7//// 10096 20091 39864 40069 57018 70000 87/// 90600
333 10116 20024 3/100 555 7971/=
02788 16/// /1902 10125 20105 39984 40094 57005 69922 90600 333
10147 20093 3/007 555 78792 0/103=
02791 36/// /2003 10122 20121 90600 333 10138 20063 3/003 555
7997/ 0/003=
02793 46/// /2007 10151 20130 30015 40110 52003 90600 333 10169
20148 3//// 555 787// 0/308=
02833 36/// /1305 10106 20090 30004 40042 57029 90600 333 10106
20055 3/001 555 7904/ 0/005=
02937 37481 71606 10140 20121 30000 40047 58022 700// 86/// 90600
333 10140 20058 3/001 555 60129 7890/ 0/106=
02943 46/// /1506 10135 20114 39948 40065 58021 90600 333 10138
20105 3//// 555 787// 0/006=
02959 37974 11802 10139 20126 39993 40118 57002 700// 80/// 90600
333 10156 20102 3//// 555 792// 0/302=
02869 47399 72602 10114 20098 39760 40078 700// 87/// 90600 333
10137 20111 3//// 555 790// 80230 0/104=
02746 46/// /1712 10169 20152 30039 40071 57015 90600 333 10170
20151 3//// 555 790// 0/313=
02747 46/// /1611 10175 20154 30040 40047 57023 90600 333 10177
20138 3//// 555 787// 0/212=
02758 46/// /1504 10142 20132 30037 40087 57012 90600 333 10146
20053 3//// 555 794// 0/004=
02828 36/// ///// 10172 20172 30052 40059 57020 90600 333 10177
20078 3/006 555 7000/=
02950 36/// /1515 10176 20157 30042 40047 57022 90600 333 10176
20143 3//// 555 789// 0/016=
02983 37678 7//// 10137 20132 39962 40097 57011 70000 87/// 90600
333 10137 20095 3/008 555 7976/=
02989 46/// /1709 10150 20127 30073 40097 56009 90600 333 10164
20149 3//// 555 786//=
02722 36/// ///// 10070 20070 90600 333 10099 20002 3/104 555
7003/=
02743 46/// /1711 10172 20152 90600 333 10176 20141 3//// 555
788// 0/212=
02745 16/// /2202 10089 20076 39817 40077 54002 69992 90600 333
10105 20086 3/007 555 79189 0/402=
02794 46/// /1808 10156 20145 90600 333 10158 20130 3//// 555
793// 0/209=
02799 37499 32102 10129 20101 39861 40096 54001 70000 81/// 90600
333 10134 20096 3/005 555 7830/ 80450 0/203=
####018003702####
SMID04 KWBC 050600
AAXX 05064
96011 32460 61304 10348 20217 30064 40088 57028 83521 333 56000
83619=
96091 32460 71413 10318 20235 30084 40108 57024 82138 333 56400
82817 87280=
96147 31456 51810 10316 20253 30102 40104 5=
96009 32457 70505 10318 20244 30059 40093 57027 82872 333 56000
57804 81817 81618 85360 80850=
96145 31410 41808 10328 20242 30094 40096 58015 70400 84110 333
56400 84817=
96035 32460 63510 10309 20256 30084 40096 57025 83276 333 56000
57801 83817 80850=
96073 32560 72507 10322 20238 30086 40100 57023 83222 333 56000
57802 83820 80860=
96109 32457 71710 10319 20214 30051 40088 58026 83532 333 56000
83615=
96925 32460 51308 10294 20222 30108 40113 57019 84232 333 56200
57822 84817 80860=
97086 32560 52013 10284 20226 30084 40105 56026 82271 333 56000
57804 82820 83360 80860=
97146 32460 30510 10320 20210 30056 40116 56028 83211 333 56000
57802 83817 80858=
97180 32560 22708 10333 20221 30075 40092 57026 81101 333 56000
81820=
97260 32560 40907 10328 20170 30091 40096 57030 84101 333 56000
84820=
97284 32464 40307 10236 20181 38879 40107 57015 84201 333 56000
84815=
97502 32459 51910 10316 20239 30082 40082 57016 84131 333 56000
84812=
97530 32460 41303 10316 20239 30068 40072 57021 82132 333 56000
82814=
97698 01458 80704 10282 20244 30081 40084 56015 69901 70262 8217/
333 56009 69907 82814 88460=
97748 31457 71806 10272 20230 30108 40111 56015 70522 84932 333
56400 57941 57841 81914 83815 84359 80950 80840=
97760 32459 61606 10265 20234 30092 40101 57014 83231 333 56000
57802 81815 82617 80860=
96001 32558 72412 10332 20228 39961 40107 58022 83232 333 56500
57852 83820 80860=
96147 31456 51810 10316 20253 30102 40104 56009 84531 333 56000
84615=
96171 32458 71708 10332 20210 30072 40096 57028 85222 333 56000
57802 85815 80856=
96179 32459 71809 10315 20250 30077 40112 56017 83208 333 56300
57832 83817 87280 80850=
96237 32460 60911 10316 20227 30064 40106 57023 83231 333 56000
57802 83816 83360 80860=
96295 32558 31510 10335 20199 30002 40106 51031 81521 333 56000
81620=
96525 31456 60908 10336 20248 30076 40079 57031 70421 83171 333
56000 83815=
96559 31450 20904 10339 20185 30052 40084 57039 70444 81110 333
56300 81814=
96565 32457 30000 10328 20244 30047 40098 57038 82411 333 56000
82615=
96607 32460 61505 10334 20217 30084 40096 57028 83221 333 56000
83818=
96655 31432 52006 10331 20200 30078 40109 57033 70422 84511 333
56000 84611 84462=
96695 32458 51605 10318 20197 30092 40095 56029 83211 333 56300
57833 83814 80858=
96741 32460 60408 10326 20225 30103 40106 57026 83521 333 56300
83619 85460=
96781 31458 43608 10292 20146 39291 40151 57032 70510 83231 333
56000 57803 83818 80858=
96791 32560 31303 10342 20187 30052 40103 56032 81501 333 56000
81620=
96797 32562 30505 10314 20186 30105 40109 57029 81501 333 56000
81620=
96837 31959 10807 10335 20156 30093 40094 57038 70500 81001 333
56000 81080=
96935 32560 20810 10306 20182 30106 40110 57023 81101 333 56000
81820=
96987 32460 20000 10287 20209 30064 40115 56002 82501 333 56000
82620=
97016 32564 61805 10306 20228 30094 40099 57021 81131 333 56400
57844 81820 86360 80858=
97028 31462 53104 10310 20241 30077 40079 58029 71722 83921 333
56000 57902 57802 81919 82820 84460 80960 80860=
97048 32560 41814 10334 20182 30052 40073 57027 82131 333 56000
82820=
97142 32560 20709 10314 20225 30081 40096 56026 82231 333 56000
57802 81820 80856=
97182 32568 32108 10319 20282 30089 40092 50028 82101 333 56000
57800 82820 808//=
97192 32460 52903 10302 20214 30058 40122 57027 85201 333 56000
85619=
####018003732####
SMID04 KWBC 050600 RRA
AAXX 05064
97270 32460 31611 10324 20212 30107 40110 57025 83101 333 56000
83815=
97310 32565 50207 10294 20196 30101 40113 57012 83221 333 56000
57803 83820 80856=
97372 32560 43117 10287 20223 30000 40122 56011 83111 333 56000
83820=
97406 32460 42611 10320 20230 30039 40080 57019 83201 333 56000
57802 83818 80860=
97430 32460 52304 10314 20241 30059 40098 56026 84232 333 56400
57842 84818 80860=
97580 32460 70000 10294 20221 30074 40079 58013 83844 333 56000
57802 81815 82618 84361 80865=
97630 32460 52408 10269 20233 39955 40111 57017 82832 333 56000
57803 82812 80858=
97682 12460 73004 10303 20237 30065 40072 57022 69901 82832 333
56000 57802 82816 84360 80857=
97690 02460 71205 10291 20226 39978 40074 57015 69901 81128 333
56000 69907 81814 85362 86279=
97722 32462 51708 10277 20234 30098 40108 56021 84832 333 56200
57822 83819 80856=
97724 32560 61907 10282 20223 30090 40109 57019 84872 333 56200
57822 83819 80859=
97980 32460 61710 10274 20208 30108 40112 57024 85842 333 56000
82817 83620=
96015 32560 42306 10310 20242 30099 40105 58021 82572 333 56000
82620=
96075 32460 60710 10322 20269 30091 40101 57023 83971 333 56000
57902 57802 81915 82816 80965 80850=
96087 32460 61407 10316 20241 30074 40119 56020 82518 333 56300
82614 85280=
96195 32460 61206 10336 20193 30070 40100 58029 82521 333 56000
82615 83460=
96207 32457 20904 10289 20174 39235 40140 57031 81131 333 56000
81815=
96221 32460 41210 10331 20199 30090 40104 57027 84101 333 56909
84810=
96249 32558 71210 10336 20194 30040 40103 57025 84232 333 56300
57831 84820 80863=
96253 32560 51719 10306 20223 30087 40107 58023 82832 333 56000
57800 81820 83080=
96535 31458 61603 10336 20242 30077 40094 58029 70422 84101 333
56000 84814 83082=
96557 31420 31907 10336 20208 30045 40092 57036 70421 81511 333
56400 81611 83460=
96595 31410 50000 10318 20228 30053 40096 57030 70444 85532 333
56000 85613=
96615 32957 31707 10328 20223 30091 40102 58033 80001 333 56000
83082=
96633 32460 51906 10302 20232 30091 40097 57025 82211 333 56500
82618=
96645 32460 31507 10330 20190 30068 40101 57031 83500 333 56000
83612=
96737 31450 63506 10321 20223 30068 40098 56025 70522 85221 333
56000 57801 85817 83460 80860=
96739 32456 70306 10317 20238 30059 40112 57026 82522 333 56000
82618 84460=
96749 32457 70205 10309 20208 30098 40111 56026 84521 333 56000
84619 85459=
96751 31558 83202 10238 20199 39046 40101 57022 70522 86211 333
56200 57821 84820 83670 80870=
96839 32458 41311 10340 20145 30092 40095 57036 81131 333 56000
81815 83362=
96937 32962 21408 10326 20194 30107 40110 58025 80001 333 56000=
96973 32562 21704 10294 20206 30110 40113 57022 81131 333 56000
81820=
97008 32459 53604 10306 20240 30071 40085 57017 83232 333 56000
57801 83819 80860=
97014 32560 53106 10329 20214 39992 40083 57022 82171 333 56000
82821=
97072 32560 43312 10336 20236 39991 40091 57033 83271 333 56000
57805 82820 80850=
97096 32459 40207 10324 20238 30075 40084 57030 82221 333 56000
57802 82817 80860=
97126 32458 71805 10304 20228 30054 40099 57030 82921 333 56000
57902 81916 82616 87460 80980=
97240 32458 51313 10294 20196 30008 40123 57024 84131 333 56000
84816=
97300 32460 52605 10300 20207 30085 40121 56013 85231 333 56000
57801 85818 80856=
97340 32560 20313 10298 20224 30110 40122 56019 82101 333 56000
82820=
97378 35/// /1110 10275 20183 39959 40170 57015 7//// 333 1////
2//// 59000=
97380 32464 41307 10302 20209 30102 40124 57018 84101 333 56200
84815=
97460 32459 62312 10288 20232 30075 40097 56021 83872 333 56000
57802 82818 80858=
####018003748####
SMAU04 KWBC 050600
AAXX 05064
94102 46/// /2907 10281 20209 30121 40130=
94103 46/// /1803 10269 30123 40128=
94106 46/// /1112 10324 20080 30104 40122=
94108 46/// /0811 10279 20180 30106 40118=
94109 46/// /0608 10281 20176 30106 40118=
94110 46/// /0905 10343 20095 30097 40107=
94122 46/// /1806 10300 20184 30105 40114=
94131 46/// /1011 10342 20019 39953 40106=
94147 46/// /1115 10290 20193 30106 40128=
94150 46/// /1113 10255 20182 30071 40132=
94200 46/// /3012 10271 20178 30114 40123=
94206 46/// /2307 10353 21039 39975 40105=
94207 46/// /2512 10242 30118 40127=
94212 46/// /0107 10339 20037 39637 40095=
94216 46/// /0207 10344 20121 30053 40103=
94238 46/// /0109 10337 20004 39686 40110=
94248 46/// /0312 10266 20190 30128 40143=
94268 46/// /1206 10326 20052 30111 40123=
94287 46/// /0207 10268 20092 30151 40154=
94294 46/// /3509 10284 21033 30148 40153=
94298 46/// /1513 10237 30147 40156=
94299 46/// /1409 10259 20162 30139 40150=
94302 46/// /0709 10286 21025 30131 40137=
94306 46/// /2914 10290 20045 30102 40116=
94308 46/// /3313 10292 20077 30105 40118=
94316 46/// /2207 10284 21026 39633 40113=
94317 46/// /0708 10281 21039 39528 40120=
94319 46/// /2007 10322 20013 39778 40109=
94326 46/// /2812 10342 21085 39483 40104=
94341 46/// /1405 10327 21043 39889 40126=
94346 46/// ///// 10336 21069 39902 40124=
94374 46/// /3308 10330 21073 30112 40130=
94394 46/// ///// 10232 30145 40153=
94395 46/// /3103 10319 21081 39823 40135=
94417 46/// /1007 10184 20010 39889 40210=
94430 46/// /1112 10215 21038 39574 40167=
94449 46/// /1609 10177 21037 39661 40199=
94450 46/// /1408 10170 21011 39772 40204=
94552 46/// /3012 10310 21071 39655 40127=
94600 46/// /0611 10144 20038 30118 40250=
94602 46/// /1709 10134 20029 30193 40245=
94603 46/// /1211 10151 20030=
94605 46/// /1104 10166 20030 30243 40247=
94609 46/// /1204 10155 20027 30207 40244=
94614 46/// /1205 10157 20007=
94615 46/// /0906 10146 20025=
94620 46/// /0907 10135 20024 39926 40247=
94641 46/// /1404 10109 20009 39871 40255=
94644 46/// /2613 10109 20059 30202 40206=
94659 46/// /2115 10231 20015 39913 40111=
94729 46/// /3015 10236 21013 39271 40130=
94776 46/// /1111 10200 20137 30123 40131=
94842 46/// /0612 10130 20102 39987 40086=
94988 46/// /1108 10111 20046 30131 40140=
95304 46/// /2416 10251 20120 30122 40130=
95305 46/// /2712 10282 20104 30115 40128=
95307 46/// /3013 10278 20109 30111 40118=
95402 46/// /1309 10228 20028 30138 40178=
95611 46/// /0205 10139 20037 30231 40252=
95612 46/// /1010 10151 20020 30152 40242=
95635 46/// /1907 10131 20024 30219 40252=
95638 46/// /1814 10124 20044 30074 40245=
95642 46/// /1514 10142 20012 39916 40229=
95644 46/// /1708 10131 21009 39982 40246=
95647 46/// /1104 10128 20050 30165 40254=
94100 46/// /3511 10311 20159 30088 40115=
94170 46/// /0912 10312 20111 30099 40120=
94290 46/// /2010 10237 30142 40149=
94510 46/// /3113 10318 21124 39772 40123=
94515 46/// /2807 10331 21115 39765 40121=
94578 46/// /0110 10240 20107 30114 40125=
94584 46/// /0106 10264 20183 30020 40132=
94601 46/// /1406 10140 20017 30239 40256=
94610 46/// /1107 10157 20007 30220 40244=
94637 46/// /1207 10147 21018 39791 40221=
94638 46/// /1910 10125 20018 30217 40250=
94647 46/// /2208 10125 20057 30081 40193=
94651 46/// /2320 10142 20058 30101 40179=
94653 46/// /2516 10157 20084 30137 40156=
94672 46/// /2813 10158 20083 30106 40116=
94691 46/// /3017 10300 21078 39751 40080=
94693 46/// /2610 10271 20000 30011 40072=
94703 46/// /2708 10331 21092 39972 40098=
94710 46/// /3114 10308 21109 39843 40099=
####018003705####
SMCI01 KWBC 050600
AAXX 05061
50468 31580 73603 10220 20176 39880 40074 54000 70060 87/// 333
20174=
51243 11880 71803 10220 20063 39598 40112 52002 69901 70060 87///
333 00457 20175=
51463 32980 73403 10215 20087 39063 40098 57002 87/// 333 00455
20159=
51573 32780 71101 10363 20105 39952 49997 57015 87/// 333 05101
20289=
51709 32776 21102 10255 20105 38561 40025 57017 82/// 333 00000
20170=
52533 32780 00703 10296 20050 38449 49998 57012 333 05201 20141=
53772 32980 02903 10299 20094 39209 40067 57025 333 20121=
53915 32772 70704 10198 20164 38494 40076 57015 87/// 333 05204
20140=
54342 11580 81402 10228 20218 30017 40075 57007 60021 76060 88///
333 20191=
54401 32968 51603 10292 20134 39204 40055 57021 85/// 333 20158=
54471 11580 22904 10250 20219 30061 40066 57008 60101 70060 82///
333 20198=
54511 32968 72202 10309 20132 30030 40067 57016 87/// 333 20189=
54823 32980 12702 10302 20151 39888 40083 57021 81/// 333 20207=
56096 32/80 90902 10291 20133 38869 40024 57025 333 05100 20220=
56187 32559 71104 10255 20196 40070 57021 87/// 333 05104 20198=
57265 32572 31402 10305 20169 39921 40073 57027 83/// 333 20208=
57687 32680 43404 10322 20188 39924 40060 57024 84/// 333 20224=
58040 32965 20903 10296 20157 30078 40085 57017 82/// 333 20187=
58221 32666 71402 10274 20207 30051 40083 57020 87/// 333 20189=
58238 11419 83603 10236 20236 30040 40082 57019 69951 76060 88///
333 20227=
58251 11557 80702 10238 20238 30081 40086 57017 60031 72160 88///
333 20221=
58606 32580 40202 10310 20234 30001 40056 57027 84/// 333 20243=
58752 11570 60906 10308 20242 40044 57024 69901 70060 86/// 333
20248=
58847 32680 60903 10323 20212 39934 40030 57027 86/// 333 20242=
59134 32580 70902 10296 20228 39872 40031 57023 87/// 333 20247=
59431 32566 70904 10304 20228 39857 40029 57019 87/// 333 20258=
59644 11569 70903 10311 20247 39999 40015 57019 69901 70060 87///
333 20268=
59758 32480 70204 10281 20249 39932 40005 57018 87/// 333 20257=
50953 32980 62004 10292 20174 39946 40083 57012 86/// 333 20179=
51076 32680 62202 10221 20089 39269 40095 57009 86/// 333 00153
20122=
51288 32980 73206 10190 20040 38319 57004 87/// 333 00154 20125=
52652 32980 23603 10310 20031 38461 49987 57015 82/// 333 05101
20145=
52866 11580 20703 10222 20097 37562 57023 69901 70060 82/// 333
05151 20100=
52983 11770 51101 10214 20141 38076 57024 60041 70060 85/// 333
05153 20117=
53463 32580 21803 10280 20030 38821 40072 57018 82/// 333 05301
20125=
53513 32680 51602 10291 20077 38916 40046 57022 85/// 333 05200
20132=
53588 32477 62203 10156 20099 37803 57005 86/// 333 20106=
54218 32979 01102 10284 20106 39332 40080 57015 333 20140=
54337 11680 62501 10275 20188 39984 40061 57016 69921 70060 86///
333 20196=
54497 11580 41804 10266 20207 30074 40091 57010 69951 70060 84///
333 20203=
56080 12580 23402 10201 20091 37148 57020 69911 82/// 333 05100
20071=
56778 11561 71101 10197 20173 38094 57015 60091 72160 87/// 333
05154 20177=
57083 32670 31603 10308 20144 39951 40079 57024 83/// 333 20176=
57461 32964 01103 10307 20181 39776 40066 57026 333 20223=
57494 32969 32901 10316 20189 30042 40070 57022 83/// 333 20233=
57516 11755 93201 10256 20223 39765 40060 57023 69981 76000 333
20220=
57816 32564 80201 10273 20169 38732 40041 57025 88/// 333 05100
20191=
58102 32577 31402 10291 20179 30035 40081 57022 83/// 333 20187=
58150 32575 70904 10263 20202 30087 40090 57015 87/// 333 20205=
58362 11975 60703 10265 20253 30060 40068 57024 60181 76060 86///
333 20249=
58457 32560 70902 10313 20242 30009 40058 57031 87/// 333 20238=
####018003670####
SMZA04 KWBC 050600
AAXX 05064
68155 36/// /0704 10206 20011 39240 48565 52017 333 20130 91007
555 10311 91021=
68174 31965 02403 10135 21001 38835 48552 53011 70400 333 20099
91004 555 10270 91023=
68182 36/// /3602 10178 20048 39412 48586 53024 333 20133 91003
555 10324 91023=
68241 36/// /0605 10191 21035 39040 48558 53012 333 20116 91010
555 10303 91022=
68242 32980 00506 10188 21032 38762 48541 53007 333 20104 91010
555 10296 91021=
68255 36/// /1104 10171 20004 38904 48547 53011 333 20102 91006
555 10297 91022=
68257 36/// /0000 10188 21004 38978 48556 52011 333 20106 91002
555 10307 91022=
68267 11958 01006 10117 20051 38288 48564 52010 69944 70500 333
20056 91009 555 10248 20004 91026=
68268 36/// /0000 10183 21019 38931 48568 52013 333 20076 91003
555 10303 91024=
68272 36/// /2502 10160 20028 39135 48569 53010 333 20110 91003
555 10308 91023=
68273 36/// /0704 10168 21003 38505 48559 53006 333 20106 91006
555 10270 91025=
68343 36/// /0202 10125 20009 38838 48552 53011 333 20043 91004
555 10288 91023=
68353 36/// /2003 10102 21020 38564 48543 55000 333 20053 91005
555 10266 91023=
68368 31960 00705 10165 21006 38359 48553 53005 70500 333 20111
555 10246 91025=
68375 36/// /1504 10109 20044 38390 48565 53007 333 20053 91019
555 10259 91026=
68400 32/// /1807 10219 20158 30133 40207 52013 333 20196 91014
555 10335 91020=
68408 36/// /1306 10104 20093 30187 40196 53003 333 20085 91009
555 10163 91019=
68416 32984 01805 10142 21030 39085 48549 52011 333 20120 91009
555 10292 91022=
68425 36/// /0000 10179 21052 39462 48562 53006 333 20146 91003
555 10342 91020=
68429 36/// /2404 10144 21095 38729 48545 53008 333 20117 91006
555 10282 91023=
68442 32880 71804 10111 21049 38705 48553 53017 87070 333 20026
91007 555 10260 91024=
68479 36/// /1305 10145 20099 39025 48577 53011 333 20124 91007
555 10303 91025=
68493 36/// /2202 10178 20109 39622 48598 52014 333 20141 91004
555 10298 91024=
68494 16/// /3203 10187 20140 30100 40234 53015 60014 333 20150
91004 555 10265 20012 91023=
68271 36/// /3503 10199 20019 38961 48563 53008 333 20149 91006
555 10306 91023=
68362 36/// /2705 10092 21012 38497 48506 52013 333 20020 91007
555 10261 91019=
68397 36/// /2004 10229 20183 30121 40217 52011 333 20198 91011
555 10323 91021=
68449 36/// /0000 10057 21050 38445 48575 52033 333 20003 91002
555 10244 91027=
68461 32980 70000 10063 20029 38373 48566 53007 80008 333 20000
91007 555 10239 91026=
68478 32589 81302 10142 20084 38896 48544 52013 885// 333 20123
91003 555 10273 91022=
68485 36/// /0000 10126 20081 38689 48577 53015 333 20105 91002
555 10258 91027=
68487 36/// /1602 10144 20119 39071 48581 53015 333 20117 91003
555 10285 91025=
68497 36/// /2504 10172 20146 30186 40235 53011 333 20146 91006
555 10250 91023=
68523 36/// /1409 10140 20041 39156 48554 53007 333 20134 91013
555 10280 91022=
68524 32986 81410 10129 20049 39121 48561 52012 8807/ 333 20127
91015 555 10288 91023=
68541 36/// /1709 10110 20033 38693 48574 53016 333 20049 91013
555 10271 91026=
68543 36/// /1609 10096 20056 38809 48568 53016 333 20085 91012
555 10272 91026=
68546 36/// /1706 10100 20052 38727 48569 53013 333 20069 91011
555 10257 91026=
68619 32880 31607 10108 20059 39393 48556 52010 83080 333 20095
91014 555 10244 91022=
68647 36/// /0702 10109 20079 39007 48593 53017 333 20103 91007
555 10236 91028=
68651 36/// /1606 10095 20072 38634 48593 53008 333 20074 91009
555 10226 91029=
68713 36/// /2104 10147 20063 30123 48615 52016 333 20127 91007
555 10218 91025=
####018003667####
SMZA04 KWBC 050600 RRB
AAXX 05064
68939 16/// /1914 10155 2//// 30285 40295 53014 60024 333 20136
91018 555 10176 20028 91029=
68176 36/// /0802 10183 20014 39186 48563 53016 333 20092 91004
555 10322 91022=
68183 16/// /2104 10185 20036 39545 48620 53021 69924 333 20132
91007 555 10322 20002 91026=
68196 36/// /0902 10215 20043 39666 48586 53018 333 20180 91003
555 10326 91020=
68269 36/// /0904 10174 20015 38607 48545 53003 333 20120 91008
555 10290 91023=
68322 32880 61706 10196 21127 39165 48534 52012 81070 333 20186
91011 555 10352 91018=
68331 36/// /1509 10166 21092 38868 48547 53002 333 20131 91012
555 10292 91022=
68333 36/// /2002 10138 21069 38727 48545 53009 333 20106 91006
555 10285 91023=
68335 36/// /2007 10135 21041 38954 48554 53007 333 20086 91012
555 10311 91023=
68338 36/// /1602 10159 21057 38811 48550 53008 333 20075 91003
555 10315 91023=
68342 36/// /0000 10161 21018 38549 48546 52011 333 20067 91001
555 10269 91023=
68345 36/// /0707 10136 21065 38709 48548 53011 333 20073 91009
555 10271 91023=
68349 36/// /0206 10156 21022 38544 48537 52007 333 20093 91010
555 10265 91022=
68350 36/// /0604 10119 21022 38704 48549 53007 333 20052 91006
555 10283 91023=
68355 36/// /1107 10106 20034 38618 48554 53006 333 20058 91010
555 10264 91024=
68361 36/// /0000 10182 20000 38422 48545 53005 333 20094 91001
555 10274 91024=
68411 36/// /2602 10190 20007 39972 48575 53010 333 20163 91003
555 10355 91018=
68424 32882 42402 10178 21074 39231 48546 52010 81070 333 20157
91004 555 10316 91019=
68438 32882 61406 10120 21079 38860 48544 52012 86070 333 20070
91009 555 10292 91022=
68447 36/// /1405 10095 21076 38776 48562 53018 333 20016 91007
555 10279 91025=
68471 36/// /1503 10101 20078 38376 48561 53008 333 20083 91006
555 10258 91026=
68488 36/// /0000 10181 20103 39346 48589 52013 333 20144 91002
555 10303 91024=
68491 36/// /2103 10203 20167 30213 40222 52012 333 20187 91005
555 10292 91022=
68495 36/// /2603 10195 20167 30189 40231 52015 333 20180 91005
555 10246 91023=
68512 32882 11118 10156 20010 39059 48549 53003 81080 333 20144
91030 555 10258 91021=
68513 36/// /1313 10107 20091 30091 40206 53002 333 20105 91018
555 10199 91020=
68527 36/// /1307 10152 20021 39131 48559 56001 333 20142 91012
555 10301 91022=
68549 36/// ///// 10057 20004 38668 48574 53015 333 20010 555
10253 91027=
68575 36/// /2006 10137 20103 39180 48590 53016 333 20127 91011
555 10247 91026=
68577 36/// /0000 10102 20061 38647 48593 53017 333 20084 91002
555 10251 91029=
68581 16/// /0102 10142 20132 39465 48591 53017 60024 333 20136
91003 555 10254 20026 69945 91025=
68582 16/// /1807 10149 20145 39406 48586 53016 60024 333 20139
91012 555 10256 20028 69925 91025=
68585 16/// /2110 10185 20159 30215 40232 53015 69924 333 20174
91023 555 10250 20002 69925 91023=
68587 16/// /2606 10167 20149 30239 40255 53020 60064 333 20167
91010 555 10229 20068 60105 91025=
68589 36/// /2202 10101 20045 38312 48574 53015 333 20082 91005
555 10246 91027=
68591 16/// /1908 10154 20147 30077 40259 53021 60064 333 20153
91013 555 10225 20066 60585 91026=
68712 32970 21515 10131 20082 30159 40234 52008 82060 333 20113
91021 555 10164 91023=
68714 36/// /1908 10121 20070 30192 48586 52009 333 20105 91011
555 10214 91022=
68717 36/// /0503 10092 20073 30082 48567 52017 333 20064 91005
555 10239 91022=
68718 32589 81203 10130 20089 30034 48633 52012 885// 333 20126
91009 555 10202 91028=
68723 36/// /1205 10116 20065 39505 48602 53013 333 20107 91008
555 10214 91027=
####018003644####
SMSN01 KWBC 050600
AAXX 05061
02029 46/// /0000 10017 21007 38722 58005 333 10034 20010 90710
91102=
02064 05/99 /1201 10062 20024 60002 333 20029 60005 70000 90710
91103=
02102 46/// /1013 10020 20020 333 10048 20015 90710 91117=
02103 46/// /1208 10037 20035 333 10057 20037 90710 91112=
02286 47/80 /1207 10115 20089 30011 40019 57026 761// 8//// 333
10130 20047 88/34=
02403 05973 02105 10127 20110 60042 333 20124 60005 70115 90710
91110=
02417 46/// /1811 1//// 2////=
02429 07481 61903 10126 20113 60092 70060 333 10137 20117 60005
70144 84/19 86/27 90710 91105=
02432 45/83 /2106 10142 20115 39943 40011 55000 8//// 333 10148
20132 81/13 87/21=
02443 17483 82103 10143 20136 39980 40009 57009 60022 70086 333
10158 20135 60005 70018 87/10 88/12 91005 90710 91105 90710 91203=
02460 47/83 /2003 10136 20128 39961 40010 51012 722// 8//// 333
10168 20123 81/11 83/50 87/58=
02476 07483 82305 10142 20116 39980 40019 55004 60022 70086 333
10164 20136 60005 70017 82/11 85/14 87/22 88/63 90710 91107=
02482 07/81 /2004 10139 20130 39928 49996 55008 60042 72386 333
10139 20115 69905 70039 90710 91107=
02484 46/// ///// 10148 20135 39962 40015 58010 333 10166 20135=
02496 11397 82010 10157 2//// 3//// 4//// 5//// 60082 76066 8372/
333 10173 20143 32/// 83793 88599=
02505 07562 62510 10151 20101 60032 76161 333 10165 20148 69905
70070 82/32 84/57 85/64 90710 91113=
02567 07976 82206 10154 20138 30001 40024 58002 60022 70086 333
10172 20151 60005 70017 81/59 87/71 90710 91109=
02611 06/// /2204 10137 20121 30020 40073 52010 60092 333 10176
20132 60005 70085 90710 91107=
02625 07980 02503 10150 20117 30078 40084 51017 69992 70086 333
10174 20132 60005 70014 90710 91106=
02648 07/77 /2302 10134 20125 39822 40057 52013 60022 70086 333
10149 20130 60005 70026 90710 91105=
02013 05/99 /0402 10059 20019 39385 40027 58011 60002 333 10079
20029 60005 79999 90710 91105=
02036 06/// /2401 10032 20028 39484 40047 58005 60002 333 10080
21003 60005 70000 90710 91101=
02038 05/99 /3001 10049 20041 60002 333 10049 21025 60005 70001
90710 91101=
02044 45/84 /2701 10038 20025 39492 40044 58006 8//// 333 10087
20015 84/60=
02110 07/74 /0903 10053 20043 60082 76160 333 10058 21004 69965
70077 90710 91107=
02141 35884 81502 10059 20037 39352 40037 58011 60002 333 10073
21010 60005 70000 85/57 88/58 91003 90710 91103 90710 91202=
02149 07469 71201 10057 20050 39573 40031 58017 69942 76160 333
10091 20022 69935 70004 82/11 87/40 90710 91102=
02171 37283 80801 10054 20050 30019 40050 57008 60002 72031 333
10106 20016 60005 70000 84/03 87/62 88/64 91002 90710 91102 90710
91201=
02174 069// 80000 10057 20032 39819 40044 57009 60002 333 21005
60005 70000 88/61 90710 91102=
02209 46/// /2806 10040 20021 333 10052 20040 90710 91107=
02210 46/// /2504 10034 20032 333 10045 20032 90710 91106=
02242 07/59 /1403 10095 20076 60092 76286 333 10095 20072 60025
70093 90710 91107=
02254 07359 81203 10086 20080 39611 49975 58036 60072 76260 333
10086 20025 60035 70074 86/08 87/12 88/20 90710 91108=
02271 07/66 /1302 10083 20079 39649 40018 58025 69962 76160 333
10083 20031 69965 70006 90710 91104=
02284 07665 81315 10131 20103 39992 40000 58038 69962 76186 333
10144 20121 69945 70006 88/37 90710 91119=
02331 07381 81705 10112 20101 60102 76262 333 10115 20083 60005
70102 84/09 86/13 88/16 90710 91109=
02382 07/57 ///12 10137 20135 60072 76286 333 10138 20113 60015
70071 90710 91121=
02431 07373 82303 10119 20115 39663 49996 57002 60162 70086 333
10124 20109 60005 70189 87/07 90710 91108=
####018003695####
SMZA04 KWBC 050600 RRA
AAXX 05064
68719 36/// /0606 10093 20045 39169 48591 52023 333 20053 91010
555 10219 91028=
68747 16/// /1607 10112 20104 39742 48612 53017 69944 333 20112
91010 555 10240 20004 69925 91028=
68817 36/// /1621 10154 20067 30223 40236 52010 333 20142 91039
555 10183 91023=
68821 36/// /1408 10133 20086 30037 48631 52016 333 20118 91013
555 10224 91028=
68835 16/// /0000 10125 20114 30187 40303 53016 60024 333 20121
91002 555 10205 20026 69925 91030=
68923 16/// /1003 10130 20100 30109 48645 53007 69964 333 20112
91005 555 10194 20006 91029=
68928 16/// /0502 10133 20117 30118 40282 53010 60034 333 20132
91010 555 10178 20030 91028=
68538 32782 81212 10099 20045 38791 48566 53023 8357/ 333 20084
91019 555 10268 91025=
68558 36/// /0000 10064 21001 38288 48612 52013 333 20004 91001
555 10217 91032=
68572 31324 80502 10103 20068 38471 48580 52016 70344 886// 333
20085 91003 555 10267 91028=
68579 16/// /1809 10143 20135 39658 48599 53020 60034 333 20141
91012 555 10222 20030 60165 91025=
68583 16/// /2002 10176 20125 30126 40238 53018 60064 333 20172
91007 555 10257 20060 69965 91023=
68588 16/// /3603 10161 20154 30129 40244 53016 60194 333 20159
91006 555 10264 20198 69925 91024=
68592 12270 82106 10164 20157 30119 40246 5//// 69944 885// 333
20160 91009 555 10239 20004 91024=
68593 16/// /2203 10183 20166 30226 40242 53018 60124 333 20177
91005 555 10263 20122 60125 91024=
68613 36/// /1706 10106 20078 30118 40233 53010 333 20085 91007
555 10212 91023=
68614 32880 23003 10113 20087 30177 40228 52015 82080 333 20091
91006 555 10267 91022=
68618 32880 30816 10113 20052 39114 48561 53006 81082 333 20088
91021 555 10257 91024=
68624 32/// /1110 10090 20044 38816 48566 52008 333 20082 91018
555 10253 91025=
68633 36/// /1515 10097 20058 38576 48568 53008 333 20082 91022
555 10257 91026=
68649 36/// /1605 10085 20052 38471 48586 53015 333 20055 91010
555 10232 91028=
68668 11215 81807 10111 20107 39398 48594 53010 60034 75966 886//
333 20107 91012 555 10223 20038 69925 91027=
68674 16/// /3003 10152 20145 30220 40251 53017 60754 333 20151
91007 555 10236 20750 60225 91025=
68677 16/// /2509 10159 20135 30159 40266 53011 60424 333 20147
91017 555 10242 20422 91026=
68711 36/// /1202 10112 20073 30110 40232 53007 333 20099 91003
555 10261 91023=
68715 36/// /0000 10088 20069 30116 48573 52013 333 20066 91002
555 10214 91023=
68722 32480 81009 10073 20047 38619 48572 52011 885// 333 20053
91014 555 10211 91027=
68737 31308 81707 10107 20091 39349 48593 52016 76122 886// 333
20105 91013 555 10241 91027=
68744 36/// /1513 10096 20070 39197 48586 53014 333 20096 91019
555 10231 91027=
68811 36/// /1407 10129 20080 30233 40241 52010 333 20100 91011
555 10199 91024=
68819 36/// /1611 10146 20065 30108 48593 53001 333 20141 91037
555 10186 91022=
68828 11470 83503 10120 20099 30050 40289 53011 60054 70262 885//
333 20115 91004 555 10192 20045 91029=
68837 16/// /2004 10132 20111 30234 40291 53015 60024 333 20124
91006 555 10210 20028 91029=
68840 36/// /1609 10110 20092 39683 48616 53016 333 20109 91012
555 10222 91029=
68849 36/// /1710 10096 20093 39526 48600 53015 333 20092 91015
555 10186 91028=
68912 32374 21417 10140 20043 30247 40256 52007 81101 333 20130
91029 555 10182 91025=
68918 16/// /1013 10131 20095 30260 40277 52007 69924 333 20112
91019 555 10185 20002 91027=
68927 16/// /1106 10142 20084 30166 40291 53011 69944 333 20116
91009 555 10199 20004 91029=
68933 16/// /0606 10132 20125 30297 40305 52017 60364 333 20129
91009 555 10186 20362 69945 91030=
####018003651####
SMSN01 KWBC 050600 RRA
AAXX 05061
02481 07383 82103 10139 20138 39932 40000 57008 60042 72386 333
10139 20120 60005 70045 85/08 88/12 90710 91106=
02486 07/99 /2302 10148 20131 69972 70062 333 10164 20138 60005
70007 90710 91105=
02488 07566 81807 10141 20132 39990 40001 58012 60022 76160 333
10155 20121 69955 70021 81/30 86/58 90710 91111=
02490 07360 82001 10143 20140 39994 40013 58014 60072 72386 333
10157 20120 69945 70072 81/09 83/13 88/61 90710 91104=
02501 46/// /2512 10147 20077 39976 40004 53005 333 10167 20145
90710 91115=
02526 45/81 /2104 10114 20099 39858 40041 52005 8//// 333 10144
20099 83/19 85/70=
02539 07558 20000 10118 20117 60202 72086 333 10145 20109 60005
70203 81/20 90710 91101=
02540 05/79 /2302 10106 20089 60022 333 10141 20099 60005 70111
90710 91104=
02546 07/71 /2302 10118 20110 39765 40015 54001 60052 70086 333
10139 20114 60005 70098 90710 91107=
02549 07167 82303 10112 20100 60082 70086 333 10136 20110 60005
70085 88/02 90710 91106=
02558 062// 81104 10135 20131 39841 40023 55005 60032 333 10156
20129 60005 70027 81/06 86/16 87/57 88/60 90710 91108=
02574 07483 72302 10145 20132 39976 40025 55003 60022 72386 333
10169 20137 60005 70017 81/18 87/57 90710 91105=
02587 07975 81904 10166 20150 60012 72386 333 10190 20144 69915
70010 88/63 90710 91108=
02605 07678 22509 10154 20096 60082 70062 333 10165 20148 60005
70086 81/35 90710 91112=
02623 07/71 12302 10135 20119 69962 70082 333 10164 20126 60005
70019 90710 91105=
02636 45/83 /2305 10140 20117 39997 40083 51009 8//// 333 10175
20126 81/57=
02644 07/80 32508 10169 20140 30062 40066 53003 69902 70086 333
10193 20166 60005 79999 90710 91112=
02049 07/81 /0801 10041 20027 39613 40047 58006 60002 70032 333
20002 60005 70000 90710 91102=
02121 07/57 /0000 10037 20036 39300 40031 58013 60032 76160 333
10056 21004 60015 70025 90710 91101=
02161 07999 80000 10054 20023 60002 70010 333 21007 60005 70000
88/59 90710 91101=
02191 05999 81704 10136 20093 60002 333 10139 20112 60005 70008
88/62 90710 91105=
02230 07/58 /0903 10082 20081 60132 76266 333 10094 20065 60025
70126 90710 91107=
02247 07383 80901 10109 20083 39736 49953 56031 60122 76166 333
10115 20089 60025 70117 82/09 88/12 90710 91106=
02261 07/72 /00// 10088 21249 69902 76160 333 10088 20011 69905
79999=
02263 07359 81304 10083 20076 60032 76286 333 10088 20056 60025
70032 88/08 90710 91110=
02282 07/81 /1002 10092 20089 69952 76163 333 10093 20034 69955
70005 90710 91105=
02293 47/84 /1103 10101 20091 39976 40033 58022 761// 8//// 333
10111 20045 87/50 88/57=
02307 46/// /2804 10060 20058 333 10082 20052 90710 91105=
02325 07/03 /2005 10080 20080 39027 49946 56015 60252 78186 333
10081 20053 69925 70250 90710 91110=
02329 07/10 /2102 10108 2//// 39428 49955 57012 60142 73186 333
10108 20079 60025 70140 90710 91105=
02338 07483 82103 10134 20119 39747 49963 56013 60092 72386 333
10134 20094 60005 70091 82/13 83/36 86/50 87/63 90710 91107=
02347 07382 91301 10131 20109 39880 49965 56021 60082 76166 333
10131 20103 69975 70082 81/08 83/21 90710 91103=
02411 07499 82202 10122 20103 39909 49988 53005 60072 70086 333
10147 20122 60005 70135 88/15 90710 91106=
02423 07599 52106 10124 20100 60082 70086 333 10142 20117 60005
70195 85/25 90710 91109=
02441 07/82 /1903 10126 20109 39737 49968 55001 60092 70086 333
10132 20106 60005 70100 90710 91106=
02449 07/80 /2202 10144 20116 60012 72386 333 10160 20138 69905
70014 90710 91108=
02453 07/81 /2003 10140 20134 60042 78186 333 10140 20113 60005
70039 90710 91107=
####018003747####
SMSN01 KWBC 050600 RRB
AAXX 05061
02458 07480 81905 10141 20135 39983 40007 58010 60032 72286 333
10152 20131 69905 70030 84/10 86/14 88/18 91006 90710 91106 90710
91205=
02468 07/60 /2103 10098 20098 60132 70086 333 10112 20087 60005
70139 90710 91109=
02487 46/// /2302 10149 20142 333 10164 20128 90710 91108=
02493 47117 92010 10154 20145 76186 333 10170 81/01 84/14 88/46
88/57 90710 91118=
02536 07271 41601 10109 20105 39688 40041 52007 60122 70086 333
10129 20105 60005 70187 81/06 90710 91104=
02545 368// 21806 10137 20131 39921 40025 53004 6///2 222// 06174
333 10164 20134 6///5 7//// 82/57 91008 90710 91108 90710 91207=
02552 07780 82001 10123 20095 60072 72386 333 10155 20115 60035
70068 88/56 90710 91110=
02556 17280 82102 10130 20130 39849 40049 51015 60052 70086 333
10157 20120 60005 70048 83/06 87/08 88/14 91004 90710 91105 90710
91203=
02559 06/// /2104 10156 20135 69982 333 10157 20138 60005 70009
90710 91107=
02575 07460 51906 10158 20145 30042 40046 52006 60052 7//6/ 333
10177 20154 60005 70050 82/19 90710 91109=
02598 46/// /2208 10170 20148 333 10193 20169 90710 91113=
02628 07980 02509 10143 20122 60022 70086 333 10184 20141 60005
70020 90710 91111=
02661 36/// ///// 1//// 2//// 3//// 4//// 5//// 6///2 333 1////
2//// 6///5 7//// 910// 90710 911// 90710 912//=
02667 17980 02609 10163 20142 30068 40071 53011 69932 70085 333
10188 20161 60005 70023 91011 90710 91112 90710 91210=
02670 45/81 /2304 10164 20139 30052 40058 53004 8//// 333 10180
20148 81/19=
02024 45/99 /1305 10060 20042 333 20045 90710 91109=
02072 05/83 81401 10066 20042 39672 40047 57003 60002 333 10083
21004 60005 70000 90710 91102=
02135 07562 81101 10058 20058 60022 76186 333 10080 20021 69995
70015 86/33 88/48 90710 91104=
02147 07/68 /1103 10062 20059 69992 76260 333 10092 20041 69965
70009 90710 91105=
02154 35783 80000 10034 20028 39823 40046 57012 60002 333 10089
20003 60005 70000 88/50 91001 90710 91101 90710 91200=
02176 064// 81606 10127 20123 60002 333 10127 20069 60005 70000
85/17 88/27 88/56 90710 91107=
02181 07981 80000 10063 20060 39974 40050 58005 60002 72032 333
10093 20030 60005 70000 88/64 90710 91101=
02184 05/99 /2101 10067 20051 39771 40047 58005 60002 333 10094
20029 60005 70000 90710 91102=
02199 161// 90000 10041 20040 69922 333 21002 70004 89/02 90710
91101=
02221 07/21 /1802 10067 20065 60132 75265 333 10082 20058 69955
70133=
02231 07283 81002 10087 20083 60232 78186 333 20074 69995 70227
88/06 90710 91104=
02236 07/72 /1203 10084 20080 39509 49951 57030 60172 76166 333
20073 60025 70172 90710 91106=
02260 07/57 /1502 10123 20123 39805 49973 58044 60152 76286 333
10123 20057 60055 70152 90710 91107=
02267 47/56 /1008 10107 20099 39861 49989 58041 762// 8//// 333
10113 20053 82/02 84/06 86/11 88/19=
02317 07399 81701 10089 20081 60162 72386 333 10096 20070 69915
70155 88/08 87/11 86/43 87/72 90710 91102=
02319 07/57 /1102 10093 20077 60142 78186 333 10105 20072 69915
70144 90710 91104=
02321 07683 11901 10120 20116 39664 49960 57003 60192 72386 333
10121 20096 69905 70199 81/49 90710 91103=
02343 07859 80701 10116 20116 39841 49959 56024 60072 76286 333
10117 20095 60015 70067 88/56 90710 91103=
02368 07556 82108 10115 20114 60102 76186 333 10125 20098 60015
70101 84/22 87/31 88/56 90710 91112=
02408 05982 02402 10114 20112 39796 49998 52007 60092 333 10142
20105 60005 70163 90710 91105=
02426 07483 81904 10120 20103 39763 49984 55000 60072 70086 333
10138 20117 60005 70105 85/14 87/21 88/30 90710 91108=
02489 17977 02102 10150 20150 30016 40021 56010 60082 72385 333
10171 20142 60005 70079 91004 90710 91105 90710 91203=
####018003724####
SMSN01 KWBC 050600 RRC
AAXX 05061
02516 05570 32409 10148 20108 30014 40036 53004 60042 333 10168
20143 60005 70133 82/20 83/25 90710 91112=
02542 07980 02105 10124 20110 39941 40025 52007 60032 70060 333
10143 20113 60005 70074 90710 91107=
02544 17983 02305 10129 20110 39913 40024 53003 60052 70086 333
10155 20123 60005 70088 91007 90710 91107 90710 91205=
02548 07/80 /2205 10139 20101 60042 70086 333 10160 20132 60005
70042 90710 91109=
02554 07481 82604 10126 20097 60062 70086 333 10145 20124 60005
70061 85/16 88/57 90710 91109=
02561 17883 22002 10129 20129 39939 40024 53002 60052 70086 333
10161 20126 60005 70048 82/57 91004 90710 91104 90710 91203=
02607 47/78 /2506 10140 20118 30046 40068 52010 723// 8//// 333
10170 20139 82/28 83/34=
02622 07368 8//// 10132 20126 60042 70086 333 10150 20121 60005
70038 87/07=
02629 17362 72403 10129 20127 39949 40070 51014 60072 70086 333
10151 20127 60005 70086 87/07 91006 90710 91106 90710 91203=
02632 46/// /2710 10170 20142 333 10189 20167 90710 91114=
02095 07058 91001 10053 20051 39852 40053 58002 69932 72487 333
21022 69905 70003 86/01 90710 91102=
02151 36/// ///// 1//// 2//// 3//// 4//// 5//// 6///2 333 1////
2//// 6///5 7//// 910// 90710 911// 90710 912//=
02186 35983 51401 10097 20088 30022 40046 58010 60002 333 10111
20045 60005 79999 85/61 91002 90710 91102 90710 91201=
02197 05966 01601 10089 20087 30036 40054 58007 60002 333 10089
20024 60005 70008 90710 91102=
02207 07599 82602 10065 20058 39269 49952 56009 60072 70086 333
10088 20065 60005 70070 88/27 90710 91105=
02219 07/68 /1005 10069 20064 39303 49952 57030 60112 76166 333
10088 20062 69975 70110 90710 91110=
02297 07699 81607 10116 20095 39990 40034 58021 69992 70082 333
10121 20077 60005 70030 81/48 88/56 90710 91111=
02308 07/99 /0000 10070 20041 39115 49953 55001 60162 70086 333
10072 20062 60005 70171 90710 91103=
02327 07/99 /1602 10108 20100 39530 49948 58006 60092 70086 333
10113 20082 60005 70089 90710 91104=
02355 07140 81807 10104 20101 39962 49974 57024 60102 76186 333
10113 20081 69985 70104 86/03 87/14 88/19 90710 91112=
02366 47/62 /1406 10125 20124 39966 49972 56030 762// 8//// 333
10131 20099 86/07 87/09 88/56=
02407 07/80 /1904 10122 20086 39614 49968 52002 60172 78286 333
10133 60005 70185 90710 91107=
02440 07/82 /1903 10134 20123 60112 72366 333 10134 20098 69915
70114 90710 91108=
02456 07371 81802 10139 20137 39960 40000 58013 60002 72386 333
10148 20123 60005 70000 87/09 88/12=
02469 07/80 /2002 10146 20134 60052 70086 333 10164 20121 60005
70050 90710 91105=
02498 07159 82009 10157 20149 30005 40021 55018 60052 76286 333
10175 20144 60055 70049 81/03 83/14 86/56 88/58 90710 91119=
02518 465// 3//07 10150 20107 333 10168 20142 81/29 83/48 90710
91110=
02520 12581 12005 10119 20114 39956 40021 53005 60032 81800 333
10147 20109 32/// 60005 70078 81820 91006 90710 91106 90710 91205=
02563 07682 22105 10144 20132 30008 40029 57003 69962 70086 333
10155 20138 60005 70006 82/47 90710 91108=
02565 07568 82304 10150 20124 39931 40046 53002 69952 70086 333
10154 20132 60005 70006 86/20 87/57 90710 91107=
02589 07475 72206 10178 20160 30016 40036 55009 60022 72386 333
10185 20140 60005 70016 81/14 85/28 87/56 90710 91115=
02590 17482 82206 10164 20145 39992 40051 53005 69962 70086 333
10184 20154 60005 70006 82/18 84/59 88/66 91008 90710 91111 90710
91208=
02618 07/61 /2102 10133 20125 39894 40053 52010 60242 70086 333
10145 20119 60005 70253 90710 91105=
02664 11481 12504 10146 20139 30001 40070 53012 60012 70181 81502
333 10180 20146 30/// 60005 70014 81611 91006 90710 91107 90710
91204=
####018003730####
SMJP04 KWBC 050600
AAXX 05064
47401 12/70 72212 10227 20181 30134 40148 55012 60001 81102 555
00237=
47407 12/84 72408 10250 20151 39998 40158 56017 60001 81236 555
00263=
47409 12/82 71607 10244 20151 30108 40158 57018 60001 81132 555
00247=
47412 12/70 71407 10249 20161 30131 40161 56012 60001 81136 555
00265=
47418 12/82 61709 10198 20165 30137 40184 58014 60001 81202 555
00213=
47420 15/70 /1814 10200 20172 30154 40186 58012 60001 555 00226=
47421 15/70 /1512 10220 20167 30125 40166 58009 60001 555 00243=
47430 12/70 71608 10250 20187 30117 40168 56013 60001 81232 555
00263=
47570 15/70 /3005 10293 20215 39915 40154 56018 60001 555 00302=
47575 11/80 73506 10251 20202 30160 40165 56012 69901 70282 8127/
555 00258=
47582 11/75 71207 10258 20187 30135 40160 58016 69901 70262 8457/
555 00258=
47585 17/70 /2002 10231 20184 30115 40169 56016 69901 70060 555
00255=
47587 17/70 /1206 10292 20206 30151 40156 56014 69901 70060 555
00293=
47598 15/61 /1605 10250 20211 30172 40178 56011 60001 555 00270=
47604 12/81 71202 10307 20223 30143 40149 56015 60001 81232 555
00319=
47605 12/80 72907 10323 20212 30105 40143 56008 60001 83302 555
00337=
47612 15/70 /3407 10300 20230 30131 40147 56010 60001 555 00322=
47618 15/70 /1910 10290 20188 39469 40135 56012 60001 555 00298=
47624 15/68 /1304 10275 20203 30041 40170 56013 60001 555 00282=
47655 15/70 /1009 10293 20225 30110 40167 56008 60001 555 00300=
47662 12/65 71803 10283 20239 30141 40169 56015 60001 8227/ 555
00296=
47663 17/70 /1007 10264 20243 30145 40165 57001 60021 72360 555
00294=
47677 17/58 /0414 10268 20265 30117 40163 58014 60041 76160 555
00273=
47740 15/64 /0804 10294 20250 30098 40130 58012 60001 555 00305=
47741 11/82 70103 10258 20240 30103 40129 55006 60061 71798 87963
555 00339=
47746 12/81 71910 10333 20227 30112 40130 56016 60001 81232 555
00338=
47750 17/62 /0709 10296 20256 30133 40138 56014 69901 76160 555
00322=
47772 11/10 82307 10248 20236 30055 40150 55003 60231 79782 889//
555 00323=
47778 17/70 /0607 10277 20257 30075 40154 56011 60011 72360 555
00278=
47800 15/70 /1502 10301 20254 30109 40114 58016 60001 555 00309=
47815 11/80 71710 10303 20242 30105 40120 58020 60011 70282 82271
555 00308=
47819 12/80 60707 10335 20247 30054 40098 58018 60001 82202 555
00344=
47827 12/81 61209 10325 20251 30065 40100 58018 60001 81232 555
00335=
47837 17/70 /1009 10299 20261 30059 40101 58016 69951 70060 555
00312=
47843 15/70 /0806 10295 20244 30075 40105 58015 60001 555 00302=
47887 11/70 70402 10299 20229 30091 40130 56014 69901 70282 84232
555 00318=
47898 17/70 /0406 10258 20244 30098 40137 58012 60061 72360 555
00278=
47899 17/70 /0615 10243 20236 39936 40149 58007 60111 72360 555
00272=
47909 11/70 71208 10307 20258 30063 40072 58014 69901 72582 87202
555 00316=
47918 11460 83220 10271 20255 39910 49927 55007 60101 78082 8627/
555 00275=
47927 11/20 82639 10274 20262 39414 49458 55152 61031 78088 883//
555 00284=
47936 11/50 81326 10252 20240 39958 40015 57025 60121 78182 882//
555 00288=
47971 17/70 /0406 10284 20252 30106 40115 56011 69901 72360 555
00309=
47991 16/// /0925 10291 20257 30082 40092 55002 69901 555 00294=
47426 15/70 /1407 10215 20169 30139 40184 58013 60001 555 00231=
47590 12/70 81407 10245 20200 30127 40178 56012 60001 8787/ 555
00254=
47600 15/70 /0505 10290 20205 30142 40150 56010 60001 555 00299=
47817 12/80 50703 10328 20237 30060 40100 58018 60001 82301 555
00339=
47602 15/70 /2903 10281 20228 30143 40151 57012 60001 555 00286=
47636 11/65 71609 10286 20235 30097 40161 58009 69901 70282 8327/
555 00297=
####018003715####
SMUS04 KWBC 050600
AAXX 05064
72278 32966 42716 10367 20144 39708 40080 51025 90551 333 10439
20317 555 90506=
72334 32966 03605 10278 20233 30066 40165 50001 90554 333 10322
20228 555 90506=
72370 35866 22414 10283 20106 38998 40099 51012 90551 333 10306
20233 555 90506=
72374 17964 81008 10244 20128 38559 40152 53026 69901 761// 90556
333 10306 20200 555 90506=
72386 32966 62003 10344 20094 39384 40093 51009 90556 333 10422
20300 555 90506=
72387 35966 00710 10339 20056 39002 40091 51015 90553 333 10394
20233 555 90506=
72408 12966 80316 10228 20150 30140 40160 51016 69951 90554 333
10261 20206 555 90506=
72475 15966 02207 10244 20089 3//// 40138 58005 69901 90552 333
10317 20156 555 90506=
72488 12866 40000 10194 20139 38683 40148 51010 60011 90555 555
90506=
72591 35966 00000 10261 20122 39980 40100 53015 90554 333 10350
20194 555 90506=
72597 35966 00000 10239 20111 39655 40109 51015 90553 555 90506=
72605 35966 03113 10156 20089 30039 40161 51024 90551 333 10211
20156 91024 555 90506=
72677 32966 23508 10256 20011 38925 40129 53022 90553 333 10372
20161 555 90506=
72681 32966 01315 10250 20050 39143 40122 53012 90553 333 10356
20183 91022 555 90506=
72683 35966 02906 10172 20028 38742 40139 51009 90553 333 10333
20072 555 90506=
72693 32966 03505 10178 20089 39999 40135 51005 90554 333 10283
20106 555 90506=
72698 32966 02906 10211 20139 30130 40137 51005 90553 333 10272
20183 555 90506=
72767 35966 00000 10172 20122 39436 40103 51018 90552 333 10317
20083 555 90506=
72773 35964 00000 10156 20028 39060 40161 53015 90553 333 10306
20139 555 90506=
72777 35966 01604 10139 20050 39243 40141 53019 90553 333 10306
20139 555 90506=
72785 32966 00000 10189 20033 39314 40154 53007 90553 333 10278
20150 555 90506=
72295 32966 23004 10233 20161 30063 40113 51015 90553 333 10278
20222 555 90506=
72297 32966 03304 10256 20194 30099 40111 51013 90553 333 10322
20233 555 90506=
72302 35566 80711 10272 20228 3//// 40108 58015 90553 333 10272
20239 555 90506=
72314 32766 80507 10261 20206 39877 40129 58002 90552 333 10289
20200 555 90506=
72371 15966 00000 10272 20094 38720 40128 51009 69901 90553 333
10339 20233 555 90506=
72376 35966 00805 10233 20011 38356 40164 51016 90553 333 10344
20233 555 90506=
72384 35966 00506 10306 20100 39921 40094 51013 90554 333 10378
20256 555 90506=
72389 32966 03207 10311 20144 39977 40097 51016 90553 333 10389
20233 555 90506=
72405 12966 80305 10261 20222 30134 40157 51015 69951 90552 333
10306 20222 555 90506=
72486 35966 6//03 10211 20056 38141 40132 53015 90553 333 10311
20100 555 90506=
72570 35966 00000 10156 20078 38168 40180 53016 90553 333 10300
20094 555 90506=
72578 35966 02604 10233 20072 38659 40138 53004 90553 333 10333
20117 555 90506=
72594 35162 81604 10144 20128 30113 40138 50003 90553 333 10161
20117 555 90506=
72688 35966 01405 10194 20061 39606 40132 51009 90553 333 10306
20161 555 90506=
72768 35966 01003 10194 20067 39330 40125 51021 90553 333 10317
20139 555 90506=
72772 32966 00000 10194 20022 38833 40161 51012 90553 333 10328
20150 555 90506=
72776 32966 01403 10161 21006 38900 40146 51015 90553 333 10317
20111 555 90506=
72783 35966 01503 10217 20056 39633 40139 51011 90556 333 10317
20200 555 90506=
72791 15966 00000 10144 20128 30152 40156 50004 69901 90555 333
10200 20144 555 90506=
72792 35966 00204 10167 20122 30096 40165 53006 90554 333 10239
20100 555 90506=
72202 32966 62507 10283 20244 30132 40142 58002 90553 333 10311
20267 555 90506=
72235 35966 00000 10222 20200 30059 40160 58003 90554 333 10317
20206 555 90506=
####018003717####
SMUS04 KWBC 050600 RRA
AAXX 05064
72241 35966 00000 10250 20244 30153 40160 58004 90553 333 10317
20244 555 90506=
72255 35966 00705 10261 20239 30125 40159 50005 90551 333 10328
20250 555 90506=
72259 32766 20000 10283 20183 39968 40166 50000 90553 333 10339
20250 555 90506=
72263 35966 01104 10239 20144 39517 40172 51004 90551 555 90506=
72327 32966 00107 10244 20178 39925 40166 50006 90553 333 10322
20200 555 90506=
72365 32966 0//04 10244 20044 38443 40167 51012 90552 333 10317
20217 555 90506=
72403 32866 60307 10250 20161 30051 40159 51019 90552 333 10306
20200 555 90506=
72407 12966 03304 10233 20211 30110 40151 53007 69951 90554 333
10272 20172 555 90506=
72411 32966 00000 10244 20200 39737 40151 53008 90554 333 10300
20183 555 90506=
72414 32666 40203 10222 20156 39805 40161 55000 90554 333 10283
20172 555 90506=
72417 37959 00000 10172 20156 39482 40179 53006 710// 90551 333
10239 20139 555 90506=
72422 32966 00306 10200 20150 39826 40171 50000 90554 333 10283
20200 555 90506=
72440 32966 00604 10233 20206 39742 40187 52004 90552 333 10289
20200 555 90506=
72450 32966 01607 10239 20189 39710 40178 50002 90553 333 10306
20228 555 90506=
72464 35966 02805 10206 20089 38618 40156 50001 90553 333 10306
20189 555 90506=
72480 35966 00205 10217 20094 38765 40136 53013 90556 333 10339
20150 555 90506=
72515 35466 23503 10122 20106 39613 40187 50004 90553 333 10194
20117 555 90506=
72528 32666 23605 10156 20106 39924 40193 50002 90554 333 10239
20156 555 90506=
72529 32966 00000 10122 20106 39980 40196 51002 90554 333 10239
20122 555 90506=
72532 35966 00603 10156 20128 39964 40207 50001 90554 333 10217
20150 555 90506=
72565 32966 22115 10228 20072 38386 40131 58003 90553 333 10278
20161 555 90506=
72567 35966 01909 10206 20150 39249 40139 58003 90552 333 10283
20100 555 90506=
72583 15966 01806 10189 20139 38720 40160 55017 60031 90556 333
10344 20128 555 90506=
72637 35666 82903 10156 20111 39928 40204 53002 90553 333 10211
20150 555 90506=
72645 35966 02403 10106 20089 39967 40215 52002 90553 333 10167
20100 555 90506=
72659 35966 01713 10194 20150 39660 40127 56013 90553 333 10233
20056 555 90506=
72666 35966 03210 10194 20072 38802 40125 53015 90553 333 10356
20094 555 90506=
72694 35966 03404 10189 20117 30064 40135 51007 90556 333 10272
20139 555 90506=
72747 15966 00000 10117 20094 39749 40179 50002 69901 90555 333
10178 20094 555 90506=
72203 32966 22307 10267 20239 30128 40136 50002 90553 333 10300
20244 555 90506=
72205 32966 82411 10267 20239 30073 40108 53005 90553 333 10289
20233 555 90506=
72207 17466 63520 10233 20228 30013 40030 58014 60101 761// 90553
333 10267 20233 91031 555 90506=
72211 32966 22611 10289 20261 30112 40123 50000 90553 555 90506=
72218 35966 03610 10272 20194 30042 40091 58010 90553 333 10300
20217 555 90506=
72219 32966 63610 10272 20172 39766 40124 58002 90552 333 10333
20239 555 90506=
72234 35966 00000 10228 20206 30055 40157 50001 90558 333 10311
20211 555 90506=
72251 11466 80913 10278 20256 30129 40146 50003 69901 795// 90551
333 10294 20256 91020 555 90506=
72267 32966 21304 10222 20122 39085 40176 51005 90553 333 10317
20183 555 90506=
72268 35966 01904 10228 20072 38954 40160 51010 90551 333 10339
20206 555 90506=
72270 32966 00604 10267 20072 38856 40144 51011 90551 333 10328
20233 555 90506=
72290 32766 43003 10239 20217 30100 40116 51018 90551 333 10267
20228 555 90506=
72324 35966 03104 10256 20222 39898 40139 56004 90553 333 10328
20206 555 90506=
72351 35966 01003 10239 20189 39823 40175 50003 90552 333 10328
20211 555 90506=
####018003706####
SMUS04 KWBC 050600 RRB
AAXX 05064
72383 35966 02206 10244 20083 38649 40140 51009 90553 333 10317
20222 555 90506=
72421 32966 00409 10200 20144 39869 40178 50003 90552 333 10244
20200 555 90506=
72423 32966 20107 10206 20156 30004 40174 50002 90556 333 10278
20206 555 90506=
72425 32966 00403 10200 20156 39870 40165 51002 90551 333 10272
20189 555 90506=
72434 32966 00104 10200 20156 39998 40192 53002 90551 333 10267
20200 555 90506=
72435 35966 00403 10206 20172 30044 40180 51007 90553 333 10289
20200 555 90506=
72446 32966 01207 10200 20161 39822 40193 50001 90553 333 10244
20189 555 90506=
72451 35966 01710 10228 20150 39282 40166 50002 90552 333 10328
20183 555 90506=
72462 35966 03003 10144 20044 37799 40206 51008 90552 333 10289
20100 555 90506=
72533 32966 00000 10117 20111 39910 40204 55000 90554 333 10244
20117 555 90506=
72537 32766 63604 10150 20122 39969 40201 52003 90553 333 10211
20144 555 90506=
72548 35966 00000 10111 20094 39891 40206 58001 90554 333 10211
20106 555 90506=
72556 35966 01306 10172 20144 39631 40177 56004 90556 333 10239
20089 555 90506=
72557 35866 41307 10161 20144 39785 40181 58008 90552 333 10239
20100 555 90506=
72566 35966 00808 10200 20172 38801 40118 58000 90553 333 10322
20161 555 90506=
72569 35966 02407 10178 20011 38394 40129 51010 90553 333 10333
20144 555 90506=
72644 35966 01607 10117 20094 39729 40207 58006 90554 333 10194
20094 555 90506=
72672 35966 02910 10206 20028 38355 40139 51011 90553 333 10317
20144 555 90506=
72781 35966 02805 10150 20083 39765 40144 53014 90553 333 10300
20111 555 90506=
72793 32966 00209 10189 20128 30006 40172 52003 90553 333 10244
20150 555 90506=
72212 35966 02604 10259 20233 30093 90555 555 90506=
72214 35966 00000 10250 20217 30095 40112 58002 90553 333 10322
20233 555 90506=
72217 35966 02705 10228 20206 39981 40105 58003 90553 333 10300
20194 555 90506=
72220 35966 02905 10278 20244 30115 40120 56010 90553 555 90506=
72223 35966 03205 10250 20217 30075 40151 58002 90556 333 10306
20233 555 90506=
72231 32966 00000 10278 20239 30149 40160 58003 90553 333 10333
20244 555 90506=
72240 35966 00000 10256 20239 30158 40171 58004 90553 555 90506=
72243 32966 00000 10250 20217 30122 40164 51000 90553 333 10333
20250 555 90506=
72248 32966 00000 10256 20200 30076 40167 50002 90556 333 10339
20217 555 90506=
72250 35966 01208 10289 20272 30129 40133 51011 90553 333 10300
20267 555 90506=
72254 35966 0//03 10283 20189 39953 40163 53009 90551 333 10356
20239 555 90506=
72261 35966 01203 10289 20178 39801 40155 53015 90553 333 10350
20244 555 90506=
72266 32966 01105 10250 20156 39558 40173 50002 90552 333 10333
20211 555 90506=
72274 32966 00000 10311 20133 39257 40111 51024 90553 333 10400
20244 555 90506=
72326 32966 00000 10233 20206 39791 40137 56003 90553 333 10300
20194 555 90506=
72332 35966 00103 10244 20217 30036 40157 90553 333 10328 20206
555 90506=
72344 35966 00000 10244 20244 30018 40181 51006 90553 333 10322
20222 555 90506=
72353 32966 01407 10222 20211 39737 40182 50004 90552 333 10300
20206 555 90506=
72356 32966 00000 10239 20222 39935 40174 51004 90553 333 10306
20217 555 90506=
72360 35966 02406 10200 20089 38546 40170 51005 90555 333 10294
20172 555 90506=
72363 32966 01808 10194 20117 38977 40176 51004 90553 333 10311
20178 555 90506=
72530 32666 80504 10167 20111 39973 40211 50000 90551 333 10200
20150 555 90506=
72535 35966 03504 10106 20100 39933 40215 52002 90554 333 10194
20106 555 90506=
72536 32666 83503 10167 20117 39948 40197 50000 90552 333 10244
20167 555 90506=
####018003674####
SMUS04 KWBC 050600 RRC
AAXX 05064
72544 35966 00000 10122 20106 39992 40211 55001 90552 333 10206
20122 555 90506=
72592 12966 00000 10256 20111 39923 40100 53020 69901 90553 333
10367 20172 555 90506=
72641 32664 80000 10111 20106 39905 40217 51001 90553 333 10172
20106 555 90506=
74740 35966 00000 10228 20161 39580 40158 52006 90551 333 10339
20194 555 90506=
72311 35966 00105 10256 20183 39842 40122 58000 90551 333 10294
20211 555 90506=
72315 35966 01003 10222 20167 39390 40140 55002 90554 333 10267
20172 555 90506=
72317 32766 80000 10239 20228 39822 40136 50001 90554 333 10272
20194 555 90506=
72401 32866 61303 10244 20222 30089 40152 53010 90554 333 10283
20206 555 90506=
72402 35964 02106 10261 20244 30128 40142 50002 90554 333 10267
20222 555 90506=
72406 12866 60105 10261 20156 30084 40153 50013 69901 90554 333
10311 20200 555 90506=
72432 35966 00000 10189 20150 30049 40186 53004 90554 333 10261
20183 555 90506=
72438 32966 00308 10167 20122 39910 40195 51002 90554 333 10233
20167 555 90506=
72445 35966 00603 10178 20150 39883 40199 51001 90554 333 10256
20172 555 90506=
72476 35966 01306 10267 20072 38581 40139 51009 90553 333 10339
20217 555 90506=
72494 32266 62811 10167 20139 30097 40130 51014 90556 333 10194
20144 555 90506=
72508 32966 23309 10161 20128 30093 40163 51014 90551 333 10211
20150 555 90506=
72509 32966 02808 10200 20144 30141 40149 51017 90554 333 10267
20183 555 90506=
72513 32966 00106 10167 20117 39843 40181 53010 90554 333 10244
20167 555 90506=
72518 32666 20104 10150 20122 30075 40181 51014 90551 333 10211
20150 555 90506=
72519 32666 40204 10128 20117 30037 40186 50005 90554 333 10233
20128 555 90506=
72520 32966 00303 10150 20117 39769 40195 55001 90551 333 10217
20150 555 90506=
72521 32966 00405 10128 20117 39752 40195 50004 90551 333 10228
20128 555 90506=
72539 32966 03404 10117 20094 39898 40211 53001 90553 333 10200
20100 555 90506=
72547 35966 00000 10111 20100 39828 40216 55002 90553 333 10178
20106 555 90506=
72552 35966 01407 10189 20161 39524 40174 58008 90553 333 10239
20133 555 90506=
72572 32966 40308 10272 20111 38745 40141 53034 90554 333 10356
20211 555 90506=
72606 35966 02909 10161 20106 30130 40147 53031 90551 333 10222
20161 555 90506=
72617 15566 83503 10156 20000 30056 40180 51013 69901 90554 333
10211 20156 555 90506=
72636 35966 00000 10111 20078 39987 40216 50002 90555 333 10211
20106 555 90506=
72638 37912 00000 10050 20044 39799 40222 53003 710// 90553 333
10161 20050 555 90506=
72639 35966 00000 10056 20044 39962 40215 51006 90554 333 10167
20056 555 90506=
72640 32566 60000 10156 20111 39970 40215 51001 90552 333 10194
20156 555 90506=
72651 35966 01709 10183 20139 39667 40173 58006 90556 333 10233
20100 555 90506=
72712 15966 03008 10111 20083 39881 40111 53027 69951 90554 333
10183 20100 555 90506=
72745 32966 02503 10133 20094 39682 40198 53006 90555 333 10189
20094 555 90506=
72764 35966 01309 10200 20156 39513 40093 56008 90552 333 10261
20072 555 90506=
72201 35966 02705 10289 20250 30146 40151 58003 90553 333 10300
20267 555 90506=
72206 12866 82717 10272 20211 30052 40060 50000 69901 90556 333
10289 20228 91023 555 90506=
72208 17440 80218 10239 20239 30021 40037 56027 60331 763// 90556
333 10261 20233 91036 96010 555 90506=
72226 35966 02907 10250 20206 30066 40137 50001 90553 333 10328
20211 555 90506=
72253 32966 61208 10272 20217 39889 40159 51013 90551 333 10344
20250 555 90506=
72256 35966 00105 10244 20167 39995 40168 51004 90551 333 10350
20217 555 90506=
####018003493####
SMUS01 KWBC 050600 RRA
AAXX 05064
72201 35966 02705 10289 20250 30146 40151 58003 90553 333 10300
20267 555 90506=
72202 32966 62507 10283 20244 30132 40142 58002 90553 333 10311
20267 555 90506=
72203 32966 22307 10267 20239 30128 40136 50002 90553 333 10300
20244 555 90506=
72205 32966 82411 10267 20239 30073 40108 53005 90553 333 10289
20233 555 90506=
72206 12866 82717 10272 20211 30052 40060 50000 69901 90556 333
10289 20228 91023 555 90506=
72207 17466 63520 10233 20228 30013 40030 58014 60101 761// 90553
333 10267 20233 91031 555 90506=
72208 17440 80218 10239 20239 30021 40037 56027 60331 763// 90556
333 10261 20233 91036 96010 555 90506=
72211 32966 22611 10289 20261 30112 40123 50000 90553 555 90506=
72212 35966 02604 10259 20233 30093 90555 555 90506=
72214 35966 00000 10250 20217 30095 40112 58002 90553 333 10322
20233 555 90506=
72217 35966 02705 10228 20206 39981 40105 58003 90553 333 10300
20194 555 90506=
72218 35966 03610 10272 20194 30042 40091 58010 90553 333 10300
20217 555 90506=
72219 32966 63610 10272 20172 39766 40124 58002 90552 333 10333
20239 555 90506=
72220 35966 02905 10278 20244 30115 40120 56010 90553 555 90506=
72223 35966 03205 10250 20217 30075 40151 58002 90556 333 10306
20233 555 90506=
72226 35966 02907 10250 20206 30066 40137 50001 90553 333 10328
20211 555 90506=
72231 32966 00000 10278 20239 30149 40160 58003 90553 333 10333
20244 555 90506=
72234 35966 00000 10228 20206 30055 40157 50001 90558 333 10311
20211 555 90506=
72235 35966 00000 10222 20200 30059 40160 58003 90554 333 10317
20206 555 90506=
72240 35966 00000 10256 20239 30158 40171 58004 90553 555 90506=
72243 32966 00000 10250 20217 30122 40164 51000 90553 333 10333
20250 555 90506=
72248 32966 00000 10256 20200 30076 40167 50002 90556 333 10339
20217 555 90506=
72250 35966 01208 10289 20272 30129 40133 51011 90553 333 10300
20267 555 90506=
72251 11466 80913 10278 20256 30129 40146 50003 69901 795// 90551
333 10294 20256 91020 555 90506=
72253 32966 61208 10272 20217 39889 40159 51013 90551 333 10344
20250 555 90506=
72254 35966 0//03 10283 20189 39953 40163 53009 90551 333 10356
20239 555 90506=
72255 35966 00705 10261 20239 30125 40159 50005 90551 333 10328
20250 555 90506=
72256 35966 00105 10244 20167 39995 40168 51004 90551 333 10350
20217 555 90506=
72259 32766 20000 10283 20183 39968 40166 50000 90553 333 10339
20250 555 90506=
72261 35966 01203 10289 20178 39801 40155 53015 90553 333 10350
20244 555 90506=
72263 35966 01104 10239 20144 39517 40172 51004 90551 555 90506=
72265 35966 01005 10250 20133 39205 40166 51005 90553 333 10328
20211 555 90506=
72266 32966 01105 10250 20156 39558 40173 50002 90552 333 10333
20211 555 90506=
72267 32966 21304 10222 20122 39085 40176 51005 90553 333 10317
20183 555 90506=
72268 35966 01904 10228 20072 38954 40160 51010 90551 333 10339
20206 555 90506=
72270 32966 00604 10267 20072 38856 40144 51011 90551 333 10328
20233 555 90506=
72271 35966 02303 10267 20061 38587 40150 51018 90553 333 10328
20222 555 90506=
72274 32966 00000 10311 20133 39257 40111 51024 90553 333 10400
20244 555 90506=
72278 32966 42716 10367 20144 39708 40080 51025 90551 333 10439
20317 555 90506=
72290 32766 43003 10239 20217 30100 40116 51018 90551 333 10267
20228 555 90506=
72295 32966 23004 10233 20161 30063 40113 51015 90553 333 10278
20222 555 90506=
####018000081####
SICN04 KWBC 050300 RRU
AAXX 05034
71507 26/// /2403 10121 20112 333 69967=
####018000152####
SICI01 KWBC 050300 RRQ
AAXX 05031
55696 41580 72201 10125 20084 36389 52009 72100 87///=
57411 41762 80202 10238 20222 40093 52007 70060 88///=
####018000101####
SMCN04 KWBC 050000
AAXX 05004
71507 17/// /3110 10138 20125 60041 7//4/ 333 10191 20138 70048=
####018000121####
SMBD04 KWBC 050600
AAXX 05064
96315 11458 71509 10304 20258 40092 69921 79598 84978 333 83815
82916 84364 85278=
####018000319####
SMCD03 KWBC 050600
AAXX 05063
64700 32960 51806 10260 20235 39768 40103 80002 333 0//00 20250
50731 55068 58000 85075=
64709 33960 52204 10231 20216 3//// 4//// 82032 333 0//00 20214
50204 55/// 5//// 82364 83075=
64756 33960 70000 10260 2//// 39511 4//// 80002 333 0//00 20215
5//// 55/// 58006 87075=
####018000133####
SMBC04 KWBC 050600
AAXX 05064
68029 31960 00802 10213 20041 39048 48/// 52017 70500 8/000 333
10322 20127 30/// 5///1 70000=
####018001958####
SMAK04 KWBC 050600
AAXX 05064
70231 15766 61504 10106 20083 30055 40182 53006 69901 90553 333
10150 20106 555 90506=
70251 35966 00000 10100 20083 30062 40196 53013 90553 333 10178
20100 555 90506=
70321 35766 41907 10128 20106 30151 40192 53001 90556 333 10144
20100 555 90506=
70326 32866 81805 10133 20100 30174 40185 53002 90554 333 10167
20067 555 90506=
70333 35966 01606 10117 20089 30158 40195 53000 90556 333 10156
20083 555 90506=
70350 32966 02805 10100 20072 30168 40210 53004 90553 333 10156
20100 555 90506=
70133 11766 81517 10133 20094 30085 40093 51003 69981 761// 90553
333 10156 20128 555 90506=
70260 35966 00000 10111 20106 30077 40211 51004 90553 333 10172
20111 555 90506=
70261 32866 60000 10128 20078 30015 40186 53013 90553 333 10167
20078 555 90506=
70267 15766 82403 10100 20089 39733 40205 51022 60031 90553 333
10167 20094 555 90506=
70340 35966 00000 10100 20089 30147 40207 53004 90553 333 10167
20072 555 90506=
70200 12466 81914 10106 20083 30066 40072 53009 69901 90553 333
10122 20100 555 90506=
70219 12966 61711 10111 20083 30097 40154 54000 69931 90553 333
10139 20100 555 90506=
70174 32666 21503 10089 20056 39928 40171 53012 90553 333 10172
20089 555 90506=
70194 35966 00000 10106 20050 39997 40181 53009 90556 333 10183
20094 555 90506=
70271 15666 83105 10100 20083 39635 40212 53015 69931 90553 333
10178 20083 555 90506=
70273 32666 61603 10139 20089 30138 40198 53013 90553 333 10189
20128 555 90506=
70316 35466 81424 10122 20100 30117 40151 58000 90553 333 10156
20067 91030 555 90506=
70381 32666 60903 10106 20100 30203 40219 53007 90553 333 10161
20106 555 90506=
70232 35866 80000 10128 20083 30131 40163 53006 90556 333 10150
20094 555 90506=
70343 35966 00000 10128 20106 30196 40205 53006 90551 333 10150
20117 555 90506=
70361 37956 00000 10100 20089 30202 40214 53009 710// 90553 333
10156 20067 555 90506=
####018002482####
SMIQ01 KWBC 050600
AAXX 05061
40603 12960 01902 10314 20086 40052 52009 60002 333 20239=
40611 12960 00000 10294 20124 40068 53012 60002 333 20216=
40623 12960 00000 10285 20102 40051 52006 60002 333 20225=
40631 12960 00000 10366 20143 40037 52008 60002 333 20272=
40637 12960 02101 10347 20123 40020 54000 60002 333 20245=
40650 12960 03103 10333 20109 40042 52017 60002 333 20233=
40657 12960 00000 10310 20168 40031 52021 60002 333 20245=
40664 12960 03303 10366 20126 40016 50009 60002 333 20254=
40670 12960 10000 10366 20105 40027 50005 60002 80002 333 20289
810//=
40689 12960 03604 10362 20115 40017 52009 60002 333 20285=
40602 12960 00000 10280 20103 60004 333 20174=
40605 12960 01701 10308 20088 40045 5//// 60002 333 20242=
40606 12960 02302 10285 20122 40048 52001 60002 333 20229=
40607 12960 00702 10315 20015=
40608 11958 00000 10290 20108 40049 52008 60002 70600 333 20218=
40616 12960 02701 10348 20184 40037 53003 60002 333 20238=
40621 12960 03201 10355 20147 49964 52012 60002 333 20270=
40622 12960 00000 10330 20128 40006 53009 60002 333 20219=
40629 12960 02702 10296 20117 40079 54000 60002 333 20228=
40632 12960 01202 10346 20122 40034 53010 60002 333 20268=
40633 12960 00302 10345 20156 40090 53006 60002 333 20280=
40634 12960 03003 10310 20124 40040 52006 60002 333 20230=
40638 12960 03002 10316 20114 40032 5//// 60002 333 20245=
40642 12960 02702 10268 20065 40106 52006 60002 333 20220=
40645 12960 00000 10320 20167 40047 52008 60002 333 20272=
40646 12960 03603 10322 20149 40044 52/// 60002 333 20244=
40655 12560 13202 10344 20124 40040 52019 60002 81100 333 20235
81830=
40656 12960 03305 10312 20145 40043 52018 60002 333 20287=
40658 12960 03304 10315 20150 40049 5//// 60002 333 20255=
40660 12960 03102 10350 20134 40038 52012 60002 333 20250=
40662 12960 03301 10382 20120 40020 52/// 60002 333 20270=
40665 12960 02703 10398 20124 40030 52017 60002 333 20272=
40666 12960 03105 10350 20103 40031 52022 60002 333 20265=
40672 12960 00000 10338 20112 40043 52011 60002 333 20270=
40674 12960 63104 10354 20105 40039 52018 60002 86030 333 20284
86360=
40675 12960 02703 10348 20131 40019 52014 60002 333 20296=
40676 12960 02002 10362 20103 40035 52014 60002 333 20275=
40680 12960 03402 10378 20106 40012 52019 60002 333 20290=
40690 12960 02706 10373 20099 40019 52011 60002 333 20244=
40691 12960 03003 10378 20101 40038 52012 60002 333 10274=
####018000816####
SMAY01 KWBC 050600
AAXX 05061
37792 32998 02903 10171 20104 38238 48499 53002 60052 333 0 20110
70050=
37609 12698 30000 10121 20071 38000 48490 52006 60032 83300 333
95039 555 20060 70034=
37699 12998 31601 10156 20090 38100 48487 54000 60092 83040 333
20100 70091=
37704 11698 51002 10151 20139 38630 48510 58001 60072 70198 85200
333 20125 70069=
37785 12999 11502 10245 20189 38903 48492 52005 69912 81050 333
20155 70001=
37787 32999 00000 10248 20121 39158 40097 52021 333 20150 70000=
37801 12598 32001 10152 20100 38048 48487 53002 60052 84200 333
20080 70054=
37871 32998 00000 10224 20113 39193 40107 52020 333 20144 70000=
37897 42598 70902 10166 20104 38431 48509 52001 87500 333 20114
7000/=
37959 32997 80000 10194 20168 39360 40150 52003 8805/ 333 20160
70000=
####018001024####
SMAA04 KWBC 050600
AAXX 05064
88963 32460 50203 11034 21045 39944 49974 56007 82606 333 56607
82712 85270 92406 92730 92820 94070 95000=
89034 31970 01416 11134 21150 39522 49851 57017 70230 333 90120
92830 96436=
89053 32362 83219 11007 21025 30018 40032 56005 8467/ 333 56679
82707 84710 88360 92427 92739 92851 94070 95030=
89066 11350 83218 11020 21026 30036 40045 56001 60011 71072 8667/
333 56119 86708 88550 92406 92733 92840=
89564 41920 71433 11170 21239 39727 49747 50006 73732 86078=
89571 41780 72105 11220 21298 39740 49770 58016 70322 87500=
89611 41580 10504 11204 21254 39755 49809 53008 70100 81105=
88968 11360 53209 11084 21092 39969 49984 57042 69901 72272 82676
333 56755 82707 83360 85270 90125 90322 92416 92732 92800 95092=
89055 32965 42020 10034 21055 39713 49956 57012 80006 333 56000
84270 92739 92840 95100=
88900 46/// /2016 11041 21062 30017 40020 57004=
89002 42499 61111 11304 21340 39746 49808 57001 83520=
89003 46/// /1213 11244 21272 38947 49809=
####018000565####
SMBJ04 KWBC 050600
AAXX 05064
65306 12958 70000 10225 20219 39795 40130 60384 85072 333 02198
20210 50124 55054 59017 85363 83076=
65319 12960 71204 10214 20205 39637 40114 60134 86032 333 02056
20208 50114 55034 59019 86361 83076=
65330 31330 82206 10235 20225 39683 40125 71022 885// 333 02100
20220 50154 55073 59009 88608=
65335 12358 81802 10238 20222 39902 40132 69904 885// 333 02359
20230 50084 55017 59004 88608=
65344 12360 82412 10259 20234 30124 40135 60044 8787/ 333 02469
20250 50434 55084 59002 85610 83813 87360 94919 95834=
####018003644####
SMAU04 KWBC 050600 RRA
AAXX 05064
94750 46/// /0508 10181 20110 30007 40132=
94767 46/// /1111 10196 20116 30128 40134=
94802 46/// /1202 10125 20029 30174 40259=
94804 46/// /3029 10142 2//// 30060 40098=
94807 46/// /2918 10126 20055=
94821 46/// /3015 10144 20086 30005 40088=
94850 46/// /0719 10127 20086 30056 40099=
94865 46/// /0210 10186 20083 30071 40096=
94866 46/// /0114 10166 20091 39961 40103=
94875 46/// /0708 10168 20113 39972 40109=
95317 46/// /3105 10321 20002 39903 40111=
95610 46/// /1007 10126 20010=
95625 46/// /0908 10147 20019 39985 40245=
95632 46/// /1603 10129 20036 30036 40252=
95636 46/// /1310 10135 21005 39879 40244=
95639 46/// /1712 10119 20015=
94120 46/// /3608 10287 20167 30071 40111=
94203 46/// /2812 10271 20183 30119 40129=
94204 46/// /2808 10343 20040 30015 40104=
94217 46/// /0307 10352 20089 39916 40101=
94255 46/// /2906 10338 20005 39855 40119=
94312 46/// /3316 10272 20171 30113 40121=
94327 46/// /3309 10349 21103 39733 40110=
94332 46/// /0308 10325 20006 39731 40119=
94344 46/// /3003 10345 21045 39909 40116=
94363 46/// /3405 10328 21057 39909 40128=
94367 46/// /3607 10284 20026 30113 40148=
94388 46/// /3611 10244 20188 30138 40143=
94403 46/// /1008 10194 20040 30171 40207=
94429 46/// /1111 10186 21023 39719 40193=
94457 46/// /1912 10248 20029 39624 40149=
94461 46/// /2609 10300 21089 39440 40115=
94462 46/// /3313 10332 21072 39538 40097=
94608 46/// /1305 10157 20022 30213 40244=
94612 46/// /0911 10149 20018 30189 40245=
94628 46/// /1106 10130 20007 39857 40240=
94893 46/// /0415 10115 20072 30005 40122=
94907 46/// ///// 10141 20099=
94910 46/// /1010 10204 20056 39862 40116=
94926 46/// /2411 10196 20029 39459 40135=
94935 46/// /0807 10147 20084 30110 40137=
94951 46/// /2405 10123 20052 30122 40137=
94954 46/// /0819 10109 20040 30001 40112=
94956 46/// /1707 10120 20065 30089 40116=
94975 46/// /1711 10117 20033 30104 40137=
94983 46/// /0707 10131 20053 30117 40142=
94995 46/// /2510 10187 20136 30129 40137=
94996 46/// /2418 10167 20118 39961 40098=
94998 46/// /2616 10024 21019 39984 49994=
95111 46/// /3210 10288 20186 30081 40114=
95205 46/// /2907 10328 20069 30108 40116=
95214 46/// /2707 10348 20106 30099 40104=
95322 46/// /3010 10355 21008 39713 40094=
95448 46/// /1110 10195 21028 39606 40178=
95458 46/// /2214 10251 20025 39854 40117=
95480 46/// /2214 10309 21018 30025 40084=
95481 46/// /3215 10348 21103 30042 40087=
95482 46/// /3114 10359 21072 30043 40098=
95485 46/// /3113 10336 21221 39887 40093=
95492 46/// /3210 10334 21113 39951 40104=
95527 46/// /3013 10320 21100 39861 40116=
95607 46/// /2009 10142 20066 30241 40249=
95634 46/// /1205 10153 21022 39817 40229=
95637 46/// /1407 10131 20018 39903 40245=
95646 46/// /2418 10160 21007 39996 40185=
95666 46/// /1314 10206 20015 30090 40107=
95719 46/// /2712 10296 21066 39774 40109=
95762 46/// /2813 10294 21082 39657 40119=
95832 46/// /2711 10162 20098=
95839 46/// /0314 10187 20113 39927 40088=
95909 46/// /2909 10026 20022 38006 40159=
95954 46/// /0718 10106 20069 30004 40109=
95966 46/// /3002 10139 21005 39923 40126=
94210 46/// /2708 10255 30121 40127=
94289 46/// /2208 10248 30141 40148=
94307 46/// /2611 10247 20133 30089 40123=
94379 46/// ///// 10229 30143 40153=
94934 46/// /0505 10163 20110 30115 40139=
94974 46/// /1811 10114 20065 30088 40112=
95283 46/// /0708 10267 20131 30147 40154=
95288 46/// /1807 1//// 30133 40148=
95961 46/// /1410 10116 20063 30085 40127=
####018000263####
SIEG04 KWBC 050300 RRA
AAXX 05034
62387 32960 02902 10226 20154 40079 57001=
62420 32960 00000 10220 20120 40091 57003=
62452 32960 02204 10172 20125 40106 52002=
62458 32960 03209 10272 20182 40073 52001=
62459 32960 03220 10276 20226 40055 52004=
####018000325####
SMCE04 KWBC 050600
AAXX 05064
64650 12357 70000 10222 20212 39722 40135 69914 84530 333 02119
20215 55001 58004 84606 86365=
64600 12260 80000 10208 20199 39482 40131 60064 8667/ 333 02069
20196 55027 59006 86705 88364=
64601 11965 83608 10192 20184 39015 48522 60244 70262 8807/ 333
0//65 20180 58001 88364=
####018001915####
SMCZ01 KWBC 050600
AAXX 05061
11414 02983 62703 10129 20077 39449 42787 53009 60002 86050 333
20075 30003 60005 70000 86360 555 371// 50163 60160 70170 80168=
11438 01984 62802 10159 20102 39764 40143 53011 60002 703// 86070
333 20126 30010 50384 60005 70000 84360 85364 555 369// 50178
60187 70198 80198 90188=
11509 01984 29901 10137 20110 39958 40149 53011 60002 703// 82070
333 20084 37005 50374 60005 70000 82359 555 384// 50173 60178
70192 80198 90187=
11643 01881 11801 10102 20083 39208 42783 52002 60002 702// 81030
333 20071 31005 50272 60005 70000 81356 555 388// 50139 60152
70162=
11693 01981 09902 10138 20102 39681 40151 52004 60002 702// 333
20092 30006 50422 60005 70000 555 379// 50154 60162 70173 80181
90175=
11698 01982 13403 10117 20091 39754 40155 52004 60002 702// 80002
333 20093 30008 50364 60005 70000 81073 555 384// 50166 60179
70194 80200 90199=
11710 01987 09901 10140 20102 39550 40147 52003 60002 702// 333
20111 31006 50394 60005 70000 555 378// 50164 60167 70179 80185=
11730 01989 02306 10098 20064 38670 48494 52003 60002 702// 333
20086 31008 60005 70000 91113 555 380//=
11450 01987 29901 10123 20095 39715 40151 52007 60002 700// 82030
333 20093 30005 50324 60005 70000 82359 555 12303 383// 50175
60182 70190 80196=
11502 01589 60203 10153 20104 39703 40144 53009 60002 703// 81551
333 20132 30007 50354 60005 70000 81624 86357 555 372// 50162
60174 70181 80183 90174=
11538 01986 12501 10139 20101 39561 40151 52006 60002 702// 81081
333 20110 31008 60005 70000 81358 555 378// 50164 60174 70186
80190=
11628 01781 39901 10126 20091 39529 40149 52005 60002 702// 82101
333 20108 30006 50344 60005 70000 82856 555 379// 50163 60172
70179 80184 90175=
11683 01983 11902 10137 20082 39297 42784 52004 60002 702// 80001
333 20111 31008 50364 60005 70000 81072 555 1//02 369// 50160
60160 70172 80176=
####018000133####
SMCD04 KWBC 050600
AAXX 05064
64750 12960 72204 10230 20218 39712 40121 69944 85072 333 0//59
20225 50391 59010 85365 86075=
####018000423####
SMEO01 KWBC 050600
AAXX 05061
26242 01/81 71802 10129 20109 30052 40136 57003 60002 70212 80009
333 10142 20091 60007 80/// 555 11016 20091 31007 50144 52005=
26038 01/81 41804 10150 20128 30063 40102 57012 60002 70200 80009
333 10150 20107 60007 80/// 91008 91108 555 11015 20107 31009
50146 52009=
26029 27/81 /1604 10158 20133 30067 40094 57014 70000 333 10166
20117 60007 91009 91109 555 20117 50154=
####018000385####
SMBZ04 KWBC 050600
AAXX 05064
82599 32570 31605 10225 20204 30098 40158 83200 333 58000 60001=
82824 21558 32003 10254 20224 30023 40124 72196 84200 333 58007
60011=
82899 21458 81603 10222 20212 30156 4//// 71586 85130 333 60021=
83248 32470 31206 10246 20225 30160 40182 83200 333 58004 60001=
83746 31358 82705 10204 20184 30214 40225 57005 71022 885// 333
60001=
####018000079####
SMPS04 KWBC 050600
AAXX 05064
96995 46/// /1012 10256 20190 39839 40136=
####018000757####
SMHV04 KWBC 050600
AAXX 05064
65505 32965 72204 10226 20225 39780 40118 82032 333 02400 20225
50404 55072 59007 82363 86076=
65502 12960 82202 10235 20217 39727 40105 60164 8807/ 333 01559
20234 50671 55087 59013 88363=
65510 12460 70000 10220 20220 39602 40117 60594 81532 333 01759
20217 5///1 55054 59008 81616 86363=
65522 12565 70000 10230 20223 39795 40127 60024 81572 333 02259
20227 50351 55067 59006 81620 83363 85076=
65501 32960 72602 10260 20231 39801 40110 81032 333 02500 20258
50611 55077 59004 81360 87076=
65516 12460 70000 10235 20228 39811 40117 60034 81672 333 02359
20230 50334 55056 59010 81713 87363=
65518 12960 72202 10227 20220 39746 40108 60014 84032 333 02159
20226 50241 55057 59005 84363 84076=
####018000121####
SMGY02 KWBC 050600
AAXX 05060
81002 11460 32302 10235 20232 40128 60001 70511 81202 333 31///
58012 81817 83080=
####018000567####
SMGG01 KWBC 050600
AAXX 05061
37621 32598 80000 10191 20129 39545 40156 52017 69900 70382 88500
333 20177=
37395 32999 60904 10230 20164 39974 40105 53001 86030 333 20190=
37514 12699 30000 10190 20126 39019 40110 52011 69990 83500 333
20133 95040=
37545 32599 81804 10211 20159 39651 40145 52007 883// 555 20173
7000/=
37409 32598 50912 10156 20132 38752 48486 53004 83540 333 20130
95032=
37279 36/// /2002 10246 20185 39970 40157 51008 60002 333 20174=
37308 36/// /1006 10229 20126 39500 4//// 5//// 6///2 333 2////
4/001 91006 91106=
####018002298####
SMCN04 KWBC 050600
AAXX 05064
71912 12974 02104 10021 21003 30013 40195 52010 60001 333 10126=
71387 16/// /3002 10081 39752 40118 53016 60001 333 10165 20064
70272 555 33220 4021/=
71404 46/// ///// 10128 20123 39819 40082 58020 6///1 333 10153
20096 7////=
71472 16/// /1004 10144 20120 30190 40207 51004 60001 333 10152
20128 70002 555 33221 4010/=
71476 16/// ///// 10130 20119 30199 40211 52005 60001 333 10164
20130 70000=
71484 16/// /0109 10124 20115 30190 40208 50000 60001 333 10145
20122 70010=
71553 17/// /0712 10134 20132 39486 40122 58007 60031 7//4/ 333
10226 20081 70030 555 30829 4001/=
71742 16/// /1814 10176 20161 39953 40133 57027 60001 333 7////
555 31819 4006/=
71829 17/// /3010 10093 20059 39913 40071 53038 60031 7//4/ 333
10149 20072 70375 555 32726 4003/=
71839 46/// ///// 10127 6///1 333 7////=
71874 16/// /0000 10011 21011 30162 40168 52005 60001 333 10095
21025 70002=
71977 17/// /2601 10070 20068 39479 40172 52010 60061 7//4/ 333
10137 20048 70061=
71164 46/// /1303 10104 20086 30079 40158 51007 6///1 333 10143
20030 7////=
71196 16/// /0000 10048 20045 39994 40191 53003 60001 333 10174
20044 70005 555 33024 4018/=
71015 46/// ///// 10175 6///1 333 7////=
71016 46/// ///// 10109 6///1 333 7////=
71018 16/// /3405 10001 21014 30057 40143 53007 60001 333 10048
21001 70000 555 30318 4013/=
71047 17/// ///// 10113 20109 69981 7//4/ 333 10237 20100 70008=
71141 16/// /3213 11009 21013 30137 40163 53009 60001 333 10008
21010 70000 555 33217 4005/=
71237 16/// /3401 10136 20119 60001 333 10267 20094 70000 555
32721 40210=
71334 46/// /3501 10007 20000 39871 6///1 333 7////=
71346 16/// /2105 10123 20068 60001 333 10286 20114 70008 555
32825 40211=
71491 16/// /0000 30041 51008 69931 333 7////=
71492 16/// /0904 10046 20021 39479 40156 53006 60001 333 10100
21003 70000=
71501 16/// /1402 10071 20063 30138 40141 51014 60001 333 10103
20039 70000 555 32418 4022/=
71507 16/// /2104 10109 20106 69961 333 10191 20100 70054 555
33320 40220=
71578 16/// /2608 60001 333 70517 555 32628 40201=
71837 46/// ///// 10161 6///1 333 7////=
71885 46/// ///// 10114 6///1 333 7////=
71978 46/// /2302 10104 20085 39849 40152 53012 6///1 333 10146
20077 7////=
####018000238####
SMGO04 KWBC 050600
AAXX 05064
64501 11360 51808 10250 20229 30138 40147 69964 70155 85500 333
0//54 20245 50254 55032 59011 83608 85630=
64570 32660 81804 10220 20205 39654 40153 885// 333 0//00 20215
50224 55053 58005 88633=
####018001567####
SMAF04 KWBC 050600
AAXX 05064
62002 32960 40000 10233 20163 39438 48537 53005 84537 333 20220
50924 55/// 84360=
62007 32960 52603 10250 20201 30131 40135 53005 85030 333 20234
5//// 55/// 85360=
62008 32960 41008 10224 20113 39353 48525 51004 84200 333 20224
50814 55/// 84820=
62011 32560 50000 10204 20129 39321 48/// 5//// 85500 333 20189
5//// 55/// 85630=
62012 32560 22508 10240 20199 30098 40127 52002 82100 333 20233
5//// 55/// 82825=
62014 32560 30000 10230 20199 3//// 4//// 5//// 83200 333 20210
5//// 55/// 83825=
62016 32558 22606 10238 20210 30086 40121 56003 82500 333 2////
50714 55107 82625=
62019 12560 23310 10250 20220 3//// 4//// 5//// 60034 82200 333
20245 50384 55/// 82825=
62053 31558 30000 10250 20213 39960 40115 52008 71000 83500 333
20235 50524 55107 83620=
62054 32560 43608 10235 20205 39832 4//// 5//// 84200 333 20175
50624 55/// 84630=
62062 32960 00000 10252 20203 40088 52002 333 20225 50334 55108=
62103 32970 02108 10250 20070 39726 4//// 5//// 333 20245 5////
55117=
62120 32970 01306 10224 20184 39550 48/// 5//// 333 20160 50994
55///=
62131 32970 00000 10220 20166 39839 40140 5//// 333 20210 50864
55115=
62161 32970 03005 10255 20210 30049 53010 333 20240 51104 55///=
62176 32970 00610 10260 20163 30091 40090 51010 333 20240 51504
55///=
62259 32970 03608 10275 20190 40118 58001 333 2//// 51904 55///=
62271 32970 00000 10312 20065 39652 40130 5//// 333 20266 5////
55///=
62200 32960 00000 10242 20137 3//// 4//// 5//// 333 20234 51304
55114=
####018000143####
SMPF04 KWBC 050600
AAXX 05064
91948 06/// /0105 10212 20202 30040 40143 50008 60001 333 55026
60007 90710 91110 555 60005 10210 59044=
####018002929####
SMDN04 KWBC 050600
AAXX 05064
06011 05/84 01502 10045 20026 30072 40142 57009 6///2 333 10100
20044 55300 20014 6///7 70000=
06060 07680 51904 10110 20104 39996 40060 52000 60032 72388 333
10149 20090 3/007 60037 70246 83/45 85/56=
06070 05/74 /2303 10121 20117 30035 40064 54000 60102 333 10162
20104 3/010 6///7 70153=
06180 05/84 02411 10145 20120 30077 40083 52005 60022 333 10182
20131 3/012 6///7 70027 91125=
06136 06/// /2213 10150 20119 60052 333 10164 20132 3/012 55306
20274 6///7 70060=
06124 47/60 /2309 10125 20110 30076 40084 52002 78386 333 10159
20123=
06149 06/// /2319 10157 20126 30090 40096 52004 69952 333 10192
20153 55308 20360 6///7 70006=
06151 46/// /2121 10155 20137 30077 40080 54000 333 10167 20145=
06159 07/58 /2122 10145 20128 30047 40066 57002 60072 71081 333
10163 20141 6///7 70083=
06123 47/80 /2317 10146 20126 30070 40074 57004 72286 333 10170
20136 55300 20119=
06138 06/// /2321 10149 20118 30083 40088 54000 69992 333 10171
20143 6///7 70012=
06156 07672 11605 10130 20115 30057 40073 52002 60052 70080 333
10158 20110 3/010 55310 20328 6///7 70048 81/37=
06183 47/84 /2619 10153 20112 30062 40079 52008 70080 333 10187
20149=
06141 05678 12213 10149 20117 30077 40088 54000 60012 333 10166
20122 3/011 55309 20378 6///7 70012 81/45=
06147 05/71 /2314 10148 20131 30087 40093 52004 69942 333 10183
20136 6///7 70004=
06168 46/// /2104 10134 20125 30019 40071 52005 333 10154 20121
91117=
06169 05/80 /2317 10154 20109 30046 40065 52002 60092 333 10165
20148 6///7 70100=
06174 05/77 /2004 10133 20116 30057 40082 52005 60012 333 10170
20117 3/011 55310 20446 6///7 70014 91123=
06181 46/// /2405 10129 20121 30028 40079 52007 333 10177 20118=
06019 06/// /2307 10107 20091 60022 333 10143 20102 3/008 55302
20148 60017 70197=
06031 06/// /1907 10107 20098 60022 333 10153 20094 3/010 55303
20097 69967 70137=
06041 07761 72511 10113 20100 30029 40035 52004 60092 78186 333
10159 20107 55301 20122 60057 70151 83/50 87/58=
06052 07674 12618 10145 20082 30045 40049 54000 60012 70086 333
10163 20127 69907 70114 81/35 91123=
06058 07/78 03009 10141 20094 30058 40063 52005 69912 70086 333
10163 20132 55301 20137 69917 70235=
06074 05574 42306 10116 20104 39997 40063 54000 60042 333 10156
20100 6///7 70082 81/28 84/38=
06081 46/// /3116 10138 20097 30047 40068 52006 333 10160 20131
91131=
06096 47574 72010 10129 20109 30060 40070 52001 70086 333 10162
20117 55300 20043 83/20 85/27 87/36 91130 91223=
06108 46/// /2009 10120 20110 30016 40070 57005 333 10160 20103=
06119 07480 72014 10132 20116 30058 40081 57003 60042 72286 333
10162 20125 69977 70052 83/14 85/20 87/25=
06049 47571 52207 10103 20100 39951 40058 52003 70010 333 10149
20086 81/30 83/36 85/43=
06079 05980 32915 10150 20109 30050 40055 52005 60162 333 10169
20145 55310 20382 6///7 70194 83/66=
####018000358####
SMIL04 KWBC 050600
AAXX 05064
04013 41265 80708 10095 20084 40047 57032 76162 82670 555 3//09=
04048 26/// /1213 10090 20081 333 10091 20090 60027=
04063 41410 82800 10048 20046 40089 57027 74042 886// 555 3//03=
04064 26/// /0510 10070 20061 40094 57023 333 10070 20070 69967=
04077 26/// /1602 10014 20009 400100 57021 333 10016 20011 69907=
####018001921####
SMIN04 KWBC 050600
AAXX 05064
43063 21597 82701 10264 20228 39418 40029 76052 87720 333 56690
59009 6991/ 82722 85626=
42883 21596 60000 10294 20269 40086 70262 84430 333 59002 6993/=
42921 21496 82905 10260 20229 40030 75042 8462/ 333 59004 6992/
82712 83618 88458=
43017 32597 52302 10290 20238 40018 83430 333 59010=
43198 21396 82712 10230 20221 39237 40055 75065 8477/ 333 56699
59002 6995/ 84707 84612 86458=
42886 31496 70000 10310 20260 49985 70522 85330 333 57981 59004
84618 81930 86360=
42895 31496 70000 10306 20273 49980 70262 85430 333 59009 84618
86360=
42973 32596 60502 10316 20275 49982 83531 333 59009=
43049 21494 82702 10258 20249 49994 76196 8452/ 333 59002 6024/
84617 88458=
43109 21494 82303 10256 20247 40072 76362 8677/ 222// 20000 333
58000 6031/=
43157 21496 82704 10242 20222 39419 40046 75065 8667/ 333 59007
6996/=
42587 31996 20902 10320 20258 49995 70500 83030 333 59003 83360=
42701 31495 70904 10272 20238 39289 49991 70522 85430 333 59006
84615 83825 85360=
42798 31596 60906 10310 20254 49981 70522 85430 333 59006 84620
83825 86360=
42891 32596 83201 10278 20253 49994 8572/ 333 58000=
42971 31496 70502 10296 20274 49977 70522 85330 333 57951 59009
85618 81930 86360=
42976 31596 51102 10208 20269 49987 70562 83431 333 59004=
43110 21495 82908 10248 20239 40025 76266 8772/ 333 59002 6007/
87712 88456=
43117 32597 72304 10286 20201 40026 85520 333 59007=
43149 21496 82508 10264 20250 30006 40009 76066 8272/ 333 5659/
59003 6007/ 82710 83612 88458=
43185 31597 72704 10312 20243 30026 40029 70252 83530 333 58005
83620 86360=
43226 21397 82702 10272 20249 30053 40082 70252 8662/ 333 58005
6994/=
43257 22494 72702 10230 20230 39355 40081 8//// 333 58005 6024/=
43303 32597 62705 10314 20217 39817 40052 82872 333 58005=
43377 21497 72905 10270 20256 30057 40098 76062 8572/ 333 58000
6003/=
####018000574####
SMIR01 KWBC 050600
AAXX 05061
40716 12665 10605 10232 20145 38892 40080 51006 60001 81100 333
30011 50781 70000 555 10178 29058=
40721 12960 03102 10260 20110 39627 40144 52006 60001 333 30017
50791 70000 555 10173 29039=
40872 11957 01601 10362 20293 30003 40007 52011 60001 70500 222//
00344 20301 333 30030 5///1 70000 555 10310 29068=
40877 12960 02204 10370 20139 39470 49971 52011 60001 333 30027
51411 70000 555 10224 29025=
40872 11957 01601 10362 20293 30003 40007 52011 60001 70500 222//
00344 20301 333 30030 5///1 7000 0 555 10310 29068=
####018000190####
SMAL04 KWBC 050600
AAXX 05064
60566 12960 20000 10246 20120 40114 53007 60014 82030 333 02028
20229 82360=
60481 12960 00804 10174 20154 40167 57002 60004 333 01500 20170
95900=
####018000267####
SMCI01 KWBC 050600 RRA
AAXX 05061
59117 32580 60201 10326 20229 39896 40028 57024 86/// 333 20251=
59287 11980 70203 10306 20251 39944 40025 57026 60011 70060 87///
333 20252=
59316 11580 71103 10301 20242 30027 40031 57024 69961 70060 87///
333 20258=
####018000133####
SMHV03 KWBC 050600
AAXX 05063
65507 12960 72404 10235 20223 39767 40114 60044 8707/ 333 02159
20235 50251 55012 59008 87363=
####018003277####
SIPK04 KWBC 050300
AAXX 05034
41506 22697 30000 10220 20175 38447 48444 82520 333 20192 56990
59006 60007 70000 82640 82460=
41508 22697 30000 10211 20179 48480 83200 333 20180 56900 58006
60007 70030 83835=
41515 22697 20000 10202 20114 38498 48462 82500 333 20168 56900
58004 60007 70000 82650=
41523 22697 50000 10240 20195 39026 48468 82530 333 20230 56990
58010 60007 70000 82640 83360=
41529 21996 33102 10300 20258 39652 40010 70500 83030 333 20280
56090 59001 60007 70000 83360=
41535 22997 00000 10245 20201 48436 333 20205 58007 60007 70000=
41536 22597 20000 10240 20211 38967 48460 82100 333 20222 56900
58009 60007 70000 82830=
41560 22697 30503 10200 20136 38212 48428 82430 333 20170 59008
60007 70000=
41571 21695 31310 10300 20259 39470 40021 70511 82430 333 20275
56990 58010 60007 70000=
41573 22696 40000 10215 20186 37951 48450 84600 333 20162 58009
60007 70000=
41598 21696 51302 10290 20232 39765 40024 70422 82520 333 20275
56990 58022 60007 82640 83460=
41600 22696 60000 10290 20255 39704 49985 83570 333 20280 59026
60007 70000=
41620 32997 00000 10275 20185 38527 48433 333 20245 58001 60007
70000=
41624 22997 00000 10305 20256 39805 49994 333 20270 58000 60007
70000=
41630 21995 21304 10310 20276 40015 71000 82030 333 20290 56090
58008 60007 70000 82360=
41640 21996 20502 10280 20237 39782 40022 70400 82030 333 20270
58013 60007 70000 82360=
41675 21996 31808 10325 20255 39859 40001 70400 80001 333 20315
56009 59002 60007 70000 83070=
41678 22996 00000 10320 20258 49990 333 20295 59018 60007 70000=
41685 32997 00000 10305 20168 38831 48438 333 20265 58003 70000=
41696 22997 00000 10160 20019 37995 48500 333 20130 58005 60007
70000=
41697 22997 00000 10333 20259 39843 49990 333 20310 58003 60007
70000=
41700 21995 40000 10335 20274 39866 49986 70400 81031 333 20308
56099 59003 60007 70000 81360 83070=
41710 22997 03102 10290 21022 39250 49981 333 20265 59012 60007
70000=
41712 22996 00000 10275 20068 39102 48445 333 20195 58006 60007
70000=
41715 21996 00000 10315 20254 39935 49997 70500 333 20300 59001
60007 70000=
41718 21996 00000 10310 20269 39891 49989 70400 333 20293 59007
60007 70000=
41725 21996 00000 10330 20261 39921 49995 70500 333 20/// 59003
60007 70000=
41739 22996 00000 10285 20110 38955 48438 333 20250 59008 60007
70000=
41744 22996 30000 10245 20059 38721 48454 83030 333 20210 56090
59002 60007 70000 83360=
41746 22996 20000 10305 20256 39946 49998 80001 333 20280 56009
58001 60007 70000=
41749 21996 31306 10305 20256 39962 49994 70500 83030 333 20285
56090 58000 60007 70000 83360=
41756 21495 40000 10285 20264 39955 40018 70400 84600 333 20275
56900 58003 60007 70000 84715=
41759 21695 42302 10280 20259 30005 40010 71011 84500 333 20250
56900 58002 60007 70000 84640=
41764 22996 42108 10300 20251 39958 40006 84030 333 20260 56090
58003 60007 70000 84360 84360=
41768 22996 50000 10300 20280 39994 40001 84031 333 20285 56099
59009 60007 70000 84360 81070=
41780 21696 62308 10295 20267 39984 40011 70400 86500 333 20280
56990 59001 60007 70000 83630 85360=
41785 22997 42302 10300 20265 40006 49993 82031 333 20275 56099
59005 60007 70000 82360 82070=
####018002018####
SMFI01 KWBC 050600 RRA
AAXX 05061
02804 37/70 72202 10104 20085 700// 90600 333 10119 20091 3/007
555 60093 7880/ 0/202=
02831 36/// /2005 10159 20132 90600 333 10160 20062 3/004 555
7849/ 0/006=
02876 47/99 /1405 10095 20087 30065 40071 57005 70000 90600 333
10139 20087 3//// 555 794// 0/106=
02726 37999 11902 10059 20047 39598 40049 54000 700// 81/// 90600
333 10088 20004 3/103 555 7923/ 84750 0/603=
02701 46/// /1301 10034 20006 90600 333 10046 20011 3//// 555
782// 0/403=
02702 37970 0//// 10082 20059 700// 90600 333 10087 20039 3/001
555 7857/=
02704 36/// ///// 10132 20122 90600 333 10132 20076 3/005 555
7931/=
02706 36/// ///// 10145 20140 333 10148 20110 3//// 555 60142
797//=
02710 36/// ///// 10115 20104 90600 333 10136 20072 3/002 555
7933/=
02750 36/// ///// 10175 20152 90600 333 10175 20118 3/010 555
7867/=
02767 46/// ///// 10120 20119 90600 333 10125 20061 3/005 555
7996/=
02768 37283 7//// 10130 20122 700// 83/// 90600 333 10133 20088
3/005 555 7953/ 80170=
02770 37/70 7//// 10110 20098 39889 40075 57018 700// 90600 333
10113 20043 3/004 555 7927/=
02771 369// 7//// 10113 20113 80/// 90600 333 10130 20081 3/005
555 7006/=
02797 46/// ///// 10091 20089 90600 333 10134 20062 3//// 555
799//=
02811 16/// ///// 10114 20106 60012 90600 333 10145 20106 3/008
555 79541=
02812 36/// ///// 10081 20081 90600 333 10086 20033 3//// 555
700//=
02819 16/// ///// 10086 20075 60042 90600 333 10113 20065 3/006
555 79327=
02830 36/// ///// 10153 20137 90600 333 10153 20087 3//// 555
790//=
02832 36/// ///// 10135 20125 90600 333 10138 20109 3/007 555
7932/=
02946 36/// ///// 10116 20104 90600 333 10123 20079 3/004 555
7920/=
02756 36/// ///// 10156 20148 90600 333 10156 20071 3//// 555
795//=
02798 37299 7//// 10120 20107 70010 87/// 90600 333 10135 20088
3/006 555 7928/ 80180=
02829 37277 3//// 10134 20133 39989 40095 56010 700// 83/// 90600
333 10134 20068 3/003 555 60132 7996/ 80140=
####018000255####
SMJD04 KWBC 050600
AAXX 05064
40260 32960 02507 10232 20115 39326 40065 52007 333 20190 30017=
40265 31540 53206 10220 20173 39336 40096 52008 70522 85100 333
20166 30013 85825=
40310 32960 00000 10220 20064 38920 48488 54003 333 20155 30013=
####018001083####
SMNO01 KWBC 050600
AAXX 05061
01337 16/// /2002 10100 20091 39945 40010 53005 60022 333 20086
70202 91106=
01393 11360 83002 10072 20068 39180 49955 55002 60122 78086 8431/
333 20062 32/// 70146 91103=
01082 16/// ///// 10102 20071 39990 40056 51006 60002 333 20011
70000=
01340 16/// /2903 10054 20053 39153 40006 53002 6//// 333 20050
91106=
01169 16/// ///// 10056 20052 39973 40018 56011 60002 333 20027
70000=
01291 16/// /2201 10084 20083 60092 333 20082 70089 91103=
01370 16/// /3103 10033 20023 38913 49981 53004 60112 333 20025
70183 91108=
01397 16/// /1302 10097 20094 39536 49958 55001 60312 333 20082
70389 91105=
01495 16/// /2511 10142 2//// 39983 49995 52006 60022 333 20137
70208 91113=
01373 11415 70501 10074 20063 39786 49986 50005 60032 71162 856//
333 20071 31/// 70135 91103=
01447 16/// /3401 10034 20034 39350 40014 55001 60012 333 20028
70112 91103=
01448 46/// /2901 10111 20080 30014 40024 58005 333 20108 91108=
01317 11470 83306 10100 20077 39987 40030 52015 6//// 72582 888//
333 20090 32/// 91111=
####018000622####
SMMK01 KWBC 050600
AAXX 05061
13363 01662 82701 10147 20137 39262 48509 51002 60002 70211 885//
333 20137 31013 55005 60007=
13457 01970 00000 10206 20193 30107 40113 52001 60002 70211 80000
333 20158 30015 60007=
13459 01970 00501 10153 20134 39410 40149 56003 60002 70211 80000
333 20138 30009 55073 60007=
13461 01970 10902 10246 20165 30113 40120 52004 60002 70211 81030
333 20203 30020 55098 60007 81360=
13462 01970 03602 10232 20136 30084 40123 52005 60002 70211 80000
333 20206 30018 60007=
13463 01970 0//// 10227 20179 30076 40136 53006 60002 70211 80000
333 20211 30019 55095 60007=
####018000400####
SMLV01 KWBC 050600
AAXX 05061
26313 43/// /1705 10157 2//// 30092 40097 5//// 333 91007=
26544 43/// /1502 10158 20143 30044 40161 57002 333 91003=
26346 43/// /1802 10125 20103 39912 40393 5//// 333 91004=
26406 43/// /1604 10168 20126 30088 40098 5//// 333 91008=
26416 43/// /1803 10158 20113 39980 40113 57008 333 91006=
26424 43/// /1804 10153 20119 30073 40175 5//// 333 91006=
####018000130####
SNAA04 KWBC 050500
AAXX 05054
89577 46/// /0701 11701 35960 4//// 5////=
89659 46/// /3117 11430 29057 37485 4//// 5////=
####018000133####
SMZR03 KWBC 050600
AAXX 05063
64405 12315 81804 10202 20200 39540 40/// 60014 887// 333 0//69
20192 50174 55/// 59017 88707=
####018000121####
SMNV04 KWBC 050000
AAXX 05004
91568 31598 12615 10238 20148 40132 58003 70121 81100 333 20///
565// 58037 81825=
####018000127####
SMSN02 KWBC 050600
AAXX 05060
02616 12481 12610 10156 20110 30079 40085 52007 69942 81830 333
10186 20149 31/// 81819=
####018000152####
SMNL01 KWBC 050600
AAXX 05061
06209 46/// /3214 333 91018 91119 91216 555 51118 51215=
06285 46/// /3114 333 91017 91119 91215 555 51119 51215=
####018000604####
SMMA04 KWBC 050600
AAXX 05064
61974 11465 81306 10274 20254 40137 60024 71582 87842 333 0//13
20246 59011 83817 85650 94329=
61986 11465 71212 10267 20222 40178 69924 71522 87800 333 0//19
20231 59002 84816 85650 94323=
61988 11460 60916 10251 20210 40205 69924 71581 86800 333 0//15
20214 50422 58005 85816 91127=
61989 12480 30714 10251 20198 40210 60004 83800 333 20221 58005
82818=
61990 12475 40813 10258 20173 40213 60114 83842 333 01927 20198
50162 58008 83818 94322=
61995 12475 30911 10225 20161 39722 69914 81801 333 01617 20179
50412 58005 81818 83075 91122 94322=
####018000222####
SMUG03 KWBC 050600
AAXX 05063
63630 32580 32002 10230 20200 3//// 48/// 82940 333 20184 5////
82821 81923 555 10210=
63658 12470 53602 10230 20191 48538 60064 82230 333 20198 55048
59001 82819 85360 555 10204=
####018000243####
SMTH04 KWBC 050600
AAXX 05064
48353 32665 61503 10298 20251 39759 40042 57027 84235 333 58020
70027=
48563 32560 62403 10316 20248 30055 40090 57028 82246 333 58001=
48304 32565 70000 10320 20237 39590 40034 57026 83876 333 59007=
####018000447####
SMXT04 KWBC 050600
AAXX 05064
91190 12566 40512 10272 20217 30134 40153 51017 69901 90554 333
10328 20256 555 90506=
91285 32566 60000 10261 20222 30144 90613 555 90506=
91212 12466 23106 10272 20250 39990 40072 58009 60031 90554 333
10306 20261 555 90506=
91182 32566 40613 10283 20211 30144 40150 53016 90553 333 10333
20267 91020 555 90506=
91165 32466 40516 10283 20233 30125 40159 53012 90553 333 10322
20272 555 90506=
####018001616####
SMID04 KWBC 050600 RRB
AAXX 05064
97560 32460 52505 10303 20259 30064 40077 57019 83235 333 56000
57803 83818 84360 85279 80860=
97600 31458 61302 10312 20234 30099 40102 56022 71522 84931 333
56000 57901 57802 81917 83818 80980 80859=
97780 31357 62706 10238 20136 38233 40082 57018 70522 83842 333
56000 57802 83808 84360 80860=
97876 32357 71107 10287 20227 30076 40108 56017 85842 333 56000
57801 82809 83610 80860=
96033 32560 60608 10308 20245 30093 40099 57026 82576 333 56000
82620=
96163 32560 51813 10296 20247 30105 40111 56023 81231 333 56000
57803 81820 83362 80850=
96505 01457 50000 10287 20192 39054 40146 56035 69901 72162 83131
333 56000 69907 83815=
96509 32460 62705 10310 20259 30076 40084 57030 84211 333 56000
84815=
96529 31440 73509 10342 20238 30071 40087 56027 70444 85821 333
56000 83813=
96581 31450 61006 10336 20202 30083 40090 57032 70422 82131 333
56000 82813=
96685 31556 32004 10342 20196 30067 40088 57029 70444 81511 333
56000 81620 83462=
96745 32557 61709 10314 20226 30108 40113 57029 83521 333 56000
83620 85460=
96805 32459 11307 10278 20209 30122 40130 57024 81201 333 56200
57823 81818 80858=
96933 32962 31208 10328 20178 30104 40109 56025 80001 333 56000
83080=
97320 32464 23307 10289 20224 30104 40117 58020 82201 333 56000
57802 82819 80850=
97700 32462 21312 10306 20211 30065 40080 57023 82200 333 56000
57804 82817 80850=
97796 32460 61610 10308 20244 30058 40106 56020 85132 333 56000
85817 84362=
97810 32460 71207 10282 20229 30071 40104 57015 84232 333 56200
57821 84819 84360 80850=
####018000832####
SMOM04 KWBC 050600
AAXX 05064
41244 36/// /1708 10387 20158 39596 49983 333 0E036 20311 59003=
41252 31558 51704 10368 20169 39652 49997 70500 85830 333 20321
3/051 59007 82625 84360=
41253 36/// /3405 10373 20156 39655 49993 333 0E033 20305 55300
20794 59003=
41256 31558 19904 10313 20291 39994 40011 70500 81500 333 20294
58001 55407 55408 55507 55508 81730=
41316 01456 89907 10272 20251 30027 40058 69921 70552 886// 333
20256 58009 55407 55408 55507 55508 70002 82710 85714 88620=
41242 36/// /0104 10355 20273 310000 40024 333 0E030 20298 55300
25022 59003=
41255 36/// /1702 10355 20171 39510 49989 333 0E036 20296 59006=
41265 31958 50802 10367 20153 39447 49992 70511 83031 333 20294
59006 83360 85070=
41268 32960 32509 10346 20237 39956 49971 80001 90616 333 20294
3/030 5//// 83070=
####018002194####
SMTS04 KWBC 050600
AAXX 05064
60710 12560 42205 10216 20216 30062 40141 53004 60004 84200 333
20210 84820=
60720 13560 52104 10234 20224 30088 40121 53003 69924 72162 85800
333 20227 70002 83820 83630=
60725 12560 22206 10202 20178 39980 40146 53006 60004 82200 333
20187 82820=
60729 06/// /2306 10215 20203 39969 40149 53004 60004 333 10255
20194 3/141 59029 60007 70000 91011 91112=
60735 12558 22302 10230 20172 30057 40136 53004 60004 82200 333
20218 82823=
60739 13760 10632 10182 20179 39359 40154 53006 60004 81500 333
20174 60007 70000 81650 91000 91100=
60742 13960 02806 10240 20180 30135 40137 51002 60004 333 20231
70000=
60748 06/// ///// 10212 20204 39746 40149 53007 60004 333 10278
20200 3/024 59024 60007 70000 91000 91100=
60760 12960 00711 10255 20196 30028 40127 53009 60004 333 10335
20251 3/025 59025 5///4 60007 70000 91014 91124=
60769 12560 50108 10260 20187 30122 40132 53006 60004 85800 333
20241 82820 84626=
60714 12460 53505 10237 20192 30123 40129 53004 60004 85900 333
20214 84816 81923=
60715 12560 52207 10229 20189 30119 40128 53001 60004 83800 333
20226 83826 83640=
60723 13970 10000 10199 20182 39965 40148 53004 60004 81200 333
20190 81826=
60728 06/// /2908 10228 20198 30036 40126 53002 60004 333 10251
20219 59024 60007 70000 91013 91121=
60731 05960 /2806 10220 20169 30125 40132 53005 60004 333 10262
20212 3//// 59030 5///4 60007 70000 91008 91117=
60732 13560 42102 10176 20170 39567 40159 53007 60004 84200 333
20162 84823=
60740 12560 22608 10228 20190 30125 40134 55000 60004 81280 333
20223 81820=
60745 05960 30706 10216 20178 39783 40140 53008 60004 333 10290
20210 3/026 59024 5///4 60007 70000 91008 91113=
60750 32560 33304 10238 20187 30101 40125 52006 60004 83800 333
20226 82820=
60764 13962 00410 10244 20213 30083 40132 53012 60004 333 20236=
60770 13975 00000 10229 20174 30002 40136 53009 60004 333 20226=
60772 13960 00000 10231 20151 39888 40134 53008 60004 333 20///=
60775 13565 20704 10233 20166 39791 40131 53008 60004 82200 333
20226 55092 82823 91006 91109=
60780 12660 41007 10246 20176 39825 40118 51007 60004 333 20239
84833=
####018000208####
SMOS01 KWBC 050600
AAXX 05061
11036 15981 03603 10132 20105 39938 40155 53007 60005 80000 333
20111 30008=
11021 12960 00601 10099 20085 39510 40164 52002 60002 80000 333
10184 20071 3/005 55300=
####018000836####
SMPR04 KWBC 050600
AAXX 05064
84782 21105 82003 10133 20128 39671 40172 74054 886// 333 56900
58027 69941 88702=
84377 24360 72506 10242 20232 30039 40184 70200 876// 333 56000
58032 69931 87707=
84401 31960 01703 10175 20140 30108 40152 70200 333 59004=
84452 34960 81809 10173 20141 30115 40150 70220 8804/ 333 56049
58007 88465=
84501 31458 61408 10168 20148 30123 40151 71022 866// 333 56400
58010 86720=
84515 31460 80203 10224 20210 39980 40161 70222 8352/ 333 5699/
58039 83620 85458=
84628 34460 81806 10156 20142 30139 40155 70222 886// 333 56400
58017 88712=
84686 31660 80000 10101 20015 36920 70222 8352/ 333 56990 58015
83646 86458=
84691 34460 80000 10165 20136 30145 40157 70220 886// 333 56900
58016 88716=
84752 32960 40000 10138 21053 37543 70202 84030 333 56090 58009
84360=
####018000409####
SMNV04 KWBC 050600
AAXX 05064
91551 31598 51405 10265 20196 40106 53005 70222 85200 333 563//
85820=
91554 31598 31505 10243 20162 40113 53006 70312 83800 333 563//
83825=
91557 31598 11406 10237 20169 40127 53012 70122 81100 333 563//
81825=
91565 31598 31808 10232 20158 40121 53016 70222 83100 333 563//
83825=
91568 31598 32012 10222 20160 40134 52018 70212 83200 333 565//
83825=
####018001915####
SMKR01 KWBC 050600
AAXX 05061
47016 32470 70000 10264 20166 39290 40114 57023 86501=
47020 01565 60000 10252 20211 39735 40095 57013 69921 72582 86900
333 69927=
47025 32569 81803 10241 20217 30102 40129 57012 885//=
47055 02570 80000 10219 20209 30080 40123 57016 60121 885// 333
60037=
47069 02560 81403 10240 20224 30014 40107 58015 60021 885// 333
69907=
47008 02970 80902 10216 20191 30087 40138 57018 69941 88050 333
69907=
47014 32565 70000 10303 20224 39741 40105 57014 87500=
47035 11570 61804 10276 20200 30087 40095 57009 60041 70162 85502=
47041 01560 80000 10232 20220 30093 40118 57010 60021 76166 8802/
333 69907=
47058 01560 81403 10267 20218 30059 40101 58015 69901 70262 884//
333 69907=
47003 01258 80000 10203 20182 30129 40133 57013 69911 76166 8802/
333 69917=
47005 32470 71803 10208 20116 38602 4//// 57010 87500=
47022 32470 81802 10222 20160 38841 4//// 57003 86502=
47037 32970 71804 10262 20214 39957 40071 52005 87090=
47039 01558 80000 10246 20228 39928 40104 57010 60071 76062 8802/
333 60077=
47046 01560 82301 10251 20224 30100 40121 57015 60031 72062 855//
333 60037=
47050 32565 81804 10258 20221 30051 40082 57016 885//=
47052 12565 71401 10248 20211 39793 40107 57016 60021 87500=
47065 12570 81402 10259 20228 30048 40109 57010 69911 884//=
47067 01530 80000 10248 20233 3//// 4//// 5//// 60021 76166 8802/
333 69997=
47068 32560 81402 10260 20218 30072 40105 58014 885//=
47028 32570 61804 10282 20203 39997 40086 57017 86900=
47031 02570 81802 10200 20168 38924 4//// 58006 69911 884// 333
69907=
47060 01561 80901 10271 20249 30047 40101 57017 69921 70362 884//
333 69907=
47061 12670 80000 10235 20222 30082 40122 57012 60021 885//=
47070 01560 81404 10231 20210 30041 40123 58010 60031 71798 885//
333 60037=
47075 01550 80000 10248 20228 39712 40105 56015 60021 76066 8802/
333 60027=
####018000494####
SMSW04 KWBC 050600 RRD
AAXX 05064
06783 06/// /3108 10117 20078 38363 48504 55001 60002 333 20086
3/007 55095 55300 20144 60005 70000 90760 91120=
06788 16/// /2402 10099 20095 38924 48493 58003 60005 333 20097
54/15 55095 55300 20083 70000 90760 91105=
06795 16/// /0103 10040 20040 37384 47104 57003 60005 333 20038
54/15 55121 55300 20097 70000 90760 91110=
06797 06/// /3008 10072 20048 37763 48507 57003 60002 333 20064
54/15 55108 55300 20176 60005 70000 90760 91111=
####018000736####
SMTG04 KWBC 050600
AAXX 05064
65351 12460 70000 10223 20223 3//// 4//// 60064 81532 333 20215
5//// 81613 83362 87076=
65352 12460 70000 10238 20236 3//// 4//// 60114 81572 333 20231
5//// 81613 85363 87076=
65355 12258 70000 10215 20215 39607 40126 60064 81542 333 20210
59023 81606 84360 87073=
65361 32455 70000 10232 20232 3//// 4//// 875// 333 20220 5////
87610=
65376 31403 72802 10230 20227 39670 40132 74642 875// 333 20224
59006 87610=
65380 32960 72202 10248 20240 3//// 4//// 80002 333 20241 5////
87076=
65387 11458 72606 10255 20242 30104 40130 69914 70152 84502 333
20251 59007 82610 83613 87073=
65357 11410 70000 10225 20224 39737 40125 60184 74442 8367/ 333
2//// 59014 83710 87360=
####018000204####
SMMZ04 KWBC 050600
AAXX 05064
67283 35580 20000 10204 20171 40200 82200 333 20150 5///0 55///
59010 555 10000=
67341 32570 31913 10234 20167 40206 52015 83200 333 20198 5///0
55/// 555 10000=
####018000433####
SMUY04 KWBC 050600
AAXX 05064
86586 32570 61507 10066 21008 30281 40324 50005 86470 555 10035
20219 30330=
86490 32960 01403 11010 21027 30298 40322 53002 555 11017 20183
30342=
86565 32462 40000 10040 20017 30296 40320 50006 84400 555 10030
20178 30338=
86585 32560 31301 10074 20002 30299 40321 52003 83500 555 10043
20191 30343=
86580 32565 51607 10069 20002 30291 40333 51005 85400 555 10040
20205 30337=
####018000226####
SMSO03 KWBC 050600
AAXX 05063
91507 31498 81804 10280 20221 40070 55003 71522 8597/ 333 56399
82816 81918 83630 85360=
91502 01498 81411 10269 20238 40081 55006 69961 71552 8587/ 333
56399 69947 82814 84629 88360=
####018002626####
SMSN01 KWBC 050600 RRD
AAXX 05061
02679 07899 72308 10180 20143 30020 40063 51010 69902 70082 333
10194 20169 60005 79999 84/58 85/60 87/65 90710 91111=
02101 47/61 /1304 10063 20043 39455 49997 57025 761// 8//// 333
10068 20014 89/30=
02119 07/79 /1201 10048 20023 39660 40042 58010 69952 76160 333
10048 21002 60005 70005 90710 91102=
02124 07558 81002 10057 20050 39512 40030 57015 60022 76260 333
10081 20021 60025 70020 84/30 88/39 90710 91104=
02126 07965 00902 10077 20070 39672 40002 58026 60022 76186 333
10077 20021 60025 70022 90710 91105=
02226 47/81 /1405 10103 20093 39498 49936 56022 761// 8//// 333
10115 20080 87/09 88/13=
02243 07/60 /1104 10097 20082 39704 49965 58037 60072 76266 333
10098 20075 60025 70074 90710 91110=
02269 07256 81315 10140 20129 60022 76165 333 10144 20124 69975
70023 84/04 88/12 90710 91119=
02287 07665 81403 10114 20098 30016 40026 58025 69902 76186 333
10139 20113 69905 70006 86/40 87/50 88/57 90710 91110=
02418 45/81 /2005 10122 20109 39870 49997 55000 8//// 333 10147
20114 81/13=
02435 45/83 /2003 10129 20113 39804 49984 55003 8//// 333 10135
20108 82/17 83/21=
02464 47/78 /2003 10150 20141 39999 40016 55010 722// 8//// 333
10167 20135 86/59=
02500 05981 02508 10139 20076 39958 49999 52007 60012 333 10163
20135 60005 70193 90710 91113=
02513 05/82 /2304 10149 20117 30034 40038 52005 60092 333 10165
20142 60005 70276 90710 91107=
02550 45/80 /2304 10123 20114 39775 40041 52011 8//// 333 10149
20115 81/13=
02557 264// 82003 10144 20119 39928 40035 53001 333 10159 20136
60005 84/11 86/16 88/21 90710 91105=
02562 01484 72204 10134 20118 39921 40032 53003 60022 78086 86500
333 10165 20131 31/// 69925 70025 81615 83640 86657 91006 90710
91106 90710 91205=
02019 05/99 /0201 10041 20035 39422 40038 58008 69912 333 10068
20012 60005 70012 90710 91103=
02081 07/77 /1001 10023 20014 39648 40052 57003 60002 70010 333
21006 60005 70000 90710 91102=
02188 05899 71305 10137 20087 60002 333 10140 20122 60005 70007
84/57 87/59 90710 91107=
02615 07981 02610 10156 20105 30080 40084 52007 69952 70010 333
10187 20150 60005 70006 90710 91114=
02635 05/78 /2605 10152 20107 69902 333 10179 20137 60005 70007
90710 91109=
02031 07/81 /0000 10030 20028 60002 72032 333 10093 21010 60005
70000 90710 91101=
02055 07199 90000 10020 20018 60002 72032 333 21023 60005 70000
84/02 87/63 90710 91100=
02173 07983 61001 10034 20032 60002 72032 333 21010 60005 70000
82/61 90710 91101=
02452 07473 72303 10118 20109 60142 70086 333 10126 20114 60005
70217 87/10 90710 91109=
####018000109####
SMIN03 KWBC 050600
AAXX 05063
43053 31496 82304 10308 20269 49978 70262 8467/ 222// 20701 333
59009=
####018000121####
SMNU04 KWBC 050600
AAXX 05064
78866 11480 20608 10279 20243 30150 40155 57018 69911 70180 83200
333 59002 82818=
####018000914####
SMIY04 KWBC 050600
AAXX 05064
16310 42998 00104 10220 20190 39893 40106 56008 6///2 333 20216
30/// 55100 2//// 55300 22/// 555 0100/=
16132 36/// /3309 10166 20092 30076 40134 54000 333 20157 55000
20017 555 20176 3//73 43309 51009 63314 1/134 21111 31111 411//
51111 61111 7////=
16171 36/// ///// 10146 20131 30081 40133 57002 333 20137 55000
20000 555 20154 3//16 4//// 5//// 1/136 21110 31111 411// 50011
61110 7////=
16288 36/// ///// 1//// 2//// 30047 4//// 57002 333 2//// 55000
20000 555 2//// 3//82 4//// 5//// 62609 1/134 21111 31111 411//
50010 60010 7////=
16334 36/// /3608 10256 20255 30008 40105 52006 333 20245 55005
20024 555 20245 3//10 40108 53602 60215 1/134 21111 31111 411//
51111 61111 7//// 3/137=
16129 36/// /3404 10196 20164 39559 48516 57003 333 20190 55027
20010 555 20185 3//// 43404 51700 63406 1/124 20111 31111 411//
51111 61101 7//// 3/133=
####018000216####
SMPU04 KWBC 050600
AAXX 05064
78526 12566 40000 10272 20239 30136 40157 56014 60021 90556 333
10289 20267 555 90506=
78543 15566 60603 10272 20244 30072 40154 57014 69951 90553 333
10294 20267 555 90506=
####018000131####
SMMW01 KWBC 050600
AAXX 05061
67586 31965 00907 10200 20085 38832 48551 70500 333 20120 51021
55091 59009 555 10273 7//11=
####018001275####
SMUZ01 KWBC 050600
AAXX 05061
38141 32998 03305 10188 20023 30001 40152 52028 333 20104=
38149 42998 03405 10214 20090 30070 40142 52004 333 20131=
38178 42998 22203 10220 20041 39839 40106 52003 82100 333 20128=
38262 32998 03304 10214 20041 30067 40145 52008 333 20125=
38264 42998 23205 10214 20032 30054 40142 52012 82030 333 20122=
38396 42997 51802 10252 20055 30019 40135 52006 85030 333 20138=
38403 42997 52701 10250 20082 30015 40128 52009 85080 333 20165=
38413 42998 72905 10242 20023 39874 40146 52020 87030 333 20152=
38457 32997 22102 10247 20064 39560 40106 52010 82040 333 20156=
38462 42699 41805 10206 20025 38737 48494 52001 82951 333 20087=
38565 32998 00000 10236 20048 3//// 4//// 5//// 333 20146=
38579 32999 03403 10255 20152 39719 40107 52009 333 20128=
38583 32997 22902 10259 20109 39814 40113 52007 80001 333 20118=
38611 12997 72002 10257 20126 39568 40096 57005 69902 87060 333
20186=
38618 12997 43301 10247 20159 39438 40075 57004 69900 80001 333
20177=
38683 42697 10203 10264 20074 39869 40125 52007 81100 333 20154=
38696 32999 02302 10246 20065 39309 40106 52009 333 20117=
38812 42997 00102 10274 20080 39695 40114 52016 333 20136=
38927 32960 02705 10284 20062 39752 40099 50004 333 20176=
####018001006####
SMLJ01 KWBC 050600
AAXX 05061
14006 12984 00902 10130 29065 48/// 60002 80000 333 70000=
14008 11989 03103 10071 20006 37533 47115 55000 60002 7//00 80000
333 20059 30/// 55114 22422 30214 553// 20562 30123 59034 70000
90705 91105 444 16092=
14012 129// 00000 10125 29077 48/// 60002 80000 333 20115 31///
70000=
14021 47171 11401 10094 20088 48/// 700// 333 20069 55/// 22158
553// 20409 81/02 90705 91101=
14024 47987 01301 10151 20090 48/// 700// 333 20120 90705 91102=
14031 42984 02601 10123 20112 39941 40164 5/006 80000 333 20083
30006 55116 22198 30830 553// 20499 30446 59067 70000 90705 91102=
14118 11/02 90000 10084 29092 48/// 60002 74544 89/// 333 20065
31006 70000 89///=
14120 11930 01700 10100 20100 39977 40167 5/005 60002 710// 80000
333 20080 31009 55/// 22198 553// 20412 59066 70000 90705 91101=
14009 12980 00901 10102 29079 48/// 60002 80000 333 20086 70000=
14112 12960 03603 10132 20094 48/// 60002 80000 333 20111 31010
70000 90705 91108=
####018000760####
SMJP04 KWBC 050600 RRA
AAXX 05064
47638 15/70 /2106 10303 20219 39839 40151 56014 60001 555 00307=
47648 15/70 /0307 10263 20236 30145 40177 56010 60001 555 00279=
47675 15/70 /2205 10295 20230 30080 40165 56014 60001 555 00305=
47678 15/70 /0706 10292 20248 39984 40155 57013 60001 555 00307=
47755 15/70 /3505 10299 20243 30094 40117 58013 60001 555 00319=
47765 12/80 61910 10315 20202 30067 40127 56014 60001 81832 555
00326=
47807 12/70 73207 10329 20244 30087 40104 58016 60001 86333 555
00332=
47830 11/60 70609 10275 20250 30105 40122 56017 60011 78082 872//
555 00299=
47891 12/80 71007 10318 20228 30119 40131 56016 60001 82232 555
00328=
47945 11/70 71412 10295 20263 30053 40076 57013 69901 72582 82202
555 00321=
####018002452####
SMZA04 KWBC 050600 RRC
AAXX 05064
68825 36/// /0804 10114 20077 39651 48614 53017 333 20110 91009
555 10216 91028=
68832 32570 60803 10112 20071 39310 48607 52013 85300 333 20087
91005 555 10215 91029=
68833 16/// /1104 10107 20096 39619 48617 53012 69944 333 20104
91006 555 10196 20004 91029=
68841 16/// /2802 10124 20119 30121 48637 53018 60014 333 20119
91003 555 10235 20012 69925 91029=
68842 11670 81607 10139 20096 30219 40288 52001 60074 76062 885//
333 20123 91010 555 10194 20072 91028=
68843 16/// /2903 10120 20109 30181 40283 53018 60084 333 20118
91006 555 10214 20080 69945 91028=
68858 11138 82311 10134 20131 30124 40284 53026 60064 76266 885//
333 20131 555 10225 20062 91028=
68911 36/// /1223 10141 20083 30243 40251 53005 333 20138 91036
555 10207 91025=
68916 36/// /1031 10118 20084 39982 40258 52004 333 20113 91043
555 10171 91025=
68920 12470 11508 10152 20106 30273 40286 52010 69924 81800 333
20144 91014 555 10184 20002 91028=
68921 16/// /1013 10149 20105 30288 40292 53007 69924 333 20141
91018 555 10190 20002 91029=
68925 16/// /0907 10109 20077 39921 48609 52007 69924 333 20099
91014 555 10173 20002 91027=
68926 16/// /0000 10124 20099 30122 40307 52015 60014 333 20119
91001 555 10175 20014 91030=
68931 16/// /0806 10128 20120 30137 40305 53009 60254 333 20120
91009 555 10178 20250 91030=
68935 16/// /0503 10125 20105 30227 40293 53011 60234 333 20122
91006 555 10186 20230 69925 91029=
68163 36/// /0903 10203 20023 39073 48566 53010 333 20074 91005
555 10306 91022=
68263 32970 01304 10172 21003 38527 48550 52007 333 20089 91006
555 10265 91024=
68329 36/// /0704 10185 21068 39126 48551 52006 333 20159 91006
555 10333 91020=
68341 36/// /3107 10186 20003 38571 48568 53008 333 20089 91012
555 10281 91026=
68347 36/// /0000 10112 21044 38396 48226 51003 333 20070 91003
555 10275 90986=
68403 36/// /2903 10107 20100 30174 40203 53006 333 20098 91005
555 10177 91020=
68443 36/// /0902 10116 21067 38673 48574 53013 333 20056 91006
555 10269 91026=
68481 36/// /1305 10199 20129 39854 40226 52011 333 20168 91008
555 10324 91023=
68727 36/// /0808 10104 20071 39226 48587 53011 333 20103 91013
555 10240 91027=
68752 16/// /1811 10101 20099 39581 48602 52023 60014 333 20100
91015 555 10114 20010 69925 91028=
68816 32681 11515 10140 20081 30185 40241 55010 81500 333 20131
91020 555 10193 91024=
####018000109####
SNAA04 KWBC 050400
AAXX 05044
89811 46/// /1604 11297 29069 38094 4//// 5//// 90430 333 90700
91105=
####018000886####
SMSP04 KWBC 050600
AAXX 05064
08238 02670 23017 10207 20099 30125 40184 53010 60002 81549 333
20204 3/021 55121 60007 70000=
08014 11670 42002 10156 20131 30264 40272 53005 60062 70261 83260
333 20156 32014 50284 55088 70062=
08171 02770 31502 10133 20105 39960 40198 53010 60002 82039 333
20130 30013 50500 55122 60007 79999=
08417 01970 01903 10209 20121 39504 40158 51010 60002 700// 80000
333 20209 3/020 55101 60007 70000=
08130 01970 00604 10124 20094 39471 40248 53011 60002 70000 80000
333 20123 30013 55110 60007 70000=
08383 01/01 90702 10205 20203 30124 40147 53004 60002 7454/ 89///
333 20205 30021 50524 55076 60007 70000 89/02=
08215 01980 30104 10112 20017 38176 48562 53006 60002 70200 80002
333 20096 30009 51214 55123 60007 70000=
08231 02570 43403 10163 20095 39127 42835 53012 60002 84100 333
20163 30017 50784 55101 60007 79999=
####018002412####
SMUS04 KWBC 050600 RRD
AAXX 05064
72265 35966 01005 10250 20133 39205 40166 51005 90553 333 10328
20211 555 90506=
72271 35966 02303 10267 20061 38587 40150 51018 90553 333 10328
20222 555 90506=
72308 32966 01804 10256 20233 30132 40147 53002 90551 333 10289
20217 555 90506=
72320 35966 00000 10239 20200 39915 40133 56000 90553 333 10317
20200 555 90506=
72394 37358 23003 10156 20128 30040 40129 50007 704// 90551 333
10211 20144 555 90506=
72412 35966 00304 10200 20167 39301 40150 53001 90551 333 10256
20161 555 90506=
72428 32966 00105 10161 20139 39898 40188 51008 90551 333 10228
20161 555 90506=
72429 32966 00105 10156 20133 39836 40194 50005 90556 333 10233
20156 555 90506=
72456 32966 00000 10200 20172 39877 40187 56001 90553 333 10261
20194 555 90506=
72458 35966 01714 10233 20194 39655 40168 58004 90555 333 10261
20200 91020 555 90506=
72492 35966 03007 10261 20100 30089 40102 51014 90555 333 10372
20183 555 90506=
72502 32566 60113 10217 20156 30154 40162 51019 90551 333 10294
20194 555 90506=
72503 32966 40212 10217 20156 30149 40160 51019 90551 333 10294
20211 555 90506=
72504 35966 03606 10189 20139 30157 40165 51017 90552 333 10250
20189 555 90506=
72514 35966 00000 10156 20128 39989 40181 53011 90554 333 10228
20150 555 90506=
72517 32966 00204 10189 20139 30032 40168 51014 90551 333 10267
20183 555 90506=
72525 32966 00205 10133 20111 39772 40195 50003 90551 333 10228
20117 555 90506=
72526 35566 61703 10139 20111 39931 40196 53001 90551 333 10250
20139 555 90506=
72543 32966 01503 10128 20117 39958 40222 51002 90554 333 10183
20128 555 90506=
72546 32966 01505 10156 20122 39851 40199 56005 90554 333 10233
20133 555 90506=
72550 32966 01405 10189 20144 39818 40185 58004 90552 333 10244
20139 555 90506=
72551 32966 01607 10200 20150 39758 40181 56005 90554 333 10244
20122 555 90506=
72564 35966 02708 10183 20067 38168 40138 51003 90553 333 10272
20139 555 90506=
72654 35966 01709 10189 20156 39688 40144 58009 90555 333 10239
20100 555 90506=
72658 32966 01505 10150 20117 39877 40192 57007 90553 333 10211
20144 555 90506=
72662 35966 01506 10217 20167 39034 40112 52002 90552 333 10300
20100 555 90506=
72753 32966 01409 10172 20128 39813 40141 58014 90553 555 90506=
72797 35966 03503 10128 20117 30104 40169 57003 90553 333 10194
20128 555 90506=
####018000899####
SMUS71 KWBC 050600 RRB
AAXX 05064
72659 NIL=
72548 NIL=
72462 NIL=
72639 NIL=
72566 NIL=
72480 NIL=
72764 NIL=
72428 NIL=
72458 NIL=
72445 NIL=
72569 NIL=
72421 NIL=
72564 NIL=
72429 NIL=
72547 NIL=
72451 NIL=
72565 NIL=
72745 NIL=
72546 NIL=
72537 NIL=
72432 NIL=
72753 NIL=
72637 NIL=
72651 NIL=
72533 NIL=
72476 NIL=
72465 NIL=
72645 NIL=
72552 NIL=
72635 NIL=
72654 NIL=
72638 NIL=
72425 NIL=
72450 NIL=
072438 NIL=
72747 NIL=
72539 NIL=
72562 NIL=
72422 NIL=
72551 NIL=
72446 NIL=
72640 NIL=
72636 NIL=
72544 NIL=
72641 NIL=
72658 NIL=
72556 NIL=
72550 NIL=
72530 NIL=
72435 NIL=
72532 NIL=
72464 NIL=
72662 NIL=
72592 NIL=
72543 NIL=
72672 NIL=
72644 NIL=
72535 NIL=
72423 NIL=
72440 NIL=
72666 NIL=
0072434 NIL=
72557 NIL=
72536 NIL=
72456 NIL=
72567 NIL=
####018002442####
SMUS02 KWBC 050600 RRA
AAXX 05064
72302 35566 80711 10272 20228 3//// 40108 58015 90553 333 10272
20239 555 90506=
72308 32966 01804 10256 20233 30132 40147 53002 90551 333 10289
20217 555 90506=
72310 32966 80309 10261 20189 30014 40096 58014 90556 333 10300
20233 555 90506=
72311 35966 00105 10256 20183 39842 40122 58000 90551 333 10294
20211 555 90506=
72312 35966 00405 10239 20194 39803 40128 58001 90553 333 10278
20206 555 90506=
72314 32766 80507 10261 20206 39877 40129 58002 90552 333 10289
20200 555 90506=
72317 32766 80000 10239 20228 39822 40136 50001 90554 333 10272
20194 555 90506=
72323 35966 03506 10261 20222 39931 40148 58000 90553 333 10317
20189 555 90506=
72324 35966 03104 10256 20222 39898 40139 56004 90553 333 10328
20206 555 90506=
72326 32966 00000 10233 20206 39791 40137 56003 90553 333 10300
20194 555 90506=
72327 32966 00107 10244 20178 39925 40166 50006 90553 333 10322
20200 555 90506=
72334 32966 03605 10278 20233 30066 40165 50001 90554 333 10322
20228 555 90506=
72344 35966 00000 10244 20244 30018 40181 51006 90553 333 10322
20222 555 90506=
72351 35966 01003 10239 20189 39823 40175 50003 90552 333 10328
20211 555 90506=
72353 32966 01407 10222 20211 39737 40182 50004 90552 333 10300
20206 555 90506=
72356 32966 00000 10239 20222 39935 40174 51004 90553 333 10306
20217 555 90506=
72360 35966 02406 10200 20089 38546 40170 51005 90555 333 10294
20172 555 90506=
72363 32966 01808 10194 20117 38977 40176 51004 90553 333 10311
20178 555 90506=
72365 32966 0//04 10244 20044 38443 40167 51012 90552 333 10317
20217 555 90506=
72370 35866 22414 10283 20106 38998 40099 51012 90551 333 10306
20233 555 90506=
72371 15966 00000 10272 20094 38720 40128 51009 69901 90553 333
10339 20233 555 90506=
72374 17964 81008 10244 20128 38559 40152 53026 69901 761// 90556
333 10306 20200 555 90506=
72376 35966 00805 10233 20011 38356 40164 51016 90553 333 10344
20233 555 90506=
72384 35966 00506 10306 20100 39921 40094 51013 90554 333 10378
20256 555 90506=
72386 32966 62003 10344 20094 39384 40093 51009 90556 333 10422
20300 555 90506=
72387 35966 00710 10339 20056 39002 40091 51015 90553 333 10394
20233 555 90506=
72389 32966 03207 10311 20144 39977 40097 51016 90553 333 10389
20233 555 90506=
72394 37358 23003 10156 20128 30040 40129 50007 704// 90551 333
10211 20144 555 90506=
####018000572####
SMUS72 KWBC 050600 RRA
AAXX 05064
72517 NIL=
72407 NIL=
72311 NIL=
72518 NIL=
72315 NIL=
72513 NIL=
72508 NIL=
72504 NIL=
72515 NIL=
72412 NIL=
72509 NIL=
72617 NIL=
72528 NIL=
72406 NIL=
72310 NIL=
72521 NIL=
72712 NIL=
72524 NIL=
72414 NIL=
72417 NIL=
72526 NIL=
72502 NIL=
72317 NIL=
72312 NIL=
072323 NIL=
72403 NIL=
72514 NIL=
74486 NIL=
72503 NIL=
72308 NIL=
72408 NIL=
72520 NIL=
72507 NIL=
72606 NIL=
72306 NIL=
72401 NIL=
72411 NIL=
72529 NIL=
72519 NIL=
72402 NIL=
72525 NIL=
####018002736####
SMUS03 KWBC 050600 RRA
AAXX 05064
72401 32866 61303 10244 20222 30089 40152 53010 90554 333 10283
20206 555 90506=
72403 32866 60307 10250 20161 30051 40159 51019 90552 333 10306
20200 555 90506=
72407 12966 03304 10233 20211 30110 40151 53007 69951 90554 333
10272 20172 555 90506=
72408 12966 80316 10228 20150 30140 40160 51016 69951 90554 333
10261 20206 555 90506=
72411 32966 00000 10244 20200 39737 40151 53008 90554 333 10300
20183 555 90506=
72412 35966 00304 10200 20167 39301 40150 53001 90551 333 10256
20161 555 90506=
72414 32666 40203 10222 20156 39805 40161 55000 90554 333 10283
20172 555 90506=
72417 37959 00000 10172 20156 39482 40179 53006 710// 90551 333
10239 20139 555 90506=
72421 32966 00409 10200 20144 39869 40178 50003 90552 333 10244
20200 555 90506=
72422 32966 00306 10200 20150 39826 40171 50000 90554 333 10283
20200 555 90506=
72428 32966 00105 10161 20139 39898 40188 51008 90551 333 10228
20161 555 90506=
72432 35966 00000 10189 20150 30049 40186 53004 90554 333 10261
20183 555 90506=
72434 32966 00104 10200 20156 39998 40192 53002 90551 333 10267
20200 555 90506=
72435 35966 00403 10206 20172 30044 40180 51007 90553 333 10289
20200 555 90506=
72438 32966 00308 10167 20122 39910 40195 51002 90554 333 10233
20167 555 90506=
72440 32966 00604 10233 20206 39742 40187 52004 90552 333 10289
20200 555 90506=
72445 35966 00603 10178 20150 39883 40199 51001 90554 333 10256
20172 555 90506=
72446 32966 01207 10200 20161 39822 40193 50001 90553 333 10244
20189 555 90506=
72450 32966 01607 10239 20189 39710 40178 50002 90553 333 10306
20228 555 90506=
72451 35966 01710 10228 20150 39282 40166 50002 90552 333 10328
20183 555 90506=
72456 32966 00000 10200 20172 39877 40187 56001 90553 333 10261
20194 555 90506=
72458 35966 01714 10233 20194 39655 40168 58004 90555 333 10261
20200 91020 555 90506=
72462 35966 03003 10144 20044 37799 40206 51008 90552 333 10289
20100 555 90506=
72464 35966 02805 10206 20089 38618 40156 50001 90553 333 10306
20189 555 90506=
72465 35/// 38912 58006 90553 555 90506=
72475 15966 02207 10244 20089 3//// 40138 58005 69901 90552 333
10317 20156 555 90506=
72476 35966 01306 10267 20072 38581 40139 51009 90553 333 10339
20217 555 90506=
72480 35966 00205 10217 20094 38765 40136 53013 90556 333 10339
20150 555 90506=
72486 35966 6//03 10211 20056 38141 40132 53015 90553 333 10311
20100 555 90506=
72488 12866 40000 10194 20139 38683 40148 51010 60011 90555 555
90506=
72492 35966 03007 10261 20100 30089 40102 51014 90555 333 10372
20183 555 90506=
72494 32266 62811 10167 20139 30097 40130 51014 90556 333 10194
20144 555 90506=
####018000727####
SMUS73 KWBC 050600 RRB
AAXX 05064
72220 NIL=
72266 NIL=
72365 NIL=
72256 NIL=
72218 NIL=
72363 NIL=
72219 NIL=
72254 NIL=
72327 NIL=
72241 NIL=
72250 NIL=
72360 NIL=
72324 NIL=
72208 NIL=
72251 NIL=
72212 NIL=
72259 NIL=
72261 NIL=
72270 NIL=
72201 NIL=
72344 NIL=
72243 NIL=
72235 NIL=
72206 NIL=
74740 NIL=
72267 NIL=
72240 NIL=
72265 NIL=
72217 NIL=
72205 NIL=
72234 NIL=
72226 NIL=
72202 NIL=
72223 NIL=
72231 NIL=
72353 NIL=
72203 NIL=
72320 NIL=
72268 NIL=
72253 NIL=
72207 NIL=
72248 NIL=
72263 NIL=
72351 NIL=
72271 NIL=
72214 NIL=
72211 NIL=
72356 NIL=
72332 NIL=
72326 NIL=
72255 NIL=
78543 NIL=
78526 NIL=
####018002746####
SMUS04 KWBC 050600 RRA
AAXX 05064
72503 32966 40212 10217 20156 30149 40160 51019 90551 333 10294
20211 555 90506=
72508 32966 23309 10161 20128 30093 40163 51014 90551 333 10211
20150 555 90506=
72509 32966 02808 10200 20144 30141 40149 51017 90554 333 10267
20183 555 90506=
72514 35966 00000 10156 20128 39989 40181 53011 90554 333 10228
20150 555 90506=
72515 35466 23503 10122 20106 39613 40187 50004 90553 333 10194
20117 555 90506=
72518 32666 20104 10150 20122 30075 40181 51014 90551 333 10211
20150 555 90506=
72519 32666 40204 10128 20117 30037 40186 50005 90554 333 10233
20128 555 90506=
72520 32966 00303 10150 20117 39769 40195 55001 90551 333 10217
20150 555 90506=
72524 32666 20000 10133 20117 39924 40203 51001 90551 333 10244
20133 555 90506=
72526 35566 61703 10139 20111 39931 40196 53001 90551 333 10250
20139 555 90506=
72528 32666 23605 10156 20106 39924 40193 50002 90554 333 10239
20156 555 90506=
72530 32666 80504 10167 20111 39973 40211 50000 90551 333 10200
20150 555 90506=
72532 35966 00603 10156 20128 39964 40207 50001 90554 333 10217
20150 555 90506=
72533 32966 00000 10117 20111 39910 40204 55000 90554 333 10244
20117 555 90506=
72537 32766 63604 10150 20122 39969 40201 52003 90553 333 10211
20144 555 90506=
72546 32966 01505 10156 20122 39851 40199 56005 90554 333 10233
20133 555 90506=
72547 35966 00000 10111 20100 39828 40216 55002 90553 333 10178
20106 555 90506=
72552 35966 01407 10189 20161 39524 40174 58008 90553 333 10239
20133 555 90506=
72556 35966 01306 10172 20144 39631 40177 56004 90556 333 10239
20089 555 90506=
72557 35866 41307 10161 20144 39785 40181 58008 90552 333 10239
20100 555 90506=
72562 35966 01405 10183 20167 39192 40151 58008 90553 333 10256
20117 555 90506=
72564 35966 02708 10183 20067 38168 40138 51003 90553 333 10272
20139 555 90506=
72565 32966 22115 10228 20072 38386 40131 58003 90553 333 10278
20161 555 90506=
72567 35966 01909 10206 20150 39249 40139 58003 90552 333 10283
20100 555 90506=
72569 35966 02407 10178 20011 38394 40129 51010 90553 333 10333
20144 555 90506=
72570 35966 00000 10156 20078 38168 40180 53016 90553 333 10300
20094 555 90506=
72572 32966 40308 10272 20111 38745 40141 53034 90554 333 10356
20211 555 90506=
72578 35966 02604 10233 20072 38659 40138 53004 90553 333 10333
20117 555 90506=
72583 15966 01806 10189 20139 38720 40160 55017 60031 90556 333
10344 20128 555 90506=
72591 35966 00000 10261 20122 39980 40100 53015 90554 333 10350
20194 555 90506=
72594 35162 81604 10144 20128 30113 40138 50003 90553 333 10161
20117 555 90506=
72597 35966 00000 10239 20111 39655 40109 51015 90553 555 90506=
####018002096####
SMUS05 KWBC 050600 RRA
AAXX 05064
72606 35966 02909 10161 20106 30130 40147 53031 90551 333 10222
20161 555 90506=
72617 15566 83503 10156 20000 30056 40180 51013 69901 90554 333
10211 20156 555 90506=
72635 35966 00000 10117 20089 39927 40211 50001 90553 333 10206
20117 555 90506=
72636 35966 00000 10111 20078 39987 40216 50002 90555 333 10211
20106 555 90506=
72637 35666 82903 10156 20111 39928 40204 53002 90553 333 10211
20150 555 90506=
72638 37912 00000 10050 20044 39799 40222 53003 710// 90553 333
10161 20050 555 90506=
72639 35966 00000 10056 20044 39962 40215 51006 90554 333 10167
20056 555 90506=
72640 32566 60000 10156 20111 39970 40215 51001 90552 333 10194
20156 555 90506=
72641 32664 80000 10111 20106 39905 40217 51001 90553 333 10172
20106 555 90506=
72644 35966 01607 10117 20094 39729 40207 58006 90554 333 10194
20094 555 90506=
72645 35966 02403 10106 20089 39967 40215 52002 90553 333 10167
20100 555 90506=
72651 35966 01709 10183 20139 39667 40173 58006 90556 333 10233
20100 555 90506=
72654 35966 01709 10189 20156 39688 40144 58009 90555 333 10239
20100 555 90506=
72658 32966 01505 10150 20117 39877 40192 57007 90553 333 10211
20144 555 90506=
72659 35966 01713 10194 20150 39660 40127 56013 90553 333 10233
20056 555 90506=
72662 35966 01506 10217 20167 39034 40112 52002 90552 333 10300
20100 555 90506=
72666 35966 03210 10194 20072 38802 40125 53015 90553 333 10356
20094 555 90506=
72677 32966 23508 10256 20011 38925 40129 53022 90553 333 10372
20161 555 90506=
72681 32966 01315 10250 20050 39143 40122 53012 90553 333 10356
20183 91022 555 90506=
72683 35966 02906 10172 20028 38742 40139 51009 90553 333 10333
20072 555 90506=
72688 35966 01405 10194 20061 39606 40132 51009 90553 333 10306
20161 555 90506=
72693 32966 03505 10178 20089 39999 40135 51005 90554 333 10283
20106 555 90506=
72694 35966 03404 10189 20117 30064 40135 51007 90556 333 10272
20139 555 90506=
72698 32966 02906 10211 20139 30130 40137 51005 90553 333 10272
20183 555 90506=
####018001222####
SMUS06 KWBC 050600 RRA
AAXX 05064
72712 15966 03008 10111 20083 39881 40111 53027 69951 90554 333
10183 20100 555 90506=
72745 32966 02503 10133 20094 39682 40198 53006 90555 333 10189
20094 555 90506=
72747 15966 00000 10117 20094 39749 40179 50002 69901 90555 333
10178 20094 555 90506=
72753 32966 01409 10172 20128 39813 40141 58014 90553 555 90506=
72764 35966 01309 10200 20156 39513 40093 56008 90552 333 10261
20072 555 90506=
72767 35966 00000 10172 20122 39436 40103 51018 90552 333 10317
20083 555 90506=
72768 35966 01003 10194 20067 39330 40125 51021 90553 333 10317
20139 555 90506=
72772 32966 00000 10194 20022 38833 40161 51012 90553 333 10328
20150 555 90506=
72773 35964 00000 10156 20028 39060 40161 53015 90553 333 10306
20139 555 90506=
72776 32966 01403 10161 21006 38900 40146 51015 90553 333 10317
20111 555 90506=
72777 35966 01604 10139 20050 39243 40141 53019 90553 333 10306
20139 555 90506=
72781 35966 02805 10150 20083 39765 40144 53014 90553 333 10300
20111 555 90506=
72793 32966 00209 10189 20128 30006 40172 52003 90553 333 10244
20150 555 90506=
72797 35966 03503 10128 20117 30104 40169 57003 90553 333 10194
20128 555 90506=
####018000208####
SMUS22 KWBC 050600 RRA
AAXX 05064
72241 35966 00000 10250 20244 30153 40160 58004 90553 333 10317
20244 555 90506=
72297 32966 03304 10256 20194 30099 40111 51013 90553 333 10322
20233 555 90506=
####018000548####
SMUS23 KWBC 050600 RRA
AAXX 05064
72306 32966 80000 10233 20228 39990 40139 50001 90551 333 10283
20211 555 90506=
72315 35966 01003 10222 20167 39390 40140 55002 90554 333 10267
20172 555 90506=
72320 35966 00000 10239 20200 39915 40133 56000 90553 333 10317
20200 555 90506=
72332 35966 00103 10244 20217 30036 40157 90553 333 10328 20206
555 90506=
72375 15966 43503 10144 20094 37944 40172 53009 69951 90557 333
10222 20094 555 90506=
72383 35966 02206 10244 20083 38649 40140 51009 90553 333 10317
20222 555 90506=
####018000645####
SMUS24 KWBC 050600 RRA
AAXX 05064
72402 35964 02106 10261 20244 30128 40142 50002 90554 333 10267
20222 555 90506=
72405 12966 80305 10261 20222 30134 40157 51015 69951 90552 333
10306 20222 555 90506=
72406 12866 60105 10261 20156 30084 40153 50013 69901 90554 333
10311 20200 555 90506=
72423 32966 20107 10206 20156 30004 40174 50002 90556 333 10278
20206 555 90506=
72425 32966 00403 10200 20156 39870 40165 51002 90551 333 10272
20189 555 90506=
72429 32966 00105 10156 20133 39836 40194 50005 90556 333 10233
20156 555 90506=
72486 35966 6//03 10211 20056 38141 40132 53015 90553 333 10311
20100 555 90506=
####018001319####
SMUS25 KWBC 050600 RRA
AAXX 05064
72502 32566 60113 10217 20156 30154 40162 51019 90551 333 10294
20194 555 90506=
72504 35966 03606 10189 20139 30157 40165 51017 90552 333 10250
20189 555 90506=
72507 35966 02705 10183 20150 30139 40159 51019 90551 333 10233
20167 555 90506=
72513 32966 00106 10167 20117 39843 40181 53010 90554 333 10244
20167 555 90506=
72521 32966 00405 10128 20117 39752 40195 50004 90551 333 10228
20128 555 90506=
72529 32966 00000 10122 20106 39980 40196 51002 90554 333 10239
20122 555 90506=
72535 35966 03504 10106 20100 39933 40215 52002 90554 333 10194
20106 555 90506=
72536 32666 83503 10167 20117 39948 40197 50000 90552 333 10244
20167 555 90506=
72539 32966 03404 10117 20094 39898 40211 53001 90553 333 10200
20100 555 90506=
72543 32966 01503 10128 20117 39958 40222 51002 90554 333 10183
20128 555 90506=
72544 35966 00000 10122 20106 39992 40211 55001 90552 333 10206
20122 555 90506=
72548 35966 00000 10111 20094 39891 40206 58001 90554 333 10211
20106 555 90506=
72551 32966 01607 10200 20150 39758 40181 56005 90554 333 10244
20122 555 90506=
72566 35966 00808 10200 20172 38801 40118 58000 90553 333 10322
20161 555 90506=
72592 12966 00000 10256 20111 39923 40100 53020 69901 90553 333
10367 20172 555 90506=
####018000129####
SMUS26 KWBC 050600 RRA
AAXX 05064
72605 35966 03113 10156 20089 30039 40161 51024 90551 333 10211
20156 91024 555 90506=
####018000384####
SMUS27 KWBC 050600 RRA
AAXX 05064
72783 35966 01503 10217 20056 39633 40139 51011 90556 333 10317
20200 555 90506=
72785 32966 00000 10189 20033 39314 40154 53007 90553 333 10278
20150 555 90506=
72791 15966 00000 10144 20128 30152 40156 50004 69901 90555 333
10200 20144 555 90506=
72792 35966 00204 10167 20122 30096 40165 53006 90554 333 10239
20100 555 90506=
